<?xml version="1.0" encoding="UTF-8"?>
<kml xmlns="http://www.opengis.net/kml/2.2" xmlns:gx="http://www.google.com/kml/ext/2.2">
    <Document id="1">
        <Style id="6">
            <LineStyle id="7">
                <color>ffBC26A7</color>
                <colorMode>normal</colorMode>
                <width>1</width>
            </LineStyle>
            <PolyStyle id="8">
                <color>ffBC26A7</color>
                <colorMode>normal</colorMode>
                <fill>1</fill>
                <outline>1</outline>
            </PolyStyle>
        </Style>
        <Placemark id="3">
            <name>NW_lobe</name>
            <description/>
            <styleUrl>#6</styleUrl>
            <Polygon id="2">
                <extrude>0</extrude>
                <outerBoundaryIs>
                    <LinearRing id="4">
                        <coordinates>34.50299901647412,-18.900924055561788,0.0 34.50309060135007,-18.900801306121693,0.0 34.50307533720414,-18.900635233205463,0.0 34.50293795989012,-18.900541365832623,0.0 34.50270136562716,-18.90057024810676,0.0 34.502426610997986,-18.900584689241995,0.0 34.50227396953804,-18.900548586401655,0.0 34.501861837596095,-18.900476380697526,0.0 34.5017320923551,-18.900433057260102,0.0 34.501533658457106,-18.900310307459904,0.0 34.50146496980014,-18.900245322235037,0.0 34.50159471504111,-18.900035925227897,0.0 34.50165577162508,-18.89984096915805,0.0 34.5017015640631,-18.899631571644946,0.0 34.50170919613606,-18.899443835719637,0.0 34.501716828209084,-18.89927054083347,0.0 34.50172446028205,-18.899075583872033,0.0 34.50164813955212,-18.898960053713623,0.0 34.50160997918712,-18.898837302832973,0.0 34.50140391321611,-18.8989239505228,0.0 34.50136575285114,-18.8987217725101,0.0 34.501228375536016,-18.898945612438226,0.0 34.501152054806,-18.898822861546975,0.0 34.50117495102498,-18.898627904063986,0.0 34.501228375536016,-18.89844016701393,0.0 34.50120547931698,-18.89833185708045,0.0 34.501052837856975,-18.8982379884157,0.0 34.50090782846999,-18.898404063710927,0.0 34.50085440395901,-18.898555697531194,0.0 34.500923092616034,-18.898750655098283,0.0 34.500938356761964,-18.898880626683464,0.0 34.500869668105054,-18.89899615689673,0.0 34.50068649835305,-18.89890950924429,0.0 34.50055675311205,-18.89898171562446,0.0 34.500518592747056,-18.899198334577974,0.0 34.50043463994405,-18.899386070777524,0.0 34.50033542299505,-18.899537703708106,0.0 34.50013698909706,-18.899710998318696,0.0 34.499923291051914,-18.89957380676762,0.0 34.49966380056998,-18.899487159413198,0.0 34.499450102526,-18.899451056336062,0.0 34.49933562143099,-18.899653233468783,0.0 34.49920587619002,-18.899566586156524,0.0 34.49929746106602,-18.899299423326994,0.0 34.499137187532995,-18.8991116870302,0.0 34.498923489489016,-18.8991116870302,0.0 34.49889296119704,-18.899328305815487,0.0 34.49899981021903,-18.899523262482546,0.0 34.499060866803035,-18.899812086758047,0.0 34.49905323473001,-18.900050366409232,0.0 34.498923489489016,-18.900201998737828,0.0 34.498747951808866,-18.90031752803884,0.0 34.498747951808866,-18.900469160125425,0.0 34.49878611217386,-18.90059913037595,0.0 34.49885480083202,-18.90072187996543,0.0 34.49891585741602,-18.900822967794184,0.0 34.49893112156204,-18.90100348162207,0.0 34.49896928192703,-18.90117677471372,0.0 34.49904560265699,-18.90128508280482,0.0 34.499060866803035,-18.901436714014693,0.0 34.49901507436502,-18.901581124562924,0.0 34.498870064978036,-18.90173275550451,0.0 34.49883190461301,-18.901920488861947,0.0 34.49878611217386,-18.902101001505883,0.0 34.49889296119704,-18.902252631976395,0.0 34.49954168740197,-18.902368159861638,0.0 34.499686696788956,-18.902469246695773,0.0 34.50013698909706,-18.902548672022647,0.0 34.50035068714104,-18.90245480572321,0.0 34.50043463994405,-18.902259852471516,0.0 34.50057201725804,-18.902101001505883,0.0 34.50073992286403,-18.902252631976395,0.0 34.50099178127297,-18.90215154501132,0.0 34.50106810200299,-18.902007134955326,0.0 34.50125127175497,-18.90182662220903,0.0 34.50142680943512,-18.901869945285583,0.0 34.501747356501085,-18.90159556561096,0.0 34.50198395076407,-18.901516139831656,0.0 34.50219001673503,-18.901364508693803,0.0 34.50225107331903,-18.901270641730108,0.0 34.50231976197608,-18.901393390825874,0.0 34.50244950721702,-18.901458375604847,0.0 34.50261741282415,-18.901378949760485,0.0 34.502708997700154,-18.90119121579656,0.0 34.50286163916016,-18.90117677471372,0.0 34.50289216745213,-18.901017922719888,0.0 34.50299901647412,-18.900924055561788,0.0</coordinates>
                    </LinearRing>
                </outerBoundaryIs>
            </Polygon>
        </Placemark>
    </Document>
</kml>
