<?xml version="1.0" encoding="UTF-8"?>
<kml xmlns="http://www.opengis.net/kml/2.2" xmlns:gx="http://www.google.com/kml/ext/2.2">
    <Document id="1">
        <Style id="6">
            <LineStyle id="7">
                <color>ffC22657</color>
                <colorMode>normal</colorMode>
                <width>1</width>
            </LineStyle>
            <PolyStyle id="8">
                <color>ffC22657</color>
                <colorMode>normal</colorMode>
                <fill>1</fill>
                <outline>1</outline>
            </PolyStyle>
        </Style>
        <Placemark id="3">
            <name>SE_lobe</name>
            <description/>
            <styleUrl>#6</styleUrl>
            <Polygon id="2">
                <extrude>0</extrude>
                <outerBoundaryIs>
                    <LinearRing id="4">
                        <coordinates>34.50605908195172,-18.908441046519016,0.0 34.5062344844589,-18.90846317150043,0.0 34.50631633896231,-18.90809810893238,0.0 34.50632803246276,-18.907688795407765,0.0 34.50617601695649,-18.907323731149646,0.0 34.50587198594317,-18.907213105459604,0.0 34.50580182494022,-18.90696972868311,0.0 34.50554456792969,-18.906792727169318,0.0 34.50524053691723,-18.90659360024243,0.0 34.505135295412856,-18.90641659833065,0.0 34.50506513441002,-18.906173220396226,0.0 34.50503005390854,-18.90594090476401,0.0 34.50485465140051,-18.90563115008696,0.0 34.50455062038799,-18.905520523277573,0.0 34.50463247489131,-18.90514439157768,0.0 34.5047727968971,-18.90480144723277,0.0 34.50480787739852,-18.9044363766737,0.0 34.50480787739852,-18.904082368097278,0.0 34.504749409896135,-18.903750484377426,0.0 34.50446876588458,-18.903296908894646,0.0 34.50437521788075,-18.903020337875446,0.0 34.504269976376406,-18.902677389176688,0.0 34.504106267369764,-18.90237869134927,0.0 34.50407118686826,-18.902102118812323,0.0 34.504059493367805,-18.90181448288891,0.0 34.50404779986732,-18.9015489723661,0.0 34.50387801003302,-18.901287838783617,0.0 34.503714849912996,-18.901154969989634,0.0 34.5034360319851,-18.90105141041616,0.0 34.50324808804933,-18.90116864766439,0.0 34.50307047070348,-18.901369904750055,0.0 34.50325264183374,-18.901725979428406,0.0 34.50335788333811,-18.902157433356265,0.0 34.50342804434095,-18.90252250888787,0.0 34.50317078733042,-18.90263313768044,0.0 34.50305385232562,-18.902920772196566,0.0 34.502890143317984,-18.903252657562277,0.0 34.502983691321816,-18.903507102564376,0.0 34.50326433533425,-18.90357347945759,0.0 34.50352159234484,-18.903960677476405,0.0 34.503837316857755,-18.90383898676704,0.0 34.50403610636684,-18.903728358772625,0.0 34.504012719365875,-18.90410449365521,0.0 34.50376715585489,-18.904414251159693,0.0 34.50342804434095,-18.904712945352244,0.0 34.503311109336096,-18.904945262688813,0.0 34.503322802836635,-18.90532139483635,0.0 34.50318248083087,-18.90550946059264,0.0 34.50283167581554,-18.905409896395085,0.0 34.50262119280697,-18.905642212763837,0.0 34.50252764480305,-18.90587452881003,0.0 34.50265627330839,-18.906184283037305,0.0 34.503018771823236,-18.90647191144822,0.0 34.50305385232562,-18.906737414157817,0.0 34.502761514812704,-18.907080354534955,0.0 34.50278490181367,-18.907301606017512,0.0 34.50303046532372,-18.90752285720741,0.0 34.50340465734001,-18.907766233178307,0.0 34.5041764283726,-18.90758923250732,0.0 34.504445378883645,-18.907832608381653,0.0 34.504737716395624,-18.908109171446227,0.0 34.50485465140051,-18.908540608912475,0.0 34.50522884341669,-18.90836360906094,0.0 34.5055562614302,-18.908640171246645,0.0 34.50589537294411,-18.908496358967128,0.0 34.50605908195172,-18.908441046519016,0.0</coordinates>
                    </LinearRing>
                </outerBoundaryIs>
            </Polygon>
        </Placemark>
    </Document>
</kml>
