<?xml version="1.0" ?><gpx xmlns="http://www.topografix.com/GPX/1/1" creator="GaiaGPS" version="1.1" xmlns:xsi="http://www.w3.org/2001/XMLSchema-instance" xsi:schemaLocation="http://www.topografix.com/GPX/1/1 http://www.topografix.com/GPX/1/1/gpx.xsd"><trk><name>Going in; Bird nest counting</name><desc></desc><extensions><line xmlns="http://www.topografix.com/GPX/gpx_style/0/2"><color>00B2FF</color></line></extensions><trkseg><trkpt lat="-18.918882" lon="34.383279"><ele>21.6</ele><time>2026-04-07T04:56:34Z</time></trkpt><trkpt lat="-18.918814" lon="34.383365"><ele>20.0</ele><time>2026-04-07T04:56:46Z</time></trkpt><trkpt lat="-18.918719" lon="34.383412"><ele>20.5</ele><time>2026-04-07T04:56:57Z</time></trkpt><trkpt lat="-18.918615" lon="34.383431"><ele>19.0</ele><time>2026-04-07T04:57:06Z</time></trkpt><trkpt lat="-18.918503" lon="34.383407"><ele>18.0</ele><time>2026-04-07T04:57:15Z</time></trkpt><trkpt lat="-18.918429" lon="34.383418"><ele>19.0</ele><time>2026-04-07T04:57:21Z</time></trkpt><trkpt lat="-18.918369" lon="34.383452"><ele>20.0</ele><time>2026-04-07T04:57:27Z</time></trkpt><trkpt lat="-18.91815" lon="34.383639"><ele>20.0</ele><time>2026-04-07T04:57:45Z</time></trkpt><trkpt lat="-18.917986" lon="34.383737"><ele>20.0</ele><time>2026-04-07T04:57:56Z</time></trkpt><trkpt lat="-18.91778" lon="34.383823"><ele>20.0</ele><time>2026-04-07T04:58:06Z</time></trkpt><trkpt lat="-18.917574" lon="34.383947"><ele>19.0</ele><time>2026-04-07T04:58:15Z</time></trkpt><trkpt lat="-18.917549" lon="34.38393"><ele>21.1</ele><time>2026-04-07T04:58:17Z</time></trkpt><trkpt lat="-18.91751" lon="34.383946"><ele>21.4</ele><time>2026-04-07T04:58:18Z</time></trkpt><trkpt lat="-18.917372" lon="34.384088"><ele>20.0</ele><time>2026-04-07T04:58:23Z</time></trkpt><trkpt lat="-18.917069" lon="34.384294"><ele>20.0</ele><time>2026-04-07T04:58:36Z</time></trkpt><trkpt lat="-18.916421" lon="34.384606"><ele>20.0</ele><time>2026-04-07T04:59:04Z</time></trkpt><trkpt lat="-18.916101" lon="34.384716"><ele>21.0</ele><time>2026-04-07T04:59:19Z</time></trkpt><trkpt lat="-18.915692" lon="34.384811"><ele>20.0</ele><time>2026-04-07T04:59:49Z</time></trkpt><trkpt lat="-18.915589" lon="34.384847"><ele>20.0</ele><time>2026-04-07T04:59:59Z</time></trkpt><trkpt lat="-18.915552" lon="34.384849"><ele>21.0</ele><time>2026-04-07T05:00:02Z</time></trkpt><trkpt lat="-18.915226" lon="34.384934"><ele>20.0</ele><time>2026-04-07T05:00:30Z</time></trkpt><trkpt lat="-18.915014" lon="34.385011"><ele>20.8</ele><time>2026-04-07T05:00:38Z</time></trkpt><trkpt lat="-18.914911" lon="34.385065"><ele>21.1</ele><time>2026-04-07T05:00:40Z</time></trkpt><trkpt lat="-18.914632" lon="34.385133"><ele>21.2</ele><time>2026-04-07T05:00:44Z</time></trkpt><trkpt lat="-18.914267" lon="34.385178"><ele>21.2</ele><time>2026-04-07T05:00:48Z</time></trkpt><trkpt lat="-18.913867" lon="34.385195"><ele>21.5</ele><time>2026-04-07T05:00:52Z</time></trkpt><trkpt lat="-18.91314" lon="34.385164"><ele>23.0</ele><time>2026-04-07T05:00:59Z</time></trkpt><trkpt lat="-18.912828" lon="34.385165"><ele>22.5</ele><time>2026-04-07T05:01:02Z</time></trkpt><trkpt lat="-18.911998" lon="34.385237"><ele>22.2</ele><time>2026-04-07T05:01:10Z</time></trkpt><trkpt lat="-18.911693" lon="34.385274"><ele>21.8</ele><time>2026-04-07T05:01:13Z</time></trkpt><trkpt lat="-18.911384" lon="34.385328"><ele>22.2</ele><time>2026-04-07T05:01:16Z</time></trkpt><trkpt lat="-18.910994" lon="34.38547"><ele>22.2</ele><time>2026-04-07T05:01:20Z</time></trkpt><trkpt lat="-18.910698" lon="34.385551"><ele>22.1</ele><time>2026-04-07T05:01:23Z</time></trkpt><trkpt lat="-18.910396" lon="34.385601"><ele>22.3</ele><time>2026-04-07T05:01:26Z</time></trkpt><trkpt lat="-18.909996" lon="34.385633"><ele>22.0</ele><time>2026-04-07T05:01:30Z</time></trkpt><trkpt lat="-18.909198" lon="34.385631"><ele>22.3</ele><time>2026-04-07T05:01:38Z</time></trkpt><trkpt lat="-18.908307" lon="34.385733"><ele>21.5</ele><time>2026-04-07T05:01:47Z</time></trkpt><trkpt lat="-18.90811" lon="34.385771"><ele>21.4</ele><time>2026-04-07T05:01:49Z</time></trkpt><trkpt lat="-18.907625" lon="34.385889"><ele>21.3</ele><time>2026-04-07T05:01:54Z</time></trkpt><trkpt lat="-18.907329" lon="34.385945"><ele>21.4</ele><time>2026-04-07T05:01:56Z</time></trkpt><trkpt lat="-18.906639" lon="34.386029"><ele>21.5</ele><time>2026-04-07T05:02:03Z</time></trkpt><trkpt lat="-18.905749" lon="34.386119"><ele>21.3</ele><time>2026-04-07T05:02:12Z</time></trkpt><trkpt lat="-18.905558" lon="34.386163"><ele>21.2</ele><time>2026-04-07T05:02:15Z</time></trkpt><trkpt lat="-18.905356" lon="34.386185"><ele>21.0</ele><time>2026-04-07T05:02:17Z</time></trkpt><trkpt lat="-18.904874" lon="34.386278"><ele>21.1</ele><time>2026-04-07T05:02:22Z</time></trkpt><trkpt lat="-18.904386" lon="34.386389"><ele>21.4</ele><time>2026-04-07T05:02:27Z</time></trkpt><trkpt lat="-18.903619" lon="34.386594"><ele>22.1</ele><time>2026-04-07T05:02:35Z</time></trkpt><trkpt lat="-18.902955" lon="34.386789"><ele>21.9</ele><time>2026-04-07T05:02:42Z</time></trkpt><trkpt lat="-18.901715" lon="34.387195"><ele>21.4</ele><time>2026-04-07T05:02:55Z</time></trkpt><trkpt lat="-18.90104" lon="34.387385"><ele>21.9</ele><time>2026-04-07T05:03:02Z</time></trkpt><trkpt lat="-18.900655" lon="34.387505"><ele>22.0</ele><time>2026-04-07T05:03:06Z</time></trkpt><trkpt lat="-18.900186" lon="34.387683"><ele>21.8</ele><time>2026-04-07T05:03:11Z</time></trkpt><trkpt lat="-18.899915" lon="34.387814"><ele>21.7</ele><time>2026-04-07T05:03:14Z</time></trkpt><trkpt lat="-18.899567" lon="34.388021"><ele>21.6</ele><time>2026-04-07T05:03:18Z</time></trkpt><trkpt lat="-18.899167" lon="34.388291"><ele>21.3</ele><time>2026-04-07T05:03:23Z</time></trkpt><trkpt lat="-18.898911" lon="34.388448"><ele>20.7</ele><time>2026-04-07T05:03:27Z</time></trkpt><trkpt lat="-18.898707" lon="34.388554"><ele>20.0</ele><time>2026-04-07T05:03:32Z</time></trkpt><trkpt lat="-18.898385" lon="34.388688"><ele>20.0</ele><time>2026-04-07T05:03:46Z</time></trkpt><trkpt lat="-18.898166" lon="34.388804"><ele>20.0</ele><time>2026-04-07T05:03:56Z</time></trkpt><trkpt lat="-18.89804" lon="34.388882"><ele>20.0</ele><time>2026-04-07T05:04:02Z</time></trkpt><trkpt lat="-18.897799" lon="34.389055"><ele>20.0</ele><time>2026-04-07T05:04:13Z</time></trkpt><trkpt lat="-18.897523" lon="34.389212"><ele>20.0</ele><time>2026-04-07T05:04:27Z</time></trkpt><trkpt lat="-18.897025" lon="34.389441"><ele>20.0</ele><time>2026-04-07T05:04:49Z</time></trkpt><trkpt lat="-18.896287" lon="34.389699"><ele>20.9</ele><time>2026-04-07T05:05:04Z</time></trkpt><trkpt lat="-18.895793" lon="34.389846"><ele>20.8</ele><time>2026-04-07T05:05:10Z</time></trkpt><trkpt lat="-18.894836" lon="34.390152"><ele>20.8</ele><time>2026-04-07T05:05:20Z</time></trkpt><trkpt lat="-18.894531" lon="34.390237"><ele>20.6</ele><time>2026-04-07T05:05:23Z</time></trkpt><trkpt lat="-18.893936" lon="34.390442"><ele>21.0</ele><time>2026-04-07T05:05:29Z</time></trkpt><trkpt lat="-18.893636" lon="34.390527"><ele>20.8</ele><time>2026-04-07T05:05:32Z</time></trkpt><trkpt lat="-18.893432" lon="34.390569"><ele>20.7</ele><time>2026-04-07T05:05:34Z</time></trkpt><trkpt lat="-18.893229" lon="34.390598"><ele>20.6</ele><time>2026-04-07T05:05:36Z</time></trkpt><trkpt lat="-18.892318" lon="34.390676"><ele>20.4</ele><time>2026-04-07T05:05:45Z</time></trkpt><trkpt lat="-18.892116" lon="34.390702"><ele>20.4</ele><time>2026-04-07T05:05:47Z</time></trkpt><trkpt lat="-18.891717" lon="34.390773"><ele>20.5</ele><time>2026-04-07T05:05:51Z</time></trkpt><trkpt lat="-18.890837" lon="34.390978"><ele>20.4</ele><time>2026-04-07T05:06:00Z</time></trkpt><trkpt lat="-18.890152" lon="34.39116"><ele>20.6</ele><time>2026-04-07T05:06:07Z</time></trkpt><trkpt lat="-18.88976" lon="34.391246"><ele>20.7</ele><time>2026-04-07T05:06:11Z</time></trkpt><trkpt lat="-18.889062" lon="34.391361"><ele>21.0</ele><time>2026-04-07T05:06:18Z</time></trkpt><trkpt lat="-18.888368" lon="34.391489"><ele>21.0</ele><time>2026-04-07T05:06:25Z</time></trkpt><trkpt lat="-18.887273" lon="34.391646"><ele>20.6</ele><time>2026-04-07T05:06:36Z</time></trkpt><trkpt lat="-18.886771" lon="34.391735"><ele>21.1</ele><time>2026-04-07T05:06:41Z</time></trkpt><trkpt lat="-18.885875" lon="34.391943"><ele>20.5</ele><time>2026-04-07T05:06:50Z</time></trkpt><trkpt lat="-18.885083" lon="34.392101"><ele>20.6</ele><time>2026-04-07T05:06:58Z</time></trkpt><trkpt lat="-18.884185" lon="34.39225"><ele>20.7</ele><time>2026-04-07T05:07:07Z</time></trkpt><trkpt lat="-18.883685" lon="34.392346"><ele>20.7</ele><time>2026-04-07T05:07:12Z</time></trkpt><trkpt lat="-18.883196" lon="34.392475"><ele>20.7</ele><time>2026-04-07T05:07:17Z</time></trkpt><trkpt lat="-18.881551" lon="34.392962"><ele>20.6</ele><time>2026-04-07T05:07:34Z</time></trkpt><trkpt lat="-18.881062" lon="34.393098"><ele>20.1</ele><time>2026-04-07T05:07:39Z</time></trkpt><trkpt lat="-18.880376" lon="34.393265"><ele>21.2</ele><time>2026-04-07T05:07:46Z</time></trkpt><trkpt lat="-18.8795" lon="34.393498"><ele>21.2</ele><time>2026-04-07T05:07:55Z</time></trkpt><trkpt lat="-18.879106" lon="34.393586"><ele>21.1</ele><time>2026-04-07T05:07:59Z</time></trkpt><trkpt lat="-18.878711" lon="34.393661"><ele>20.9</ele><time>2026-04-07T05:08:03Z</time></trkpt><trkpt lat="-18.878415" lon="34.393704"><ele>20.6</ele><time>2026-04-07T05:08:06Z</time></trkpt><trkpt lat="-18.877715" lon="34.393771"><ele>20.4</ele><time>2026-04-07T05:08:13Z</time></trkpt><trkpt lat="-18.876515" lon="34.393829"><ele>20.9</ele><time>2026-04-07T05:08:25Z</time></trkpt><trkpt lat="-18.876014" lon="34.393865"><ele>20.7</ele><time>2026-04-07T05:08:30Z</time></trkpt><trkpt lat="-18.875515" lon="34.39392"><ele>20.4</ele><time>2026-04-07T05:08:35Z</time></trkpt><trkpt lat="-18.873742" lon="34.394218"><ele>21.4</ele><time>2026-04-07T05:08:53Z</time></trkpt><trkpt lat="-18.87296" lon="34.394379"><ele>21.6</ele><time>2026-04-07T05:09:01Z</time></trkpt><trkpt lat="-18.872186" lon="34.394569"><ele>21.7</ele><time>2026-04-07T05:09:09Z</time></trkpt><trkpt lat="-18.871701" lon="34.3947"><ele>21.9</ele><time>2026-04-07T05:09:14Z</time></trkpt><trkpt lat="-18.870839" lon="34.39496"><ele>21.9</ele><time>2026-04-07T05:09:23Z</time></trkpt><trkpt lat="-18.870367" lon="34.395126"><ele>22.0</ele><time>2026-04-07T05:09:28Z</time></trkpt><trkpt lat="-18.869277" lon="34.395641"><ele>21.8</ele><time>2026-04-07T05:09:40Z</time></trkpt><trkpt lat="-18.868922" lon="34.395828"><ele>21.5</ele><time>2026-04-07T05:09:44Z</time></trkpt><trkpt lat="-18.868663" lon="34.395984"><ele>21.3</ele><time>2026-04-07T05:09:47Z</time></trkpt><trkpt lat="-18.868413" lon="34.396152"><ele>21.1</ele><time>2026-04-07T05:09:50Z</time></trkpt><trkpt lat="-18.867939" lon="34.396522"><ele>22.1</ele><time>2026-04-07T05:09:56Z</time></trkpt><trkpt lat="-18.867795" lon="34.396667"><ele>21.7</ele><time>2026-04-07T05:09:58Z</time></trkpt><trkpt lat="-18.867664" lon="34.396825"><ele>21.5</ele><time>2026-04-07T05:10:00Z</time></trkpt><trkpt lat="-18.867556" lon="34.396999"><ele>21.4</ele><time>2026-04-07T05:10:02Z</time></trkpt><trkpt lat="-18.867423" lon="34.397283"><ele>21.3</ele><time>2026-04-07T05:10:05Z</time></trkpt><trkpt lat="-18.867219" lon="34.397875"><ele>20.8</ele><time>2026-04-07T05:10:11Z</time></trkpt><trkpt lat="-18.867165" lon="34.398072"><ele>21.3</ele><time>2026-04-07T05:10:13Z</time></trkpt><trkpt lat="-18.867033" lon="34.398472"><ele>20.8</ele><time>2026-04-07T05:10:17Z</time></trkpt><trkpt lat="-18.866921" lon="34.398869"><ele>21.2</ele><time>2026-04-07T05:10:21Z</time></trkpt><trkpt lat="-18.866717" lon="34.399898"><ele>20.5</ele><time>2026-04-07T05:10:31Z</time></trkpt><trkpt lat="-18.866462" lon="34.400918"><ele>19.6</ele><time>2026-04-07T05:10:41Z</time></trkpt><trkpt lat="-18.866222" lon="34.402365"><ele>20.3</ele><time>2026-04-07T05:10:55Z</time></trkpt><trkpt lat="-18.866154" lon="34.402878"><ele>20.9</ele><time>2026-04-07T05:11:00Z</time></trkpt><trkpt lat="-18.865997" lon="34.404442"><ele>20.9</ele><time>2026-04-07T05:11:15Z</time></trkpt><trkpt lat="-18.865967" lon="34.40486"><ele>20.6</ele><time>2026-04-07T05:11:19Z</time></trkpt><trkpt lat="-18.865931" lon="34.405707"><ele>20.5</ele><time>2026-04-07T05:11:27Z</time></trkpt><trkpt lat="-18.86588" lon="34.406442"><ele>20.7</ele><time>2026-04-07T05:11:34Z</time></trkpt><trkpt lat="-18.865804" lon="34.407069"><ele>20.8</ele><time>2026-04-07T05:11:40Z</time></trkpt><trkpt lat="-18.865697" lon="34.407585"><ele>20.8</ele><time>2026-04-07T05:11:45Z</time></trkpt><trkpt lat="-18.865613" lon="34.407894"><ele>20.3</ele><time>2026-04-07T05:11:48Z</time></trkpt><trkpt lat="-18.865516" lon="34.408193"><ele>20.5</ele><time>2026-04-07T05:11:51Z</time></trkpt><trkpt lat="-18.865176" lon="34.40908"><ele>20.2</ele><time>2026-04-07T05:12:00Z</time></trkpt><trkpt lat="-18.864984" lon="34.409787"><ele>20.3</ele><time>2026-04-07T05:12:07Z</time></trkpt><trkpt lat="-18.864814" lon="34.410602"><ele>20.4</ele><time>2026-04-07T05:12:15Z</time></trkpt><trkpt lat="-18.864736" lon="34.410914"><ele>20.9</ele><time>2026-04-07T05:12:18Z</time></trkpt><trkpt lat="-18.864594" lon="34.41142"><ele>20.7</ele><time>2026-04-07T05:12:23Z</time></trkpt><trkpt lat="-18.8644" lon="34.412023"><ele>21.3</ele><time>2026-04-07T05:12:29Z</time></trkpt><trkpt lat="-18.864227" lon="34.412524"><ele>21.2</ele><time>2026-04-07T05:12:34Z</time></trkpt><trkpt lat="-18.863673" lon="34.41402"><ele>21.8</ele><time>2026-04-07T05:12:49Z</time></trkpt><trkpt lat="-18.863554" lon="34.414314"><ele>21.8</ele><time>2026-04-07T05:12:52Z</time></trkpt><trkpt lat="-18.863158" lon="34.415183"><ele>21.9</ele><time>2026-04-07T05:13:01Z</time></trkpt><trkpt lat="-18.863049" lon="34.415489"><ele>20.9</ele><time>2026-04-07T05:13:04Z</time></trkpt><trkpt lat="-18.862969" lon="34.415786"><ele>20.9</ele><time>2026-04-07T05:13:07Z</time></trkpt><trkpt lat="-18.86287" lon="34.41608"><ele>19.6</ele><time>2026-04-07T05:13:10Z</time></trkpt><trkpt lat="-18.862823" lon="34.416288"><ele>20.5</ele><time>2026-04-07T05:13:12Z</time></trkpt><trkpt lat="-18.86268" lon="34.416808"><ele>20.2</ele><time>2026-04-07T05:13:17Z</time></trkpt><trkpt lat="-18.86266" lon="34.416913"><ele>19.9</ele><time>2026-04-07T05:13:18Z</time></trkpt><trkpt lat="-18.862516" lon="34.417421"><ele>19.9</ele><time>2026-04-07T05:13:23Z</time></trkpt><trkpt lat="-18.862297" lon="34.418971"><ele>19.7</ele><time>2026-04-07T05:13:38Z</time></trkpt><trkpt lat="-18.862218" lon="34.419805"><ele>19.8</ele><time>2026-04-07T05:13:46Z</time></trkpt><trkpt lat="-18.862211" lon="34.420218"><ele>20.1</ele><time>2026-04-07T05:13:50Z</time></trkpt><trkpt lat="-18.862223" lon="34.420423"><ele>20.0</ele><time>2026-04-07T05:13:52Z</time></trkpt><trkpt lat="-18.862247" lon="34.420635"><ele>20.1</ele><time>2026-04-07T05:13:54Z</time></trkpt><trkpt lat="-18.862308" lon="34.420937"><ele>20.1</ele><time>2026-04-07T05:13:57Z</time></trkpt><trkpt lat="-18.862403" lon="34.421229"><ele>20.1</ele><time>2026-04-07T05:14:00Z</time></trkpt><trkpt lat="-18.862479" lon="34.421416"><ele>20.3</ele><time>2026-04-07T05:14:02Z</time></trkpt><trkpt lat="-18.862734" lon="34.421971"><ele>21.6</ele><time>2026-04-07T05:14:08Z</time></trkpt><trkpt lat="-18.863366" lon="34.423236"><ele>20.3</ele><time>2026-04-07T05:14:22Z</time></trkpt><trkpt lat="-18.863599" lon="34.423682"><ele>20.8</ele><time>2026-04-07T05:14:27Z</time></trkpt><trkpt lat="-18.86402" lon="34.424608"><ele>21.1</ele><time>2026-04-07T05:14:37Z</time></trkpt><trkpt lat="-18.864492" lon="34.425505"><ele>21.4</ele><time>2026-04-07T05:14:47Z</time></trkpt><trkpt lat="-18.865002" lon="34.426378"><ele>21.3</ele><time>2026-04-07T05:14:57Z</time></trkpt><trkpt lat="-18.865143" lon="34.426651"><ele>21.3</ele><time>2026-04-07T05:15:00Z</time></trkpt><trkpt lat="-18.86545" lon="34.427294"><ele>21.5</ele><time>2026-04-07T05:15:07Z</time></trkpt><trkpt lat="-18.865745" lon="34.427816"><ele>21.2</ele><time>2026-04-07T05:15:13Z</time></trkpt><trkpt lat="-18.865882" lon="34.428081"><ele>21.0</ele><time>2026-04-07T05:15:16Z</time></trkpt><trkpt lat="-18.866157" lon="34.428621"><ele>21.2</ele><time>2026-04-07T05:15:22Z</time></trkpt><trkpt lat="-18.866228" lon="34.428812"><ele>20.9</ele><time>2026-04-07T05:15:24Z</time></trkpt><trkpt lat="-18.86628" lon="34.429012"><ele>20.9</ele><time>2026-04-07T05:15:26Z</time></trkpt><trkpt lat="-18.86633" lon="34.429419"><ele>20.7</ele><time>2026-04-07T05:15:30Z</time></trkpt><trkpt lat="-18.866327" lon="34.429727"><ele>20.7</ele><time>2026-04-07T05:15:33Z</time></trkpt><trkpt lat="-18.866294" lon="34.430033"><ele>20.4</ele><time>2026-04-07T05:15:36Z</time></trkpt><trkpt lat="-18.866238" lon="34.430339"><ele>20.4</ele><time>2026-04-07T05:15:39Z</time></trkpt><trkpt lat="-18.86618" lon="34.430535"><ele>20.6</ele><time>2026-04-07T05:15:41Z</time></trkpt><trkpt lat="-18.866139" lon="34.430629"><ele>20.6</ele><time>2026-04-07T05:15:42Z</time></trkpt><trkpt lat="-18.865894" lon="34.431079"><ele>20.8</ele><time>2026-04-07T05:15:47Z</time></trkpt><trkpt lat="-18.865796" lon="34.431306"><ele>20.8</ele><time>2026-04-07T05:15:50Z</time></trkpt><trkpt lat="-18.86576" lon="34.431438"><ele>20.7</ele><time>2026-04-07T05:15:52Z</time></trkpt><trkpt lat="-18.865715" lon="34.43171"><ele>20.7</ele><time>2026-04-07T05:15:57Z</time></trkpt><trkpt lat="-18.865693" lon="34.432012"><ele>21.1</ele><time>2026-04-07T05:16:02Z</time></trkpt><trkpt lat="-18.865693" lon="34.432165"><ele>21.2</ele><time>2026-04-07T05:16:04Z</time></trkpt><trkpt lat="-18.865735" lon="34.432882"><ele>21.4</ele><time>2026-04-07T05:16:12Z</time></trkpt><trkpt lat="-18.86579" lon="34.433279"><ele>21.6</ele><time>2026-04-07T05:16:16Z</time></trkpt><trkpt lat="-18.865897" lon="34.433774"><ele>21.2</ele><time>2026-04-07T05:16:21Z</time></trkpt><trkpt lat="-18.865929" lon="34.433871"><ele>21.3</ele><time>2026-04-07T05:16:22Z</time></trkpt><trkpt lat="-18.866012" lon="34.434057"><ele>21.0</ele><time>2026-04-07T05:16:24Z</time></trkpt><trkpt lat="-18.866112" lon="34.434231"><ele>20.7</ele><time>2026-04-07T05:16:26Z</time></trkpt><trkpt lat="-18.866224" lon="34.434396"><ele>20.6</ele><time>2026-04-07T05:16:28Z</time></trkpt><trkpt lat="-18.866431" lon="34.43462"><ele>21.1</ele><time>2026-04-07T05:16:31Z</time></trkpt><trkpt lat="-18.866724" lon="34.434868"><ele>20.4</ele><time>2026-04-07T05:16:35Z</time></trkpt><trkpt lat="-18.867568" lon="34.435392"><ele>20.6</ele><time>2026-04-07T05:16:45Z</time></trkpt><trkpt lat="-18.867964" lon="34.435695"><ele>20.8</ele><time>2026-04-07T05:16:50Z</time></trkpt><trkpt lat="-18.868351" lon="34.436018"><ele>20.9</ele><time>2026-04-07T05:16:55Z</time></trkpt><trkpt lat="-18.868651" lon="34.436284"><ele>20.5</ele><time>2026-04-07T05:16:59Z</time></trkpt><trkpt lat="-18.868937" lon="34.43657"><ele>20.2</ele><time>2026-04-07T05:17:03Z</time></trkpt><trkpt lat="-18.869469" lon="34.437195"><ele>20.6</ele><time>2026-04-07T05:17:11Z</time></trkpt><trkpt lat="-18.869649" lon="34.43744"><ele>20.6</ele><time>2026-04-07T05:17:14Z</time></trkpt><trkpt lat="-18.869817" lon="34.437696"><ele>20.8</ele><time>2026-04-07T05:17:17Z</time></trkpt><trkpt lat="-18.869965" lon="34.437969"><ele>20.5</ele><time>2026-04-07T05:17:20Z</time></trkpt><trkpt lat="-18.870433" lon="34.438903"><ele>20.9</ele><time>2026-04-07T05:17:30Z</time></trkpt><trkpt lat="-18.870744" lon="34.439556"><ele>21.1</ele><time>2026-04-07T05:17:37Z</time></trkpt><trkpt lat="-18.870867" lon="34.439837"><ele>20.7</ele><time>2026-04-07T05:17:40Z</time></trkpt><trkpt lat="-18.871094" lon="34.440411"><ele>20.3</ele><time>2026-04-07T05:17:46Z</time></trkpt><trkpt lat="-18.872034" lon="34.442509"><ele>20.9</ele><time>2026-04-07T05:18:08Z</time></trkpt><trkpt lat="-18.87221" lon="34.442883"><ele>21.3</ele><time>2026-04-07T05:18:12Z</time></trkpt><trkpt lat="-18.872403" lon="34.44325"><ele>21.3</ele><time>2026-04-07T05:18:16Z</time></trkpt><trkpt lat="-18.872667" lon="34.443696"><ele>21.0</ele><time>2026-04-07T05:18:21Z</time></trkpt><trkpt lat="-18.872884" lon="34.444044"><ele>21.4</ele><time>2026-04-07T05:18:25Z</time></trkpt><trkpt lat="-18.873225" lon="34.444553"><ele>21.4</ele><time>2026-04-07T05:18:31Z</time></trkpt><trkpt lat="-18.873318" lon="34.444736"><ele>21.5</ele><time>2026-04-07T05:18:33Z</time></trkpt><trkpt lat="-18.873479" lon="34.445122"><ele>21.6</ele><time>2026-04-07T05:18:37Z</time></trkpt><trkpt lat="-18.873691" lon="34.445594"><ele>21.5</ele><time>2026-04-07T05:18:42Z</time></trkpt><trkpt lat="-18.873881" lon="34.445958"><ele>21.4</ele><time>2026-04-07T05:18:46Z</time></trkpt><trkpt lat="-18.874391" lon="34.446861"><ele>20.8</ele><time>2026-04-07T05:18:56Z</time></trkpt><trkpt lat="-18.874568" lon="34.447239"><ele>20.7</ele><time>2026-04-07T05:19:00Z</time></trkpt><trkpt lat="-18.874794" lon="34.447834"><ele>20.4</ele><time>2026-04-07T05:19:06Z</time></trkpt><trkpt lat="-18.874963" lon="34.448432"><ele>19.7</ele><time>2026-04-07T05:19:12Z</time></trkpt><trkpt lat="-18.875031" lon="34.448628"><ele>19.9</ele><time>2026-04-07T05:19:14Z</time></trkpt><trkpt lat="-18.875368" lon="34.449512"><ele>19.7</ele><time>2026-04-07T05:19:23Z</time></trkpt><trkpt lat="-18.875575" lon="34.44999"><ele>20.2</ele><time>2026-04-07T05:19:28Z</time></trkpt><trkpt lat="-18.875642" lon="34.450192"><ele>20.2</ele><time>2026-04-07T05:19:30Z</time></trkpt><trkpt lat="-18.876377" lon="34.451817"><ele>20.1</ele><time>2026-04-07T05:19:47Z</time></trkpt><trkpt lat="-18.876904" lon="34.453069"><ele>19.9</ele><time>2026-04-07T05:20:00Z</time></trkpt><trkpt lat="-18.877176" lon="34.453751"><ele>19.3</ele><time>2026-04-07T05:20:07Z</time></trkpt><trkpt lat="-18.877348" lon="34.454133"><ele>19.6</ele><time>2026-04-07T05:20:11Z</time></trkpt><trkpt lat="-18.877715" lon="34.454883"><ele>19.0</ele><time>2026-04-07T05:20:19Z</time></trkpt><trkpt lat="-18.878151" lon="34.455947"><ele>21.0</ele><time>2026-04-07T05:20:30Z</time></trkpt><trkpt lat="-18.878441" lon="34.456615"><ele>20.4</ele><time>2026-04-07T05:20:37Z</time></trkpt><trkpt lat="-18.878766" lon="34.457255"><ele>19.9</ele><time>2026-04-07T05:20:44Z</time></trkpt><trkpt lat="-18.878867" lon="34.457552"><ele>21.7</ele><time>2026-04-07T05:20:47Z</time></trkpt><trkpt lat="-18.87904" lon="34.45793"><ele>19.6</ele><time>2026-04-07T05:20:51Z</time></trkpt><trkpt lat="-18.879329" lon="34.458606"><ele>21.2</ele><time>2026-04-07T05:20:58Z</time></trkpt><trkpt lat="-18.879441" lon="34.458897"><ele>21.1</ele><time>2026-04-07T05:21:01Z</time></trkpt><trkpt lat="-18.879702" lon="34.459464"><ele>20.2</ele><time>2026-04-07T05:21:07Z</time></trkpt><trkpt lat="-18.880037" lon="34.460101"><ele>20.1</ele><time>2026-04-07T05:21:14Z</time></trkpt><trkpt lat="-18.880257" lon="34.460576"><ele>19.6</ele><time>2026-04-07T05:21:19Z</time></trkpt><trkpt lat="-18.880492" lon="34.461145"><ele>19.5</ele><time>2026-04-07T05:21:25Z</time></trkpt><trkpt lat="-18.880866" lon="34.462124"><ele>19.5</ele><time>2026-04-07T05:21:35Z</time></trkpt><trkpt lat="-18.88103" lon="34.462508"><ele>19.6</ele><time>2026-04-07T05:21:39Z</time></trkpt><trkpt lat="-18.881341" lon="34.46316"><ele>19.6</ele><time>2026-04-07T05:21:46Z</time></trkpt><trkpt lat="-18.881635" lon="34.463822"><ele>19.8</ele><time>2026-04-07T05:21:53Z</time></trkpt><trkpt lat="-18.881731" lon="34.46401"><ele>19.7</ele><time>2026-04-07T05:21:55Z</time></trkpt><trkpt lat="-18.881809" lon="34.464205"><ele>19.5</ele><time>2026-04-07T05:21:57Z</time></trkpt><trkpt lat="-18.882121" lon="34.464856"><ele>19.3</ele><time>2026-04-07T05:22:04Z</time></trkpt><trkpt lat="-18.88246" lon="34.465615"><ele>19.5</ele><time>2026-04-07T05:22:12Z</time></trkpt><trkpt lat="-18.882648" lon="34.465983"><ele>19.5</ele><time>2026-04-07T05:22:16Z</time></trkpt><trkpt lat="-18.882953" lon="34.466522"><ele>19.5</ele><time>2026-04-07T05:22:22Z</time></trkpt><trkpt lat="-18.883182" lon="34.466982"><ele>19.4</ele><time>2026-04-07T05:22:27Z</time></trkpt><trkpt lat="-18.883747" lon="34.468194"><ele>19.5</ele><time>2026-04-07T05:22:40Z</time></trkpt><trkpt lat="-18.884623" lon="34.469828"><ele>19.3</ele><time>2026-04-07T05:22:58Z</time></trkpt><trkpt lat="-18.885162" lon="34.470932"><ele>19.5</ele><time>2026-04-07T05:23:10Z</time></trkpt><trkpt lat="-18.885372" lon="34.471401"><ele>19.7</ele><time>2026-04-07T05:23:15Z</time></trkpt><trkpt lat="-18.885556" lon="34.471773"><ele>19.8</ele><time>2026-04-07T05:23:19Z</time></trkpt><trkpt lat="-18.886103" lon="34.472981"><ele>19.9</ele><time>2026-04-07T05:23:32Z</time></trkpt><trkpt lat="-18.886367" lon="34.473541"><ele>19.6</ele><time>2026-04-07T05:23:38Z</time></trkpt><trkpt lat="-18.886548" lon="34.47391"><ele>19.7</ele><time>2026-04-07T05:23:42Z</time></trkpt><trkpt lat="-18.88698" lon="34.47473"><ele>19.3</ele><time>2026-04-07T05:23:51Z</time></trkpt><trkpt lat="-18.887994" lon="34.47686"><ele>19.6</ele><time>2026-04-07T05:24:14Z</time></trkpt><trkpt lat="-18.888425" lon="34.47768"><ele>19.8</ele><time>2026-04-07T05:24:23Z</time></trkpt><trkpt lat="-18.888732" lon="34.478219"><ele>19.9</ele><time>2026-04-07T05:24:29Z</time></trkpt><trkpt lat="-18.888946" lon="34.478573"><ele>19.7</ele><time>2026-04-07T05:24:33Z</time></trkpt><trkpt lat="-18.889045" lon="34.478758"><ele>19.5</ele><time>2026-04-07T05:24:35Z</time></trkpt><trkpt lat="-18.889317" lon="34.479317"><ele>19.5</ele><time>2026-04-07T05:24:41Z</time></trkpt><trkpt lat="-18.889486" lon="34.479698"><ele>19.6</ele><time>2026-04-07T05:24:45Z</time></trkpt><trkpt lat="-18.889522" lon="34.479799"><ele>19.5</ele><time>2026-04-07T05:24:46Z</time></trkpt><trkpt lat="-18.889787" lon="34.480352"><ele>19.4</ele><time>2026-04-07T05:24:52Z</time></trkpt><trkpt lat="-18.890428" lon="34.481742"><ele>19.7</ele><time>2026-04-07T05:25:07Z</time></trkpt><trkpt lat="-18.890572" lon="34.482015"><ele>19.5</ele><time>2026-04-07T05:25:10Z</time></trkpt><trkpt lat="-18.890882" lon="34.482554"><ele>19.4</ele><time>2026-04-07T05:25:16Z</time></trkpt><trkpt lat="-18.891434" lon="34.48366"><ele>19.2</ele><time>2026-04-07T05:25:28Z</time></trkpt><trkpt lat="-18.892065" lon="34.484825"><ele>19.3</ele><time>2026-04-07T05:25:41Z</time></trkpt><trkpt lat="-18.892419" lon="34.485578"><ele>19.3</ele><time>2026-04-07T05:25:49Z</time></trkpt><trkpt lat="-18.892745" lon="34.48622"><ele>19.5</ele><time>2026-04-07T05:25:56Z</time></trkpt><trkpt lat="-18.893748" lon="34.488262"><ele>19.3</ele><time>2026-04-07T05:26:18Z</time></trkpt><trkpt lat="-18.893894" lon="34.488537"><ele>19.7</ele><time>2026-04-07T05:26:21Z</time></trkpt><trkpt lat="-18.894154" lon="34.488989"><ele>20.4</ele><time>2026-04-07T05:26:26Z</time></trkpt><trkpt lat="-18.894638" lon="34.489909"><ele>20.3</ele><time>2026-04-07T05:26:36Z</time></trkpt><trkpt lat="-18.894771" lon="34.490188"><ele>20.5</ele><time>2026-04-07T05:26:39Z</time></trkpt><trkpt lat="-18.895253" lon="34.491105"><ele>20.7</ele><time>2026-04-07T05:26:49Z</time></trkpt><trkpt lat="-18.895526" lon="34.491665"><ele>20.5</ele><time>2026-04-07T05:26:55Z</time></trkpt><trkpt lat="-18.895557" lon="34.49175"><ele>21.5</ele><time>2026-04-07T05:26:56Z</time></trkpt><trkpt lat="-18.89562" lon="34.491849"><ele>21.4</ele><time>2026-04-07T05:26:57Z</time></trkpt><trkpt lat="-18.89576" lon="34.492121"><ele>22.1</ele><time>2026-04-07T05:27:00Z</time></trkpt><trkpt lat="-18.895979" lon="34.492584"><ele>21.1</ele><time>2026-04-07T05:27:05Z</time></trkpt><trkpt lat="-18.896424" lon="34.493628"><ele>21.7</ele><time>2026-04-07T05:27:16Z</time></trkpt><trkpt lat="-18.896816" lon="34.494464"><ele>21.3</ele><time>2026-04-07T05:27:25Z</time></trkpt><trkpt lat="-18.897089" lon="34.495014"><ele>21.5</ele><time>2026-04-07T05:27:31Z</time></trkpt><trkpt lat="-18.897241" lon="34.495281"><ele>21.4</ele><time>2026-04-07T05:27:34Z</time></trkpt><trkpt lat="-18.897669" lon="34.495967"><ele>20.7</ele><time>2026-04-07T05:27:42Z</time></trkpt><trkpt lat="-18.897995" lon="34.496536"><ele>20.6</ele><time>2026-04-07T05:27:49Z</time></trkpt><trkpt lat="-18.898075" lon="34.496691"><ele>21.0</ele><time>2026-04-07T05:27:51Z</time></trkpt><trkpt lat="-18.898397" lon="34.49714"><ele>21.0</ele><time>2026-04-07T05:27:58Z</time></trkpt><trkpt lat="-18.898698" lon="34.497514"><ele>21.5</ele><time>2026-04-07T05:28:06Z</time></trkpt><trkpt lat="-18.898934" lon="34.497853"><ele>21.3</ele><time>2026-04-07T05:28:15Z</time></trkpt><trkpt lat="-18.899157" lon="34.498205"><ele>20.0</ele><time>2026-04-07T05:28:28Z</time></trkpt><trkpt lat="-18.899281" lon="34.498467"><ele>21.7</ele><time>2026-04-07T05:28:41Z</time></trkpt></trkseg></trk></gpx>