<?xml version="1.0" ?><gpx xmlns="http://www.topografix.com/GPX/1/1" creator="GaiaGPS" version="1.1" xmlns:xsi="http://www.w3.org/2001/XMLSchema-instance" xsi:schemaLocation="http://www.topografix.com/GPX/1/1 http://www.topografix.com/GPX/1/1/gpx.xsd"><wpt lat="-18.9067" lon="34.50481"><time>2026-04-07T06:24:45Z</time><name>Crocodile ate an egret here! Wpt 07/04/2026, 08:24:45</name><sym>emoji-🐊</sym></wpt><wpt lat="-18.90091" lon="34.50186"><ele>18</ele><time>2026-04-07T08:08:51Z</time><name>Reed cormorant Wpt 07/04/2026, 10:08:51</name><sym>bird</sym></wpt><wpt lat="-18.90225" lon="34.50387"><time>2026-04-07T07:01:24Z</time><name>WBC area 07/04/2026, 09:01:24</name><sym>turkey</sym></wpt><trk><name>Counting part 1</name><desc></desc><extensions><line xmlns="http://www.topografix.com/GPX/gpx_style/0/2"><color>00B2FF</color></line></extensions><trkseg><trkpt lat="-18.907599" lon="34.506656"><ele>18.0</ele><time>2026-04-07T05:52:45Z</time></trkpt><trkpt lat="-18.907564" lon="34.506658"><ele>18.9</ele><time>2026-04-07T05:52:46Z</time></trkpt><trkpt lat="-18.907705" lon="34.506619"><ele>11.0</ele><time>2026-04-07T05:53:11Z</time></trkpt><trkpt lat="-18.907735" lon="34.506583"><ele>21.0</ele><time>2026-04-07T05:53:20Z</time></trkpt><trkpt lat="-18.907745" lon="34.506549"><ele>20.0</ele><time>2026-04-07T05:53:35Z</time></trkpt><trkpt lat="-18.907742" lon="34.506519"><ele>-19999.0</ele><time>2026-04-07T05:54:02Z</time></trkpt><trkpt lat="-18.907696" lon="34.506467"><ele>-19999.0</ele><time>2026-04-07T05:54:46Z</time></trkpt><trkpt lat="-18.907775" lon="34.506433"><ele>18.0</ele><time>2026-04-07T05:55:13Z</time></trkpt><trkpt lat="-18.907771" lon="34.506398"><ele>20.0</ele><time>2026-04-07T05:55:21Z</time></trkpt><trkpt lat="-18.907741" lon="34.506347"><ele>12.0</ele><time>2026-04-07T05:55:36Z</time></trkpt><trkpt lat="-18.907716" lon="34.506424"><ele>20.0</ele><time>2026-04-07T05:56:07Z</time></trkpt><trkpt lat="-18.90776" lon="34.506386"><ele>16.0</ele><time>2026-04-07T05:56:28Z</time></trkpt><trkpt lat="-18.907778" lon="34.506348"><ele>16.0</ele><time>2026-04-07T05:56:40Z</time></trkpt><trkpt lat="-18.907736" lon="34.506412"><ele>20.0</ele><time>2026-04-07T05:57:08Z</time></trkpt><trkpt lat="-18.907798" lon="34.506427"><ele>21.0</ele><time>2026-04-07T05:57:27Z</time></trkpt><trkpt lat="-18.907822" lon="34.506356"><ele>20.0</ele><time>2026-04-07T05:57:37Z</time></trkpt><trkpt lat="-18.90782" lon="34.506321"><ele>20.0</ele><time>2026-04-07T05:57:41Z</time></trkpt><trkpt lat="-18.907781" lon="34.50624"><ele>21.0</ele><time>2026-04-07T05:57:52Z</time></trkpt><trkpt lat="-18.907765" lon="34.506128"><ele>-6653.0</ele><time>2026-04-07T05:59:29Z</time></trkpt><trkpt lat="-18.907791" lon="34.506142"><ele>24.0</ele><time>2026-04-07T06:00:31Z</time></trkpt><trkpt lat="-18.907842" lon="34.506137"><ele>22.0</ele><time>2026-04-07T06:00:56Z</time></trkpt><trkpt lat="-18.907888" lon="34.506156"><ele>22.0</ele><time>2026-04-07T06:01:41Z</time></trkpt><trkpt lat="-18.907923" lon="34.506184"><ele>22.0</ele><time>2026-04-07T06:02:16Z</time></trkpt><trkpt lat="-18.907824" lon="34.506173"><ele>16.0</ele><time>2026-04-07T06:02:37Z</time></trkpt><trkpt lat="-18.907782" lon="34.506178"><ele>21.0</ele><time>2026-04-07T06:02:43Z</time></trkpt><trkpt lat="-18.907648" lon="34.506293"><ele>22.0</ele><time>2026-04-07T06:03:05Z</time></trkpt><trkpt lat="-18.907555" lon="34.506324"><ele>21.0</ele><time>2026-04-07T06:03:13Z</time></trkpt><trkpt lat="-18.907485" lon="34.50633"><ele>21.0</ele><time>2026-04-07T06:03:19Z</time></trkpt><trkpt lat="-18.90738" lon="34.506323"><ele>21.0</ele><time>2026-04-07T06:03:29Z</time></trkpt><trkpt lat="-18.907309" lon="34.506306"><ele>20.0</ele><time>2026-04-07T06:03:36Z</time></trkpt><trkpt lat="-18.90714" lon="34.506219"><ele>21.0</ele><time>2026-04-07T06:04:07Z</time></trkpt><trkpt lat="-18.907064" lon="34.506135"><ele>20.0</ele><time>2026-04-07T06:04:45Z</time></trkpt><trkpt lat="-18.906983" lon="34.506009"><ele>20.0</ele><time>2026-04-07T06:06:27Z</time></trkpt><trkpt lat="-18.906955" lon="34.506085"><ele>20.0</ele><time>2026-04-07T06:08:22Z</time></trkpt><trkpt lat="-18.906853" lon="34.506085"><ele>20.0</ele><time>2026-04-07T06:09:34Z</time></trkpt><trkpt lat="-18.906758" lon="34.506063"><ele>21.0</ele><time>2026-04-07T06:09:46Z</time></trkpt><trkpt lat="-18.906705" lon="34.506021"><ele>21.0</ele><time>2026-04-07T06:09:52Z</time></trkpt><trkpt lat="-18.906677" lon="34.505963"><ele>20.0</ele><time>2026-04-07T06:09:58Z</time></trkpt><trkpt lat="-18.906658" lon="34.505799"><ele>20.0</ele><time>2026-04-07T06:10:25Z</time></trkpt><trkpt lat="-18.906638" lon="34.505745"><ele>22.0</ele><time>2026-04-07T06:11:15Z</time></trkpt><trkpt lat="-18.90661" lon="34.505712"><ele>21.0</ele><time>2026-04-07T06:11:54Z</time></trkpt><trkpt lat="-18.906599" lon="34.505654"><ele>12.0</ele><time>2026-04-07T06:12:27Z</time></trkpt><trkpt lat="-18.906641" lon="34.505498"><ele>22.0</ele><time>2026-04-07T06:13:47Z</time></trkpt><trkpt lat="-18.90666" lon="34.505383"><ele>23.0</ele><time>2026-04-07T06:14:39Z</time></trkpt><trkpt lat="-18.906626" lon="34.505482"><ele>22.0</ele><time>2026-04-07T06:15:29Z</time></trkpt><trkpt lat="-18.906603" lon="34.505506"><ele>20.0</ele><time>2026-04-07T06:17:04Z</time></trkpt><trkpt lat="-18.906613" lon="34.505479"><ele>22.0</ele><time>2026-04-07T06:18:08Z</time></trkpt><trkpt lat="-18.906609" lon="34.505432"><ele>22.9</ele><time>2026-04-07T06:18:15Z</time></trkpt><trkpt lat="-18.906572" lon="34.505399"><ele>21.0</ele><time>2026-04-07T06:18:22Z</time></trkpt><trkpt lat="-18.906502" lon="34.505384"><ele>20.0</ele><time>2026-04-07T06:18:30Z</time></trkpt><trkpt lat="-18.906469" lon="34.505387"><ele>20.0</ele><time>2026-04-07T06:18:34Z</time></trkpt><trkpt lat="-18.906436" lon="34.505399"><ele>20.0</ele><time>2026-04-07T06:18:38Z</time></trkpt><trkpt lat="-18.906377" lon="34.505443"><ele>20.0</ele><time>2026-04-07T06:18:47Z</time></trkpt><trkpt lat="-18.906345" lon="34.505516"><ele>20.0</ele><time>2026-04-07T06:18:55Z</time></trkpt><trkpt lat="-18.906341" lon="34.505579"><ele>20.0</ele><time>2026-04-07T06:19:01Z</time></trkpt><trkpt lat="-18.906353" lon="34.505623"><ele>21.0</ele><time>2026-04-07T06:19:09Z</time></trkpt><trkpt lat="-18.906354" lon="34.505573"><ele>20.0</ele><time>2026-04-07T06:19:24Z</time></trkpt><trkpt lat="-18.906381" lon="34.50551"><ele>12.0</ele><time>2026-04-07T06:19:44Z</time></trkpt><trkpt lat="-18.906354" lon="34.505495"><ele>20.0</ele><time>2026-04-07T06:19:51Z</time></trkpt><trkpt lat="-18.906298" lon="34.505499"><ele>20.0</ele><time>2026-04-07T06:20:17Z</time></trkpt><trkpt lat="-18.906253" lon="34.505444"><ele>20.0</ele><time>2026-04-07T06:20:44Z</time></trkpt><trkpt lat="-18.906194" lon="34.505329"><ele>18.0</ele><time>2026-04-07T06:21:12Z</time></trkpt><trkpt lat="-18.906155" lon="34.505279"><ele>22.0</ele><time>2026-04-07T06:21:34Z</time></trkpt><trkpt lat="-18.906176" lon="34.505294"><ele>-6653.0</ele><time>2026-04-07T06:22:26Z</time></trkpt><trkpt lat="-18.906188" lon="34.505337"><ele>21.0</ele><time>2026-04-07T06:23:26Z</time></trkpt><trkpt lat="-18.906302" lon="34.505281"><ele>16.0</ele><time>2026-04-07T06:24:05Z</time></trkpt><trkpt lat="-18.906263" lon="34.505273"><ele>21.0</ele><time>2026-04-07T06:24:25Z</time></trkpt><trkpt lat="-18.906219" lon="34.505238"><ele>22.8</ele><time>2026-04-07T06:27:01Z</time></trkpt><trkpt lat="-18.906091" lon="34.505149"><ele>12.0</ele><time>2026-04-07T06:27:24Z</time></trkpt><trkpt lat="-18.9061" lon="34.50518"><ele>22.0</ele><time>2026-04-07T06:27:31Z</time></trkpt><trkpt lat="-18.906126" lon="34.505211"><ele>22.0</ele><time>2026-04-07T06:27:40Z</time></trkpt><trkpt lat="-18.90609" lon="34.505052"><ele>18.0</ele><time>2026-04-07T06:28:06Z</time></trkpt><trkpt lat="-18.906086" lon="34.504976"><ele>20.0</ele><time>2026-04-07T06:28:15Z</time></trkpt><trkpt lat="-18.906051" lon="34.504853"><ele>24.0</ele><time>2026-04-07T06:28:31Z</time></trkpt><trkpt lat="-18.905996" lon="34.504814"><ele>20.0</ele><time>2026-04-07T06:28:40Z</time></trkpt><trkpt lat="-18.905947" lon="34.504737"><ele>22.0</ele><time>2026-04-07T06:29:22Z</time></trkpt><trkpt lat="-18.905921" lon="34.504714"><ele>22.0</ele><time>2026-04-07T06:30:12Z</time></trkpt><trkpt lat="-18.905746" lon="34.504621"><ele>22.0</ele><time>2026-04-07T06:32:00Z</time></trkpt><trkpt lat="-18.905788" lon="34.504628"><ele>19.0</ele><time>2026-04-07T06:32:15Z</time></trkpt><trkpt lat="-18.905822" lon="34.504694"><ele>21.0</ele><time>2026-04-07T06:32:38Z</time></trkpt><trkpt lat="-18.905847" lon="34.504722"><ele>20.0</ele><time>2026-04-07T06:33:00Z</time></trkpt><trkpt lat="-18.905829" lon="34.504817"><ele>20.0</ele><time>2026-04-07T06:33:28Z</time></trkpt><trkpt lat="-18.905805" lon="34.504869"><ele>20.0</ele><time>2026-04-07T06:33:39Z</time></trkpt><trkpt lat="-18.905911" lon="34.504787"><ele>20.0</ele><time>2026-04-07T06:34:00Z</time></trkpt><trkpt lat="-18.90591" lon="34.504736"><ele>20.0</ele><time>2026-04-07T06:34:03Z</time></trkpt><trkpt lat="-18.90589" lon="34.5047"><ele>20.0</ele><time>2026-04-07T06:34:05Z</time></trkpt><trkpt lat="-18.905861" lon="34.504686"><ele>20.0</ele><time>2026-04-07T06:34:07Z</time></trkpt><trkpt lat="-18.905712" lon="34.504673"><ele>20.0</ele><time>2026-04-07T06:34:18Z</time></trkpt><trkpt lat="-18.905527" lon="34.504686"><ele>20.0</ele><time>2026-04-07T06:35:10Z</time></trkpt><trkpt lat="-18.905477" lon="34.504664"><ele>21.0</ele><time>2026-04-07T06:35:20Z</time></trkpt><trkpt lat="-18.905529" lon="34.504672"><ele>20.0</ele><time>2026-04-07T06:36:00Z</time></trkpt><trkpt lat="-18.905373" lon="34.504611"><ele>16.0</ele><time>2026-04-07T06:37:17Z</time></trkpt><trkpt lat="-18.905311" lon="34.504609"><ele>12.0</ele><time>2026-04-07T06:37:34Z</time></trkpt><trkpt lat="-18.905284" lon="34.504626"><ele>22.0</ele><time>2026-04-07T06:37:41Z</time></trkpt><trkpt lat="-18.905272" lon="34.504604"><ele>-9989.0</ele><time>2026-04-07T06:37:53Z</time></trkpt><trkpt lat="-18.905167" lon="34.504623"><ele>12.0</ele><time>2026-04-07T06:38:56Z</time></trkpt><trkpt lat="-18.905142" lon="34.504646"><ele>18.0</ele><time>2026-04-07T06:39:05Z</time></trkpt><trkpt lat="-18.905033" lon="34.504694"><ele>20.0</ele><time>2026-04-07T06:39:40Z</time></trkpt><trkpt lat="-18.904944" lon="34.504716"><ele>20.0</ele><time>2026-04-07T06:40:11Z</time></trkpt><trkpt lat="-18.904796" lon="34.504737"><ele>-19999.0</ele><time>2026-04-07T06:41:38Z</time></trkpt><trkpt lat="-18.904775" lon="34.504751"><ele>20.0</ele><time>2026-04-07T06:41:53Z</time></trkpt><trkpt lat="-18.904586" lon="34.504753"><ele>20.0</ele><time>2026-04-07T06:43:36Z</time></trkpt><trkpt lat="-18.904675" lon="34.50477"><ele>-19999.0</ele><time>2026-04-07T06:44:00Z</time></trkpt><trkpt lat="-18.904609" lon="34.504815"><ele>20.0</ele><time>2026-04-07T06:44:21Z</time></trkpt><trkpt lat="-18.904439" lon="34.504844"><ele>15.0</ele><time>2026-04-07T06:44:42Z</time></trkpt><trkpt lat="-18.904325" lon="34.504879"><ele>20.0</ele><time>2026-04-07T06:46:05Z</time></trkpt><trkpt lat="-18.904304" lon="34.504915"><ele>20.0</ele><time>2026-04-07T06:46:44Z</time></trkpt><trkpt lat="-18.904231" lon="34.504933"><ele>21.0</ele><time>2026-04-07T06:47:41Z</time></trkpt><trkpt lat="-18.904155" lon="34.505014"><ele>15.0</ele><time>2026-04-07T06:48:02Z</time></trkpt><trkpt lat="-18.903992" lon="34.505073"><ele>20.0</ele><time>2026-04-07T06:48:10Z</time></trkpt><trkpt lat="-18.903952" lon="34.505076"><ele>20.0</ele><time>2026-04-07T06:48:13Z</time></trkpt><trkpt lat="-18.903876" lon="34.505057"><ele>18.0</ele><time>2026-04-07T06:48:19Z</time></trkpt><trkpt lat="-18.903736" lon="34.504959"><ele>18.0</ele><time>2026-04-07T06:50:18Z</time></trkpt><trkpt lat="-18.903458" lon="34.505034"><ele>17.0</ele><time>2026-04-07T06:51:42Z</time></trkpt><trkpt lat="-18.903499" lon="34.504975"><ele>20.0</ele><time>2026-04-07T06:52:10Z</time></trkpt><trkpt lat="-18.903628" lon="34.504849"><ele>16.0</ele><time>2026-04-07T06:52:40Z</time></trkpt><trkpt lat="-18.903522" lon="34.504809"><ele>20.0</ele><time>2026-04-07T06:53:00Z</time></trkpt><trkpt lat="-18.903336" lon="34.504834"><ele>20.0</ele><time>2026-04-07T06:53:50Z</time></trkpt><trkpt lat="-18.903369" lon="34.504835"><ele>14.0</ele><time>2026-04-07T06:54:00Z</time></trkpt><trkpt lat="-18.903382" lon="34.504872"><ele>20.0</ele><time>2026-04-07T06:54:07Z</time></trkpt><trkpt lat="-18.903418" lon="34.504879"><ele>11.0</ele><time>2026-04-07T06:54:15Z</time></trkpt><trkpt lat="-18.903389" lon="34.504841"><ele>19.0</ele><time>2026-04-07T06:54:25Z</time></trkpt><trkpt lat="-18.90328" lon="34.504797"><ele>20.0</ele><time>2026-04-07T06:54:42Z</time></trkpt><trkpt lat="-18.903307" lon="34.504799"><ele>20.6</ele><time>2026-04-07T06:54:47Z</time></trkpt><trkpt lat="-18.903278" lon="34.504786"><ele>20.0</ele><time>2026-04-07T06:54:55Z</time></trkpt><trkpt lat="-18.90318" lon="34.504779"><ele>11.0</ele><time>2026-04-07T06:55:13Z</time></trkpt><trkpt lat="-18.90302" lon="34.504857"><ele>20.0</ele><time>2026-04-07T06:56:35Z</time></trkpt><trkpt lat="-18.902848" lon="34.505045"><ele>18.0</ele><time>2026-04-07T06:57:47Z</time></trkpt><trkpt lat="-18.902809" lon="34.505072"><ele>19.8</ele><time>2026-04-07T06:57:49Z</time></trkpt><trkpt lat="-18.902732" lon="34.505075"><ele>19.8</ele><time>2026-04-07T06:57:51Z</time></trkpt><trkpt lat="-18.902664" lon="34.505032"><ele>20.1</ele><time>2026-04-07T06:57:53Z</time></trkpt><trkpt lat="-18.902606" lon="34.504959"><ele>20.4</ele><time>2026-04-07T06:57:55Z</time></trkpt><trkpt lat="-18.902574" lon="34.504827"><ele>20.9</ele><time>2026-04-07T06:57:58Z</time></trkpt><trkpt lat="-18.902586" lon="34.504733"><ele>21.3</ele><time>2026-04-07T06:58:00Z</time></trkpt><trkpt lat="-18.902622" lon="34.5046"><ele>21.2</ele><time>2026-04-07T06:58:03Z</time></trkpt><trkpt lat="-18.902625" lon="34.504485"><ele>20.0</ele><time>2026-04-07T06:58:08Z</time></trkpt><trkpt lat="-18.902606" lon="34.504409"><ele>20.0</ele><time>2026-04-07T06:58:13Z</time></trkpt><trkpt lat="-18.902537" lon="34.50433"><ele>21.0</ele><time>2026-04-07T06:58:27Z</time></trkpt><trkpt lat="-18.902458" lon="34.504295"><ele>20.0</ele><time>2026-04-07T06:59:10Z</time></trkpt><trkpt lat="-18.902391" lon="34.504323"><ele>20.0</ele><time>2026-04-07T06:59:55Z</time></trkpt><trkpt lat="-18.90228" lon="34.504427"><ele>20.0</ele><time>2026-04-07T07:00:46Z</time></trkpt><trkpt lat="-18.902139" lon="34.504486"><ele>18.0</ele><time>2026-04-07T07:01:03Z</time></trkpt><trkpt lat="-18.90184" lon="34.504516"><ele>20.0</ele><time>2026-04-07T07:02:00Z</time></trkpt><trkpt lat="-18.901794" lon="34.504529"><ele>17.0</ele><time>2026-04-07T07:02:39Z</time></trkpt><trkpt lat="-18.901979" lon="34.504478"><ele>16.0</ele><time>2026-04-07T07:03:19Z</time></trkpt><trkpt lat="-18.902019" lon="34.50449"><ele>14.0</ele><time>2026-04-07T07:03:28Z</time></trkpt><trkpt lat="-18.901999" lon="34.504465"><ele>17.0</ele><time>2026-04-07T07:03:39Z</time></trkpt><trkpt lat="-18.901878" lon="34.504394"><ele>17.0</ele><time>2026-04-07T07:03:57Z</time></trkpt><trkpt lat="-18.901646" lon="34.504331"><ele>20.0</ele><time>2026-04-07T07:04:30Z</time></trkpt><trkpt lat="-18.901546" lon="34.504269"><ele>20.0</ele><time>2026-04-07T07:04:41Z</time></trkpt><trkpt lat="-18.90147" lon="34.504206"><ele>20.0</ele><time>2026-04-07T07:04:53Z</time></trkpt><trkpt lat="-18.901396" lon="34.504115"><ele>20.0</ele><time>2026-04-07T07:05:23Z</time></trkpt><trkpt lat="-18.901348" lon="34.504105"><ele>20.0</ele><time>2026-04-07T07:05:35Z</time></trkpt><trkpt lat="-18.901268" lon="34.50406"><ele>20.0</ele><time>2026-04-07T07:05:47Z</time></trkpt><trkpt lat="-18.901234" lon="34.503993"><ele>17.0</ele><time>2026-04-07T07:05:55Z</time></trkpt><trkpt lat="-18.901229" lon="34.503913"><ele>20.0</ele><time>2026-04-07T07:06:10Z</time></trkpt><trkpt lat="-18.90126" lon="34.503852"><ele>16.0</ele><time>2026-04-07T07:06:46Z</time></trkpt><trkpt lat="-18.901203" lon="34.503877"><ele>18.0</ele><time>2026-04-07T07:08:02Z</time></trkpt><trkpt lat="-18.901158" lon="34.503945"><ele>19.4</ele><time>2026-04-07T07:08:54Z</time></trkpt><trkpt lat="-18.901173" lon="34.504023"><ele>18.0</ele><time>2026-04-07T07:09:14Z</time></trkpt><trkpt lat="-18.90117" lon="34.504079"><ele>18.0</ele><time>2026-04-07T07:09:16Z</time></trkpt><trkpt lat="-18.90115" lon="34.504119"><ele>18.8</ele><time>2026-04-07T07:09:18Z</time></trkpt><trkpt lat="-18.901111" lon="34.504145"><ele>18.0</ele><time>2026-04-07T07:09:19Z</time></trkpt><trkpt lat="-18.901053" lon="34.504165"><ele>19.3</ele><time>2026-04-07T07:09:21Z</time></trkpt><trkpt lat="-18.900994" lon="34.504146"><ele>19.5</ele><time>2026-04-07T07:09:23Z</time></trkpt><trkpt lat="-18.900952" lon="34.504097"><ele>19.7</ele><time>2026-04-07T07:09:25Z</time></trkpt><trkpt lat="-18.900943" lon="34.504063"><ele>19.9</ele><time>2026-04-07T07:09:26Z</time></trkpt><trkpt lat="-18.900949" lon="34.503996"><ele>20.2</ele><time>2026-04-07T07:09:28Z</time></trkpt><trkpt lat="-18.900979" lon="34.503935"><ele>20.3</ele><time>2026-04-07T07:09:30Z</time></trkpt><trkpt lat="-18.901053" lon="34.503875"><ele>20.0</ele><time>2026-04-07T07:09:33Z</time></trkpt><trkpt lat="-18.901096" lon="34.503851"><ele>20.0</ele><time>2026-04-07T07:09:35Z</time></trkpt><trkpt lat="-18.901285" lon="34.503783"><ele>15.0</ele><time>2026-04-07T07:09:59Z</time></trkpt><trkpt lat="-18.901265" lon="34.503819"><ele>14.0</ele><time>2026-04-07T07:10:16Z</time></trkpt><trkpt lat="-18.901345" lon="34.503823"><ele>-19999.0</ele><time>2026-04-07T07:11:09Z</time></trkpt><trkpt lat="-18.901363" lon="34.503842"><ele>19.0</ele><time>2026-04-07T07:11:26Z</time></trkpt><trkpt lat="-18.901402" lon="34.503829"><ele>20.0</ele><time>2026-04-07T07:11:35Z</time></trkpt><trkpt lat="-18.901417" lon="34.503789"><ele>15.0</ele><time>2026-04-07T07:11:45Z</time></trkpt><trkpt lat="-18.901402" lon="34.503702"><ele>20.0</ele><time>2026-04-07T07:12:01Z</time></trkpt><trkpt lat="-18.901349" lon="34.503585"><ele>20.0</ele><time>2026-04-07T07:12:14Z</time></trkpt><trkpt lat="-18.901328" lon="34.503498"><ele>21.0</ele><time>2026-04-07T07:12:24Z</time></trkpt><trkpt lat="-18.901327" lon="34.503445"><ele>21.4</ele><time>2026-04-07T07:12:28Z</time></trkpt><trkpt lat="-18.901347" lon="34.503381"><ele>20.0</ele><time>2026-04-07T07:12:35Z</time></trkpt><trkpt lat="-18.90142" lon="34.503248"><ele>20.0</ele><time>2026-04-07T07:12:50Z</time></trkpt><trkpt lat="-18.901471" lon="34.503198"><ele>20.0</ele><time>2026-04-07T07:12:58Z</time></trkpt><trkpt lat="-18.901539" lon="34.503171"><ele>19.0</ele><time>2026-04-07T07:13:06Z</time></trkpt><trkpt lat="-18.901661" lon="34.503191"><ele>11.0</ele><time>2026-04-07T07:13:30Z</time></trkpt><trkpt lat="-18.901715" lon="34.503211"><ele>18.0</ele><time>2026-04-07T07:13:38Z</time></trkpt><trkpt lat="-18.901749" lon="34.50324"><ele>20.0</ele><time>2026-04-07T07:13:54Z</time></trkpt><trkpt lat="-18.901833" lon="34.503237"><ele>20.0</ele><time>2026-04-07T07:14:01Z</time></trkpt><trkpt lat="-18.901944" lon="34.503182"><ele>20.0</ele><time>2026-04-07T07:14:17Z</time></trkpt><trkpt lat="-18.902088" lon="34.503171"><ele>20.0</ele><time>2026-04-07T07:14:33Z</time></trkpt><trkpt lat="-18.902185" lon="34.503193"><ele>20.0</ele><time>2026-04-07T07:14:44Z</time></trkpt><trkpt lat="-18.902281" lon="34.5032"><ele>11.0</ele><time>2026-04-07T07:14:58Z</time></trkpt><trkpt lat="-18.902441" lon="34.503252"><ele>18.0</ele><time>2026-04-07T07:15:46Z</time></trkpt><trkpt lat="-18.902519" lon="34.503304"><ele>21.0</ele><time>2026-04-07T07:16:42Z</time></trkpt><trkpt lat="-18.902656" lon="34.503317"><ele>21.2</ele><time>2026-04-07T07:17:17Z</time></trkpt><trkpt lat="-18.902668" lon="34.503026"><ele>18.0</ele><time>2026-04-07T07:18:10Z</time></trkpt><trkpt lat="-18.902698" lon="34.502964"><ele>21.0</ele><time>2026-04-07T07:18:15Z</time></trkpt><trkpt lat="-18.902798" lon="34.502887"><ele>21.0</ele><time>2026-04-07T07:18:25Z</time></trkpt><trkpt lat="-18.90288" lon="34.502887"><ele>18.0</ele><time>2026-04-07T07:18:35Z</time></trkpt><trkpt lat="-18.903007" lon="34.502936"><ele>20.0</ele><time>2026-04-07T07:19:13Z</time></trkpt><trkpt lat="-18.903029" lon="34.502986"><ele>11.0</ele><time>2026-04-07T07:19:25Z</time></trkpt><trkpt lat="-18.903073" lon="34.503049"><ele>20.0</ele><time>2026-04-07T07:19:32Z</time></trkpt><trkpt lat="-18.903133" lon="34.503269"><ele>20.0</ele><time>2026-04-07T07:20:03Z</time></trkpt><trkpt lat="-18.903262" lon="34.503402"><ele>20.0</ele><time>2026-04-07T07:20:27Z</time></trkpt><trkpt lat="-18.903543" lon="34.503323"><ele>20.0</ele><time>2026-04-07T07:22:01Z</time></trkpt><trkpt lat="-18.90362" lon="34.503328"><ele>18.0</ele><time>2026-04-07T07:22:10Z</time></trkpt><trkpt lat="-18.903693" lon="34.503363"><ele>20.0</ele><time>2026-04-07T07:22:18Z</time></trkpt><trkpt lat="-18.903727" lon="34.503412"><ele>20.0</ele><time>2026-04-07T07:22:25Z</time></trkpt><trkpt lat="-18.903745" lon="34.503709"><ele>20.0</ele><time>2026-04-07T07:23:03Z</time></trkpt><trkpt lat="-18.903804" lon="34.503788"><ele>18.0</ele><time>2026-04-07T07:24:31Z</time></trkpt><trkpt lat="-18.90408" lon="34.50381"><ele>18.0</ele><time>2026-04-07T07:25:42Z</time></trkpt><trkpt lat="-18.904193" lon="34.503726"><ele>20.0</ele><time>2026-04-07T07:26:57Z</time></trkpt><trkpt lat="-18.904218" lon="34.503744"><ele>21.0</ele><time>2026-04-07T07:28:09Z</time></trkpt><trkpt lat="-18.904252" lon="34.50375"><ele>20.0</ele><time>2026-04-07T07:28:21Z</time></trkpt><trkpt lat="-18.904354" lon="34.503659"><ele>-19999.0</ele><time>2026-04-07T07:28:43Z</time></trkpt><trkpt lat="-18.904773" lon="34.503326"><ele>15.0</ele><time>2026-04-07T07:29:21Z</time></trkpt><trkpt lat="-18.904993" lon="34.503247"><ele>21.0</ele><time>2026-04-07T07:30:18Z</time></trkpt><trkpt lat="-18.905071" lon="34.503251"><ele>21.0</ele><time>2026-04-07T07:31:07Z</time></trkpt><trkpt lat="-18.90515" lon="34.503294"><ele>21.0</ele><time>2026-04-07T07:31:50Z</time></trkpt><trkpt lat="-18.905372" lon="34.503345"><ele>21.0</ele><time>2026-04-07T07:32:12Z</time></trkpt><trkpt lat="-18.905567" lon="34.503413"><ele>18.0</ele><time>2026-04-07T07:33:00Z</time></trkpt><trkpt lat="-18.905514" lon="34.503397"><ele>14.0</ele><time>2026-04-07T07:33:16Z</time></trkpt><trkpt lat="-18.90567" lon="34.503436"><ele>21.0</ele><time>2026-04-07T07:33:59Z</time></trkpt><trkpt lat="-18.905739" lon="34.503495"><ele>20.0</ele><time>2026-04-07T07:34:16Z</time></trkpt><trkpt lat="-18.905792" lon="34.50351"><ele>22.0</ele><time>2026-04-07T07:34:37Z</time></trkpt><trkpt lat="-18.905842" lon="34.503541"><ele>22.0</ele><time>2026-04-07T07:35:20Z</time></trkpt><trkpt lat="-18.905936" lon="34.503562"><ele>21.0</ele><time>2026-04-07T07:36:26Z</time></trkpt><trkpt lat="-18.906011" lon="34.503631"><ele>23.7</ele><time>2026-04-07T07:37:52Z</time></trkpt><trkpt lat="-18.906149" lon="34.503598"><ele>16.0</ele><time>2026-04-07T07:38:27Z</time></trkpt><trkpt lat="-18.906195" lon="34.503596"><ele>21.0</ele><time>2026-04-07T07:38:46Z</time></trkpt><trkpt lat="-18.906273" lon="34.503628"><ele>20.0</ele><time>2026-04-07T07:39:08Z</time></trkpt><trkpt lat="-18.906355" lon="34.503708"><ele>24.0</ele><time>2026-04-07T07:39:33Z</time></trkpt><trkpt lat="-18.906315" lon="34.503754"><ele>12.0</ele><time>2026-04-07T07:40:00Z</time></trkpt><trkpt lat="-18.906149" lon="34.503611"><ele>15.0</ele><time>2026-04-07T07:40:43Z</time></trkpt><trkpt lat="-18.906209" lon="34.503644"><ele>20.0</ele><time>2026-04-07T07:40:59Z</time></trkpt><trkpt lat="-18.906259" lon="34.503694"><ele>21.0</ele><time>2026-04-07T07:41:07Z</time></trkpt><trkpt lat="-18.906319" lon="34.503713"><ele>24.0</ele><time>2026-04-07T07:41:12Z</time></trkpt><trkpt lat="-18.906434" lon="34.503777"><ele>19.0</ele><time>2026-04-07T07:41:28Z</time></trkpt><trkpt lat="-18.906553" lon="34.503815"><ele>24.0</ele><time>2026-04-07T07:41:50Z</time></trkpt><trkpt lat="-18.906659" lon="34.503884"><ele>24.0</ele><time>2026-04-07T07:42:52Z</time></trkpt><trkpt lat="-18.90674" lon="34.503893"><ele>24.0</ele><time>2026-04-07T07:43:42Z</time></trkpt><trkpt lat="-18.90682" lon="34.503878"><ele>19.0</ele><time>2026-04-07T07:44:00Z</time></trkpt><trkpt lat="-18.906902" lon="34.503879"><ele>24.0</ele><time>2026-04-07T07:44:32Z</time></trkpt><trkpt lat="-18.906973" lon="34.503921"><ele>22.0</ele><time>2026-04-07T07:45:22Z</time></trkpt><trkpt lat="-18.907169" lon="34.504121"><ele>-3984.0</ele><time>2026-04-07T07:47:22Z</time></trkpt><trkpt lat="-18.907185" lon="34.504166"><ele>24.0</ele><time>2026-04-07T07:48:05Z</time></trkpt><trkpt lat="-18.907427" lon="34.504109"><ele>25.0</ele><time>2026-04-07T07:48:38Z</time></trkpt><trkpt lat="-18.907464" lon="34.504124"><ele>25.0</ele><time>2026-04-07T07:48:43Z</time></trkpt><trkpt lat="-18.907498" lon="34.504182"><ele>25.3</ele><time>2026-04-07T07:48:53Z</time></trkpt><trkpt lat="-18.907527" lon="34.504202"><ele>20.8</ele><time>2026-04-07T07:48:54Z</time></trkpt><trkpt lat="-18.907589" lon="34.5042"><ele>14.5</ele><time>2026-04-07T07:48:55Z</time></trkpt><trkpt lat="-18.907739" lon="34.504223"><ele>5.5</ele><time>2026-04-07T07:48:57Z</time></trkpt><trkpt lat="-18.907518" lon="34.504191"><ele>24.0</ele><time>2026-04-07T07:48:59Z</time></trkpt><trkpt lat="-18.907528" lon="34.504226"><ele>-6651.0</ele><time>2026-04-07T07:49:30Z</time></trkpt><trkpt lat="-18.907506" lon="34.504256"><ele>24.0</ele><time>2026-04-07T07:49:56Z</time></trkpt><trkpt lat="-18.907509" lon="34.504298"><ele>16.0</ele><time>2026-04-07T07:50:10Z</time></trkpt><trkpt lat="-18.907574" lon="34.504377"><ele>24.0</ele><time>2026-04-07T07:50:55Z</time></trkpt><trkpt lat="-18.907607" lon="34.504402"><ele>21.0</ele><time>2026-04-07T07:51:01Z</time></trkpt><trkpt lat="-18.907702" lon="34.504423"><ele>21.0</ele><time>2026-04-07T07:51:12Z</time></trkpt><trkpt lat="-18.907937" lon="34.504539"><ele>19.0</ele><time>2026-04-07T07:51:57Z</time></trkpt><trkpt lat="-18.907993" lon="34.504833"><ele>21.0</ele><time>2026-04-07T07:53:33Z</time></trkpt><trkpt lat="-18.908027" lon="34.50489"><ele>22.0</ele><time>2026-04-07T07:53:45Z</time></trkpt><trkpt lat="-18.908088" lon="34.505074"><ele>20.0</ele><time>2026-04-07T07:54:44Z</time></trkpt><trkpt lat="-18.908162" lon="34.505146"><ele>24.0</ele><time>2026-04-07T07:54:58Z</time></trkpt><trkpt lat="-18.90821" lon="34.50524"><ele>22.0</ele><time>2026-04-07T07:55:10Z</time></trkpt><trkpt lat="-18.908242" lon="34.505361"><ele>15.0</ele><time>2026-04-07T07:56:29Z</time></trkpt><trkpt lat="-18.908243" lon="34.505314"><ele>22.0</ele><time>2026-04-07T07:56:54Z</time></trkpt><trkpt lat="-18.908258" lon="34.505286"><ele>21.0</ele><time>2026-04-07T07:57:12Z</time></trkpt><trkpt lat="-18.908016" lon="34.505219"><ele>24.0</ele><time>2026-04-07T07:57:56Z</time></trkpt><trkpt lat="-18.907953" lon="34.50519"><ele>24.0</ele><time>2026-04-07T07:58:03Z</time></trkpt><trkpt lat="-18.907831" lon="34.505107"><ele>23.0</ele><time>2026-04-07T07:58:19Z</time></trkpt><trkpt lat="-18.907818" lon="34.50507"><ele>24.0</ele><time>2026-04-07T07:58:22Z</time></trkpt><trkpt lat="-18.907828" lon="34.505035"><ele>24.0</ele><time>2026-04-07T07:58:24Z</time></trkpt><trkpt lat="-18.907881" lon="34.504996"><ele>24.0</ele><time>2026-04-07T07:58:29Z</time></trkpt><trkpt lat="-18.908064" lon="34.504899"><ele>22.0</ele><time>2026-04-07T07:58:43Z</time></trkpt><trkpt lat="-18.908094" lon="34.504863"><ele>22.0</ele><time>2026-04-07T07:58:45Z</time></trkpt><trkpt lat="-18.908157" lon="34.504719"><ele>22.0</ele><time>2026-04-07T07:58:51Z</time></trkpt><trkpt lat="-18.908162" lon="34.504668"><ele>22.0</ele><time>2026-04-07T07:58:53Z</time></trkpt><trkpt lat="-18.908152" lon="34.504586"><ele>22.0</ele><time>2026-04-07T07:58:56Z</time></trkpt><trkpt lat="-18.908037" lon="34.504216"><ele>22.0</ele><time>2026-04-07T07:59:10Z</time></trkpt><trkpt lat="-18.908007" lon="34.504181"><ele>22.0</ele><time>2026-04-07T07:59:12Z</time></trkpt><trkpt lat="-18.907968" lon="34.504161"><ele>22.0</ele><time>2026-04-07T07:59:14Z</time></trkpt><trkpt lat="-18.90782" lon="34.504136"><ele>22.0</ele><time>2026-04-07T07:59:20Z</time></trkpt><trkpt lat="-18.907776" lon="34.504113"><ele>22.0</ele><time>2026-04-07T07:59:22Z</time></trkpt><trkpt lat="-18.907745" lon="34.50408"><ele>22.0</ele><time>2026-04-07T07:59:24Z</time></trkpt><trkpt lat="-18.907682" lon="34.503958"><ele>21.0</ele><time>2026-04-07T07:59:33Z</time></trkpt><trkpt lat="-18.907621" lon="34.503895"><ele>21.0</ele><time>2026-04-07T07:59:39Z</time></trkpt><trkpt lat="-18.907476" lon="34.503816"><ele>24.0</ele><time>2026-04-07T07:59:50Z</time></trkpt><trkpt lat="-18.907235" lon="34.503724"><ele>24.0</ele><time>2026-04-07T08:00:14Z</time></trkpt><trkpt lat="-18.90709" lon="34.503682"><ele>24.0</ele><time>2026-04-07T08:00:18Z</time></trkpt><trkpt lat="-18.907015" lon="34.50367"><ele>24.0</ele><time>2026-04-07T08:00:23Z</time></trkpt><trkpt lat="-18.906946" lon="34.503644"><ele>24.0</ele><time>2026-04-07T08:00:28Z</time></trkpt><trkpt lat="-18.906914" lon="34.503621"><ele>24.0</ele><time>2026-04-07T08:00:31Z</time></trkpt><trkpt lat="-18.906864" lon="34.50356"><ele>24.0</ele><time>2026-04-07T08:00:37Z</time></trkpt><trkpt lat="-18.90681" lon="34.503444"><ele>22.0</ele><time>2026-04-07T08:00:50Z</time></trkpt><trkpt lat="-18.90668" lon="34.503251"><ele>24.0</ele><time>2026-04-07T08:01:01Z</time></trkpt><trkpt lat="-18.906581" lon="34.503194"><ele>22.0</ele><time>2026-04-07T08:01:08Z</time></trkpt><trkpt lat="-18.90639" lon="34.503111"><ele>15.0</ele><time>2026-04-07T08:01:26Z</time></trkpt><trkpt lat="-18.906115" lon="34.503055"><ele>22.0</ele><time>2026-04-07T08:01:34Z</time></trkpt><trkpt lat="-18.906037" lon="34.503048"><ele>21.0</ele><time>2026-04-07T08:01:39Z</time></trkpt><trkpt lat="-18.90582" lon="34.502986"><ele>23.0</ele><time>2026-04-07T08:01:58Z</time></trkpt><trkpt lat="-18.905776" lon="34.502952"><ele>23.6</ele><time>2026-04-07T08:02:02Z</time></trkpt><trkpt lat="-18.905705" lon="34.502919"><ele>22.0</ele><time>2026-04-07T08:02:07Z</time></trkpt><trkpt lat="-18.905498" lon="34.502854"><ele>22.0</ele><time>2026-04-07T08:02:19Z</time></trkpt><trkpt lat="-18.905165" lon="34.502889"><ele>22.0</ele><time>2026-04-07T08:02:37Z</time></trkpt><trkpt lat="-18.905096" lon="34.502907"><ele>21.0</ele><time>2026-04-07T08:02:43Z</time></trkpt><trkpt lat="-18.904789" lon="34.502903"><ele>22.5</ele><time>2026-04-07T08:03:01Z</time></trkpt><trkpt lat="-18.904479" lon="34.502852"><ele>22.8</ele><time>2026-04-07T08:03:07Z</time></trkpt><trkpt lat="-18.904227" lon="34.502795"><ele>23.1</ele><time>2026-04-07T08:03:11Z</time></trkpt><trkpt lat="-18.903941" lon="34.502695"><ele>23.0</ele><time>2026-04-07T08:03:15Z</time></trkpt><trkpt lat="-18.903687" lon="34.502629"><ele>22.8</ele><time>2026-04-07T08:03:18Z</time></trkpt><trkpt lat="-18.903502" lon="34.5026"><ele>22.4</ele><time>2026-04-07T08:03:20Z</time></trkpt><trkpt lat="-18.903109" lon="34.502569"><ele>22.0</ele><time>2026-04-07T08:03:24Z</time></trkpt><trkpt lat="-18.902902" lon="34.502562"><ele>21.9</ele><time>2026-04-07T08:03:26Z</time></trkpt><trkpt lat="-18.902689" lon="34.502576"><ele>22.0</ele><time>2026-04-07T08:03:28Z</time></trkpt><trkpt lat="-18.902279" lon="34.502657"><ele>21.9</ele><time>2026-04-07T08:03:32Z</time></trkpt><trkpt lat="-18.90179" lon="34.502777"><ele>21.9</ele><time>2026-04-07T08:03:39Z</time></trkpt><trkpt lat="-18.901601" lon="34.502813"><ele>22.0</ele><time>2026-04-07T08:03:45Z</time></trkpt><trkpt lat="-18.901349" lon="34.502845"><ele>21.0</ele><time>2026-04-07T08:04:03Z</time></trkpt><trkpt lat="-18.901314" lon="34.502837"><ele>20.0</ele><time>2026-04-07T08:04:06Z</time></trkpt><trkpt lat="-18.901286" lon="34.502817"><ele>20.0</ele><time>2026-04-07T08:04:10Z</time></trkpt><trkpt lat="-18.901204" lon="34.502663"><ele>22.0</ele><time>2026-04-07T08:04:28Z</time></trkpt><trkpt lat="-18.901145" lon="34.502586"><ele>23.1</ele><time>2026-04-07T08:04:37Z</time></trkpt><trkpt lat="-18.901108" lon="34.502506"><ele>18.0</ele><time>2026-04-07T08:04:49Z</time></trkpt><trkpt lat="-18.901041" lon="34.502407"><ele>24.1</ele><time>2026-04-07T08:05:30Z</time></trkpt><trkpt lat="-18.900937" lon="34.502332"><ele>21.0</ele><time>2026-04-07T08:05:44Z</time></trkpt><trkpt lat="-18.900896" lon="34.502268"><ele>18.0</ele><time>2026-04-07T08:06:03Z</time></trkpt><trkpt lat="-18.90087" lon="34.502332"><ele>21.0</ele><time>2026-04-07T08:06:16Z</time></trkpt><trkpt lat="-18.900855" lon="34.502231"><ele>20.0</ele><time>2026-04-07T08:06:47Z</time></trkpt><trkpt lat="-18.900898" lon="34.502119"><ele>18.0</ele><time>2026-04-07T08:07:09Z</time></trkpt><trkpt lat="-18.900943" lon="34.502042"><ele>19.0</ele><time>2026-04-07T08:07:19Z</time></trkpt><trkpt lat="-18.900925" lon="34.502075"><ele>11.0</ele><time>2026-04-07T08:07:29Z</time></trkpt><trkpt lat="-18.900902" lon="34.501984"><ele>20.0</ele><time>2026-04-07T08:07:41Z</time></trkpt><trkpt lat="-18.900912" lon="34.501821"><ele>21.9</ele><time>2026-04-07T08:08:09Z</time></trkpt><trkpt lat="-18.900909" lon="34.501867"><ele>21.0</ele><time>2026-04-07T08:08:59Z</time></trkpt><trkpt lat="-18.900892" lon="34.501796"><ele>22.0</ele><time>2026-04-07T08:09:28Z</time></trkpt><trkpt lat="-18.900863" lon="34.501763"><ele>22.0</ele><time>2026-04-07T08:09:30Z</time></trkpt><trkpt lat="-18.900817" lon="34.501756"><ele>22.0</ele><time>2026-04-07T08:09:32Z</time></trkpt><trkpt lat="-18.900764" lon="34.501771"><ele>23.1</ele><time>2026-04-07T08:09:35Z</time></trkpt><trkpt lat="-18.900706" lon="34.501813"><ele>22.0</ele><time>2026-04-07T08:09:38Z</time></trkpt><trkpt lat="-18.900615" lon="34.501968"><ele>22.0</ele><time>2026-04-07T08:09:46Z</time></trkpt><trkpt lat="-18.900563" lon="34.502094"><ele>22.0</ele><time>2026-04-07T08:09:52Z</time></trkpt><trkpt lat="-18.900557" lon="34.502179"><ele>22.0</ele><time>2026-04-07T08:09:56Z</time></trkpt><trkpt lat="-18.900571" lon="34.502214"><ele>22.0</ele><time>2026-04-07T08:09:58Z</time></trkpt><trkpt lat="-18.900621" lon="34.502255"><ele>22.0</ele><time>2026-04-07T08:10:02Z</time></trkpt><trkpt lat="-18.900652" lon="34.502254"><ele>22.0</ele><time>2026-04-07T08:10:04Z</time></trkpt><trkpt lat="-18.900767" lon="34.502215"><ele>21.0</ele><time>2026-04-07T08:10:11Z</time></trkpt><trkpt lat="-18.900882" lon="34.502199"><ele>22.0</ele><time>2026-04-07T08:10:16Z</time></trkpt><trkpt lat="-18.900913" lon="34.502179"><ele>22.0</ele><time>2026-04-07T08:10:18Z</time></trkpt><trkpt lat="-18.900964" lon="34.502122"><ele>22.0</ele><time>2026-04-07T08:10:22Z</time></trkpt><trkpt lat="-18.90107" lon="34.502052"><ele>21.0</ele><time>2026-04-07T08:10:32Z</time></trkpt><trkpt lat="-18.90117" lon="34.502015"><ele>20.0</ele><time>2026-04-07T08:10:42Z</time></trkpt><trkpt lat="-18.901376" lon="34.50183"><ele>22.0</ele><time>2026-04-07T08:11:12Z</time></trkpt><trkpt lat="-18.901403" lon="34.501766"><ele>-19999.0</ele><time>2026-04-07T08:11:34Z</time></trkpt><trkpt lat="-18.901354" lon="34.501823"><ele>22.0</ele><time>2026-04-07T08:11:56Z</time></trkpt><trkpt lat="-18.901318" lon="34.501904"><ele>22.0</ele><time>2026-04-07T08:12:08Z</time></trkpt><trkpt lat="-18.901272" lon="34.501959"><ele>17.0</ele><time>2026-04-07T08:12:35Z</time></trkpt><trkpt lat="-18.901245" lon="34.501916"><ele>22.0</ele><time>2026-04-07T08:12:58Z</time></trkpt><trkpt lat="-18.901209" lon="34.501917"><ele>22.0</ele><time>2026-04-07T08:13:16Z</time></trkpt><trkpt lat="-18.901201" lon="34.50195"><ele>20.0</ele><time>2026-04-07T08:13:30Z</time></trkpt><trkpt lat="-18.901255" lon="34.502018"><ele>20.0</ele><time>2026-04-07T08:14:24Z</time></trkpt><trkpt lat="-18.90122" lon="34.502044"><ele>18.0</ele><time>2026-04-07T08:15:13Z</time></trkpt><trkpt lat="-18.901231" lon="34.502113"><ele>22.0</ele><time>2026-04-07T08:15:18Z</time></trkpt><trkpt lat="-18.901265" lon="34.502129"><ele>22.0</ele><time>2026-04-07T08:15:20Z</time></trkpt><trkpt lat="-18.901305" lon="34.502131"><ele>22.0</ele><time>2026-04-07T08:15:22Z</time></trkpt><trkpt lat="-18.90134" lon="34.502119"><ele>22.0</ele><time>2026-04-07T08:15:24Z</time></trkpt><trkpt lat="-18.901393" lon="34.502074"><ele>22.0</ele><time>2026-04-07T08:15:28Z</time></trkpt><trkpt lat="-18.901479" lon="34.501939"><ele>20.0</ele><time>2026-04-07T08:15:40Z</time></trkpt><trkpt lat="-18.901523" lon="34.50176"><ele>18.0</ele><time>2026-04-07T08:15:54Z</time></trkpt><trkpt lat="-18.901586" lon="34.501635"><ele>21.0</ele><time>2026-04-07T08:16:36Z</time></trkpt><trkpt lat="-18.901575" lon="34.501707"><ele>21.0</ele><time>2026-04-07T08:17:01Z</time></trkpt><trkpt lat="-18.901593" lon="34.50154"><ele>-6651.0</ele><time>2026-04-07T08:18:08Z</time></trkpt><trkpt lat="-18.901573" lon="34.501567"><ele>13.0</ele><time>2026-04-07T08:18:40Z</time></trkpt><trkpt lat="-18.901647" lon="34.501642"><ele>22.0</ele><time>2026-04-07T08:19:07Z</time></trkpt><trkpt lat="-18.901619" lon="34.501616"><ele>22.0</ele><time>2026-04-07T08:19:31Z</time></trkpt><trkpt lat="-18.9016" lon="34.501693"><ele>24.0</ele><time>2026-04-07T08:19:56Z</time></trkpt><trkpt lat="-18.901621" lon="34.501605"><ele>24.0</ele><time>2026-04-07T08:20:13Z</time></trkpt><trkpt lat="-18.901699" lon="34.501477"><ele>24.0</ele><time>2026-04-07T08:21:01Z</time></trkpt><trkpt lat="-18.901643" lon="34.501523"><ele>24.0</ele><time>2026-04-07T08:21:40Z</time></trkpt><trkpt lat="-18.901626" lon="34.501504"><ele>24.0</ele><time>2026-04-07T08:21:51Z</time></trkpt><trkpt lat="-18.901662" lon="34.501472"><ele>24.0</ele><time>2026-04-07T08:21:56Z</time></trkpt><trkpt lat="-18.901703" lon="34.501471"><ele>24.0</ele><time>2026-04-07T08:21:59Z</time></trkpt><trkpt lat="-18.901789" lon="34.501447"><ele>15.0</ele><time>2026-04-07T08:22:11Z</time></trkpt><trkpt lat="-18.901738" lon="34.501551"><ele>24.0</ele><time>2026-04-07T08:22:27Z</time></trkpt><trkpt lat="-18.901758" lon="34.501506"><ele>24.0</ele><time>2026-04-07T08:22:39Z</time></trkpt><trkpt lat="-18.901751" lon="34.50144"><ele>24.0</ele><time>2026-04-07T08:22:47Z</time></trkpt><trkpt lat="-18.901727" lon="34.501416"><ele>24.0</ele><time>2026-04-07T08:22:52Z</time></trkpt><trkpt lat="-18.901653" lon="34.501393"><ele>24.0</ele><time>2026-04-07T08:23:16Z</time></trkpt><trkpt lat="-18.901648" lon="34.501412"><ele>24.0</ele><time>2026-04-07T08:24:31Z</time></trkpt><trkpt lat="-18.901664" lon="34.501507"><ele>24.0</ele><time>2026-04-07T08:25:05Z</time></trkpt><trkpt lat="-18.901653" lon="34.501576"><ele>22.0</ele><time>2026-04-07T08:25:17Z</time></trkpt><trkpt lat="-18.901683" lon="34.501581"><ele>20.0</ele><time>2026-04-07T08:25:24Z</time></trkpt><trkpt lat="-18.901735" lon="34.501539"><ele>21.0</ele><time>2026-04-07T08:25:31Z</time></trkpt><trkpt lat="-18.901784" lon="34.501434"><ele>24.0</ele><time>2026-04-07T08:25:46Z</time></trkpt><trkpt lat="-18.901781" lon="34.501401"><ele>21.0</ele><time>2026-04-07T08:26:07Z</time></trkpt><trkpt lat="-18.901753" lon="34.501363"><ele>18.0</ele><time>2026-04-07T08:26:20Z</time></trkpt><trkpt lat="-18.901754" lon="34.501328"><ele>18.0</ele><time>2026-04-07T08:26:26Z</time></trkpt><trkpt lat="-18.901792" lon="34.501294"><ele>22.0</ele><time>2026-04-07T08:26:36Z</time></trkpt><trkpt lat="-18.901838" lon="34.501303"><ele>18.0</ele><time>2026-04-07T08:26:43Z</time></trkpt><trkpt lat="-18.901915" lon="34.50134"><ele>22.0</ele><time>2026-04-07T08:27:16Z</time></trkpt><trkpt lat="-18.901967" lon="34.501331"><ele>20.0</ele><time>2026-04-07T08:27:32Z</time></trkpt><trkpt lat="-18.901889" lon="34.501333"><ele>22.0</ele><time>2026-04-07T08:28:17Z</time></trkpt><trkpt lat="-18.901825" lon="34.501353"><ele>20.0</ele><time>2026-04-07T08:28:34Z</time></trkpt><trkpt lat="-18.901823" lon="34.501387"><ele>22.0</ele><time>2026-04-07T08:29:08Z</time></trkpt><trkpt lat="-18.901917" lon="34.501376"><ele>19.0</ele><time>2026-04-07T08:29:21Z</time></trkpt><trkpt lat="-18.901966" lon="34.501288"><ele>20.0</ele><time>2026-04-07T08:29:33Z</time></trkpt><trkpt lat="-18.902008" lon="34.501291"><ele>8.0</ele><time>2026-04-07T08:29:46Z</time></trkpt><trkpt lat="-18.901987" lon="34.501202"><ele>21.0</ele><time>2026-04-07T08:30:04Z</time></trkpt><trkpt lat="-18.902008" lon="34.501127"><ele>24.0</ele><time>2026-04-07T08:30:10Z</time></trkpt><trkpt lat="-18.902147" lon="34.500973"><ele>24.0</ele><time>2026-04-07T08:30:21Z</time></trkpt><trkpt lat="-18.902219" lon="34.500822"><ele>24.0</ele><time>2026-04-07T08:30:29Z</time></trkpt><trkpt lat="-18.902237" lon="34.500743"><ele>21.0</ele><time>2026-04-07T08:30:35Z</time></trkpt><trkpt lat="-18.902235" lon="34.500709"><ele>21.0</ele><time>2026-04-07T08:30:38Z</time></trkpt><trkpt lat="-18.902208" lon="34.50063"><ele>23.9</ele><time>2026-04-07T08:30:48Z</time></trkpt><trkpt lat="-18.90219" lon="34.500618"><ele>21.0</ele><time>2026-04-07T08:30:53Z</time></trkpt><trkpt lat="-18.902192" lon="34.500644"><ele>20.0</ele><time>2026-04-07T08:31:07Z</time></trkpt><trkpt lat="-18.902226" lon="34.500651"><ele>19.0</ele><time>2026-04-07T08:31:14Z</time></trkpt><trkpt lat="-18.90226" lon="34.500595"><ele>17.1</ele><time>2026-04-07T08:31:17Z</time></trkpt><trkpt lat="-18.902299" lon="34.500495"><ele>13.5</ele><time>2026-04-07T08:31:19Z</time></trkpt><trkpt lat="-18.90227" lon="34.500695"><ele>14.0</ele><time>2026-04-07T08:31:26Z</time></trkpt><trkpt lat="-18.902231" lon="34.500681"><ele>22.0</ele><time>2026-04-07T08:31:38Z</time></trkpt><trkpt lat="-18.902214" lon="34.500701"><ele>19.0</ele><time>2026-04-07T08:31:49Z</time></trkpt><trkpt lat="-18.902241" lon="34.500716"><ele>18.0</ele><time>2026-04-07T08:32:10Z</time></trkpt><trkpt lat="-18.902257" lon="34.500654"><ele>18.0</ele><time>2026-04-07T08:32:34Z</time></trkpt><trkpt lat="-18.902266" lon="34.500677"><ele>19.0</ele><time>2026-04-07T08:32:47Z</time></trkpt><trkpt lat="-18.90231" lon="34.500666"><ele>23.2</ele><time>2026-04-07T08:32:55Z</time></trkpt><trkpt lat="-18.90229" lon="34.500692"><ele>20.0</ele><time>2026-04-07T08:33:00Z</time></trkpt><trkpt lat="-18.902339" lon="34.500701"><ele>21.0</ele><time>2026-04-07T08:33:18Z</time></trkpt><trkpt lat="-18.902329" lon="34.500712"><ele>20.0</ele><time>2026-04-07T08:33:26Z</time></trkpt><trkpt lat="-18.902235" lon="34.500679"><ele>14.0</ele><time>2026-04-07T08:33:42Z</time></trkpt><trkpt lat="-18.902238" lon="34.500798"><ele>20.0</ele><time>2026-04-07T08:34:00Z</time></trkpt><trkpt lat="-18.902208" lon="34.500758"><ele>22.0</ele><time>2026-04-07T08:34:05Z</time></trkpt><trkpt lat="-18.902205" lon="34.500724"><ele>22.6</ele><time>2026-04-07T08:34:07Z</time></trkpt><trkpt lat="-18.902203" lon="34.500687"><ele>22.0</ele><time>2026-04-07T08:34:08Z</time></trkpt><trkpt lat="-18.902229" lon="34.500631"><ele>22.5</ele><time>2026-04-07T08:34:11Z</time></trkpt><trkpt lat="-18.902346" lon="34.50058"><ele>22.0</ele><time>2026-04-07T08:34:16Z</time></trkpt><trkpt lat="-18.902427" lon="34.500528"><ele>22.0</ele><time>2026-04-07T08:34:20Z</time></trkpt><trkpt lat="-18.902562" lon="34.500372"><ele>21.0</ele><time>2026-04-07T08:34:32Z</time></trkpt><trkpt lat="-18.902592" lon="34.500357"><ele>20.0</ele><time>2026-04-07T08:34:35Z</time></trkpt><trkpt lat="-18.902629" lon="34.500303"><ele>21.0</ele><time>2026-04-07T08:34:43Z</time></trkpt><trkpt lat="-18.902689" lon="34.500271"><ele>22.0</ele><time>2026-04-07T08:34:47Z</time></trkpt><trkpt lat="-18.902784" lon="34.500252"><ele>22.0</ele><time>2026-04-07T08:34:52Z</time></trkpt><trkpt lat="-18.902814" lon="34.500203"><ele>22.0</ele><time>2026-04-07T08:34:57Z</time></trkpt><trkpt lat="-18.902834" lon="34.500119"><ele>21.0</ele><time>2026-04-07T08:35:04Z</time></trkpt><trkpt lat="-18.90283" lon="34.500079"><ele>21.0</ele><time>2026-04-07T08:35:07Z</time></trkpt><trkpt lat="-18.902805" lon="34.50001"><ele>21.0</ele><time>2026-04-07T08:35:13Z</time></trkpt><trkpt lat="-18.902759" lon="34.499924"><ele>21.0</ele><time>2026-04-07T08:35:20Z</time></trkpt><trkpt lat="-18.902698" lon="34.499871"><ele>17.0</ele><time>2026-04-07T08:35:36Z</time></trkpt><trkpt lat="-18.902808" lon="34.499947"><ele>20.0</ele><time>2026-04-07T08:35:57Z</time></trkpt><trkpt lat="-18.902794" lon="34.499974"><ele>16.0</ele><time>2026-04-07T08:36:06Z</time></trkpt><trkpt lat="-18.902715" lon="34.500005"><ele>19.0</ele><time>2026-04-07T08:36:40Z</time></trkpt><trkpt lat="-18.90278" lon="34.500034"><ele>20.0</ele><time>2026-04-07T08:37:19Z</time></trkpt><trkpt lat="-18.902817" lon="34.500038"><ele>19.0</ele><time>2026-04-07T08:37:35Z</time></trkpt><trkpt lat="-18.902772" lon="34.49997"><ele>21.1</ele><time>2026-04-07T08:37:42Z</time></trkpt><trkpt lat="-18.902681" lon="34.499756"><ele>20.0</ele><time>2026-04-07T08:37:50Z</time></trkpt><trkpt lat="-18.902634" lon="34.499697"><ele>21.0</ele><time>2026-04-07T08:37:55Z</time></trkpt><trkpt lat="-18.902552" lon="34.499639"><ele>-4985.0</ele><time>2026-04-07T08:38:25Z</time></trkpt><trkpt lat="-18.902496" lon="34.499641"><ele>18.0</ele><time>2026-04-07T08:38:50Z</time></trkpt><trkpt lat="-18.902462" lon="34.499667"><ele>12.0</ele><time>2026-04-07T08:39:00Z</time></trkpt><trkpt lat="-18.902488" lon="34.499619"><ele>20.0</ele><time>2026-04-07T08:39:12Z</time></trkpt><trkpt lat="-18.90252" lon="34.499616"><ele>21.0</ele><time>2026-04-07T08:39:18Z</time></trkpt><trkpt lat="-18.902532" lon="34.499637"><ele>21.0</ele><time>2026-04-07T08:39:25Z</time></trkpt><trkpt lat="-18.902502" lon="34.499608"><ele>-19999.0</ele><time>2026-04-07T08:39:47Z</time></trkpt><trkpt lat="-18.902524" lon="34.499641"><ele>22.0</ele><time>2026-04-07T08:40:12Z</time></trkpt><trkpt lat="-18.902556" lon="34.499641"><ele>20.0</ele><time>2026-04-07T08:40:33Z</time></trkpt><trkpt lat="-18.902434" lon="34.499566"><ele>21.0</ele><time>2026-04-07T08:40:53Z</time></trkpt><trkpt lat="-18.902366" lon="34.499444"><ele>22.0</ele><time>2026-04-07T08:41:02Z</time></trkpt><trkpt lat="-18.902332" lon="34.499338"><ele>22.0</ele><time>2026-04-07T08:41:12Z</time></trkpt><trkpt lat="-18.902309" lon="34.49931"><ele>20.0</ele><time>2026-04-07T08:41:17Z</time></trkpt><trkpt lat="-18.902267" lon="34.499288"><ele>18.0</ele><time>2026-04-07T08:41:27Z</time></trkpt><trkpt lat="-18.902337" lon="34.499251"><ele>22.0</ele><time>2026-04-07T08:41:39Z</time></trkpt><trkpt lat="-18.902305" lon="34.499239"><ele>21.0</ele><time>2026-04-07T08:41:46Z</time></trkpt><trkpt lat="-18.902272" lon="34.49925"><ele>20.0</ele><time>2026-04-07T08:41:49Z</time></trkpt><trkpt lat="-18.90222" lon="34.499317"><ele>21.0</ele><time>2026-04-07T08:41:57Z</time></trkpt><trkpt lat="-18.902206" lon="34.499463"><ele>20.0</ele><time>2026-04-07T08:42:10Z</time></trkpt><trkpt lat="-18.902183" lon="34.499512"><ele>-6653.0</ele><time>2026-04-07T08:42:37Z</time></trkpt><trkpt lat="-18.902138" lon="34.499496"><ele>20.0</ele><time>2026-04-07T08:42:54Z</time></trkpt><trkpt lat="-18.902095" lon="34.4995"><ele>20.0</ele><time>2026-04-07T08:42:58Z</time></trkpt><trkpt lat="-18.902019" lon="34.499536"><ele>14.0</ele><time>2026-04-07T08:43:15Z</time></trkpt><trkpt lat="-18.902069" lon="34.499486"><ele>22.0</ele><time>2026-04-07T08:43:35Z</time></trkpt><trkpt lat="-18.902085" lon="34.499455"><ele>24.8</ele><time>2026-04-07T08:43:46Z</time></trkpt><trkpt lat="-18.902137" lon="34.499509"><ele>17.0</ele><time>2026-04-07T08:44:05Z</time></trkpt><trkpt lat="-18.90211" lon="34.499491"><ele>21.0</ele><time>2026-04-07T08:44:15Z</time></trkpt><trkpt lat="-18.9021" lon="34.499455"><ele>21.0</ele><time>2026-04-07T08:44:18Z</time></trkpt><trkpt lat="-18.902113" lon="34.499337"><ele>21.0</ele><time>2026-04-07T08:44:26Z</time></trkpt><trkpt lat="-18.902066" lon="34.499269"><ele>21.0</ele><time>2026-04-07T08:44:33Z</time></trkpt><trkpt lat="-18.901935" lon="34.499165"><ele>21.0</ele><time>2026-04-07T08:44:48Z</time></trkpt><trkpt lat="-18.901833" lon="34.499066"><ele>21.0</ele><time>2026-04-07T08:45:01Z</time></trkpt><trkpt lat="-18.901811" lon="34.499002"><ele>20.0</ele><time>2026-04-07T08:45:08Z</time></trkpt><trkpt lat="-18.901819" lon="34.498945"><ele>22.0</ele><time>2026-04-07T08:45:15Z</time></trkpt><trkpt lat="-18.901853" lon="34.49886"><ele>13.0</ele><time>2026-04-07T08:45:30Z</time></trkpt><trkpt lat="-18.901833" lon="34.498915"><ele>22.0</ele><time>2026-04-07T08:45:41Z</time></trkpt><trkpt lat="-18.901753" lon="34.498924"><ele>24.0</ele><time>2026-04-07T08:45:56Z</time></trkpt><trkpt lat="-18.901726" lon="34.498948"><ele>24.0</ele><time>2026-04-07T08:45:58Z</time></trkpt><trkpt lat="-18.901717" lon="34.498978"><ele>23.0</ele><time>2026-04-07T08:46:00Z</time></trkpt><trkpt lat="-18.901735" lon="34.499042"><ele>22.0</ele><time>2026-04-07T08:46:05Z</time></trkpt><trkpt lat="-18.90178" lon="34.499074"><ele>20.0</ele><time>2026-04-07T08:46:12Z</time></trkpt><trkpt lat="-18.901811" lon="34.499077"><ele>20.0</ele><time>2026-04-07T08:46:16Z</time></trkpt><trkpt lat="-18.901841" lon="34.499056"><ele>22.0</ele><time>2026-04-07T08:46:19Z</time></trkpt><trkpt lat="-18.901848" lon="34.49902"><ele>22.0</ele><time>2026-04-07T08:46:21Z</time></trkpt><trkpt lat="-18.901832" lon="34.498982"><ele>21.0</ele><time>2026-04-07T08:46:24Z</time></trkpt><trkpt lat="-18.901777" lon="34.498931"><ele>20.0</ele><time>2026-04-07T08:46:36Z</time></trkpt><trkpt lat="-18.901854" lon="34.498876"><ele>22.0</ele><time>2026-04-07T08:46:55Z</time></trkpt><trkpt lat="-18.9018" lon="34.498995"><ele>22.0</ele><time>2026-04-07T08:47:05Z</time></trkpt><trkpt lat="-18.901783" lon="34.499174"><ele>20.0</ele><time>2026-04-07T08:47:16Z</time></trkpt><trkpt lat="-18.901734" lon="34.499341"><ele>20.0</ele><time>2026-04-07T08:48:35Z</time></trkpt><trkpt lat="-18.901676" lon="34.499424"><ele>20.0</ele><time>2026-04-07T08:49:38Z</time></trkpt><trkpt lat="-18.901648" lon="34.499529"><ele>20.0</ele><time>2026-04-07T08:49:49Z</time></trkpt><trkpt lat="-18.901566" lon="34.499651"><ele>22.7</ele><time>2026-04-07T08:50:15Z</time></trkpt><trkpt lat="-18.901559" lon="34.49963"><ele>20.0</ele><time>2026-04-07T08:50:29Z</time></trkpt><trkpt lat="-18.901538" lon="34.499693"><ele>20.0</ele><time>2026-04-07T08:50:52Z</time></trkpt><trkpt lat="-18.901579" lon="34.49978"><ele>20.0</ele><time>2026-04-07T08:51:05Z</time></trkpt><trkpt lat="-18.901601" lon="34.499852"><ele>14.0</ele><time>2026-04-07T08:51:18Z</time></trkpt><trkpt lat="-18.901583" lon="34.499697"><ele>20.0</ele><time>2026-04-07T08:51:48Z</time></trkpt><trkpt lat="-18.901588" lon="34.499639"><ele>22.0</ele><time>2026-04-07T08:51:56Z</time></trkpt><trkpt lat="-18.901607" lon="34.499575"><ele>20.0</ele><time>2026-04-07T08:52:06Z</time></trkpt><trkpt lat="-18.901634" lon="34.499549"><ele>21.0</ele><time>2026-04-07T08:52:12Z</time></trkpt><trkpt lat="-18.90167" lon="34.499538"><ele>18.0</ele><time>2026-04-07T08:52:27Z</time></trkpt><trkpt lat="-18.901636" lon="34.499471"><ele>21.0</ele><time>2026-04-07T08:52:35Z</time></trkpt><trkpt lat="-18.901636" lon="34.499432"><ele>21.0</ele><time>2026-04-07T08:52:38Z</time></trkpt><trkpt lat="-18.901652" lon="34.499387"><ele>21.0</ele><time>2026-04-07T08:52:41Z</time></trkpt><trkpt lat="-18.901709" lon="34.499336"><ele>22.0</ele><time>2026-04-07T08:52:46Z</time></trkpt><trkpt lat="-18.901738" lon="34.49928"><ele>21.0</ele><time>2026-04-07T08:52:51Z</time></trkpt><trkpt lat="-18.901746" lon="34.499175"><ele>20.0</ele><time>2026-04-07T08:52:59Z</time></trkpt><trkpt lat="-18.901766" lon="34.49908"><ele>20.0</ele><time>2026-04-07T08:53:05Z</time></trkpt><trkpt lat="-18.901748" lon="34.499003"><ele>20.0</ele><time>2026-04-07T08:53:10Z</time></trkpt><trkpt lat="-18.901702" lon="34.498957"><ele>20.0</ele><time>2026-04-07T08:53:14Z</time></trkpt><trkpt lat="-18.901608" lon="34.49891"><ele>20.0</ele><time>2026-04-07T08:53:20Z</time></trkpt><trkpt lat="-18.901543" lon="34.498899"><ele>20.0</ele><time>2026-04-07T08:53:24Z</time></trkpt><trkpt lat="-18.901455" lon="34.4989"><ele>21.0</ele><time>2026-04-07T08:53:41Z</time></trkpt><trkpt lat="-18.901468" lon="34.498925"><ele>-19999.0</ele><time>2026-04-07T08:54:05Z</time></trkpt><trkpt lat="-18.901365" lon="34.498976"><ele>12.0</ele><time>2026-04-07T08:54:46Z</time></trkpt><trkpt lat="-18.901317" lon="34.498987"><ele>22.0</ele><time>2026-04-07T08:55:19Z</time></trkpt><trkpt lat="-18.901239" lon="34.498975"><ele>19.0</ele><time>2026-04-07T08:56:30Z</time></trkpt><trkpt lat="-18.901263" lon="34.498906"><ele>19.0</ele><time>2026-04-07T08:57:09Z</time></trkpt><trkpt lat="-18.901131" lon="34.498908"><ele>20.0</ele><time>2026-04-07T08:58:39Z</time></trkpt><trkpt lat="-18.901148" lon="34.498883"><ele>21.0</ele><time>2026-04-07T08:58:45Z</time></trkpt><trkpt lat="-18.901121" lon="34.498889"><ele>21.0</ele><time>2026-04-07T08:58:57Z</time></trkpt><trkpt lat="-18.901094" lon="34.49898"><ele>-19999.0</ele><time>2026-04-07T08:59:17Z</time></trkpt><trkpt lat="-18.901112" lon="34.498841"><ele>18.0</ele><time>2026-04-07T08:59:47Z</time></trkpt><trkpt lat="-18.901144" lon="34.498891"><ele>21.0</ele><time>2026-04-07T09:00:14Z</time></trkpt><trkpt lat="-18.901134" lon="34.498942"><ele>16.0</ele><time>2026-04-07T09:00:45Z</time></trkpt><trkpt lat="-18.901186" lon="34.49892"><ele>20.0</ele><time>2026-04-07T09:01:14Z</time></trkpt><trkpt lat="-18.90111" lon="34.49892"><ele>20.0</ele><time>2026-04-07T09:01:32Z</time></trkpt><trkpt lat="-18.90099" lon="34.498886"><ele>22.0</ele><time>2026-04-07T09:02:04Z</time></trkpt><trkpt lat="-18.900908" lon="34.498928"><ele>22.0</ele><time>2026-04-07T09:02:54Z</time></trkpt><trkpt lat="-18.900863" lon="34.498932"><ele>18.0</ele><time>2026-04-07T09:03:03Z</time></trkpt><trkpt lat="-18.900792" lon="34.498922"><ele>20.0</ele><time>2026-04-07T09:03:12Z</time></trkpt><trkpt lat="-18.900731" lon="34.498887"><ele>20.0</ele><time>2026-04-07T09:03:20Z</time></trkpt><trkpt lat="-18.900653" lon="34.498808"><ele>18.0</ele><time>2026-04-07T09:03:32Z</time></trkpt><trkpt lat="-18.900548" lon="34.49877"><ele>24.0</ele><time>2026-04-07T09:03:44Z</time></trkpt><trkpt lat="-18.900485" lon="34.498782"><ele>20.0</ele><time>2026-04-07T09:03:55Z</time></trkpt><trkpt lat="-18.900403" lon="34.498847"><ele>16.0</ele><time>2026-04-07T09:04:14Z</time></trkpt><trkpt lat="-18.900415" lon="34.498813"><ele>22.0</ele><time>2026-04-07T09:04:34Z</time></trkpt><trkpt lat="-18.900357" lon="34.498815"><ele>-6653.0</ele><time>2026-04-07T09:05:18Z</time></trkpt><trkpt lat="-18.90039" lon="34.49879"><ele>-9990.0</ele><time>2026-04-07T09:05:55Z</time></trkpt><trkpt lat="-18.900453" lon="34.498804"><ele>22.0</ele><time>2026-04-07T09:06:16Z</time></trkpt><trkpt lat="-18.900432" lon="34.49884"><ele>19.0</ele><time>2026-04-07T09:06:38Z</time></trkpt><trkpt lat="-18.900394" lon="34.49887"><ele>18.0</ele><time>2026-04-07T09:06:56Z</time></trkpt><trkpt lat="-18.900385" lon="34.498853"><ele>21.0</ele><time>2026-04-07T09:07:17Z</time></trkpt><trkpt lat="-18.900347" lon="34.498831"><ele>22.0</ele><time>2026-04-07T09:07:56Z</time></trkpt><trkpt lat="-18.900199" lon="34.498851"><ele>22.0</ele><time>2026-04-07T09:08:47Z</time></trkpt><trkpt lat="-18.89998" lon="34.49884"><ele>22.0</ele><time>2026-04-07T09:09:37Z</time></trkpt><trkpt lat="-18.899903" lon="34.498845"><ele>23.0</ele><time>2026-04-07T09:10:08Z</time></trkpt><trkpt lat="-18.899858" lon="34.498901"><ele>20.0</ele><time>2026-04-07T09:10:57Z</time></trkpt><trkpt lat="-18.899752" lon="34.498967"><ele>21.0</ele><time>2026-04-07T09:11:14Z</time></trkpt><trkpt lat="-18.899671" lon="34.498989"><ele>19.0</ele><time>2026-04-07T09:12:11Z</time></trkpt><trkpt lat="-18.899693" lon="34.498912"><ele>21.0</ele><time>2026-04-07T09:12:45Z</time></trkpt><trkpt lat="-18.899636" lon="34.498903"><ele>18.0</ele><time>2026-04-07T09:13:38Z</time></trkpt><trkpt lat="-18.899654" lon="34.498854"><ele>22.0</ele><time>2026-04-07T09:14:21Z</time></trkpt><trkpt lat="-18.899613" lon="34.498822"><ele>20.0</ele><time>2026-04-07T09:14:32Z</time></trkpt><trkpt lat="-18.899639" lon="34.498758"><ele>13.0</ele><time>2026-04-07T09:14:45Z</time></trkpt><trkpt lat="-18.899591" lon="34.498752"><ele>21.0</ele><time>2026-04-07T09:14:52Z</time></trkpt><trkpt lat="-18.899411" lon="34.498814"><ele>20.0</ele><time>2026-04-07T09:15:02Z</time></trkpt><trkpt lat="-18.899274" lon="34.498899"><ele>21.0</ele><time>2026-04-07T09:15:10Z</time></trkpt><trkpt lat="-18.899203" lon="34.498985"><ele>22.0</ele><time>2026-04-07T09:15:16Z</time></trkpt><trkpt lat="-18.899161" lon="34.49907"><ele>20.0</ele><time>2026-04-07T09:15:24Z</time></trkpt><trkpt lat="-18.899141" lon="34.49914"><ele>20.0</ele><time>2026-04-07T09:15:33Z</time></trkpt><trkpt lat="-18.899138" lon="34.499213"><ele>15.0</ele><time>2026-04-07T09:15:48Z</time></trkpt><trkpt lat="-18.899157" lon="34.499263"><ele>21.0</ele><time>2026-04-07T09:16:04Z</time></trkpt><trkpt lat="-18.899152" lon="34.49932"><ele>15.0</ele><time>2026-04-07T09:16:27Z</time></trkpt><trkpt lat="-18.899182" lon="34.499439"><ele>21.0</ele><time>2026-04-07T09:16:42Z</time></trkpt><trkpt lat="-18.899184" lon="34.499482"><ele>23.3</ele><time>2026-04-07T09:16:44Z</time></trkpt><trkpt lat="-18.899162" lon="34.499753"><ele>23.6</ele><time>2026-04-07T09:16:53Z</time></trkpt><trkpt lat="-18.899119" lon="34.500003"><ele>22.6</ele><time>2026-04-07T09:17:01Z</time></trkpt><trkpt lat="-18.899081" lon="34.500121"><ele>22.6</ele><time>2026-04-07T09:17:05Z</time></trkpt><trkpt lat="-18.89899" lon="34.500337"><ele>22.6</ele><time>2026-04-07T09:17:12Z</time></trkpt><trkpt lat="-18.898822" lon="34.500871"><ele>23.2</ele><time>2026-04-07T09:17:28Z</time></trkpt><trkpt lat="-18.898801" lon="34.501044"><ele>23.0</ele><time>2026-04-07T09:17:33Z</time></trkpt><trkpt lat="-18.898808" lon="34.501349"><ele>22.9</ele><time>2026-04-07T09:17:42Z</time></trkpt><trkpt lat="-18.898773" lon="34.501794"><ele>23.8</ele><time>2026-04-07T09:17:55Z</time></trkpt><trkpt lat="-18.898786" lon="34.502002"><ele>24.0</ele><time>2026-04-07T09:18:01Z</time></trkpt><trkpt lat="-18.898806" lon="34.502143"><ele>23.4</ele><time>2026-04-07T09:18:05Z</time></trkpt><trkpt lat="-18.898833" lon="34.502256"><ele>23.4</ele><time>2026-04-07T09:18:08Z</time></trkpt><trkpt lat="-18.898917" lon="34.502476"><ele>23.6</ele><time>2026-04-07T09:18:13Z</time></trkpt><trkpt lat="-18.899039" lon="34.502687"><ele>24.2</ele><time>2026-04-07T09:18:17Z</time></trkpt><trkpt lat="-18.899311" lon="34.503054"><ele>24.2</ele><time>2026-04-07T09:18:23Z</time></trkpt><trkpt lat="-18.899544" lon="34.503314"><ele>24.5</ele><time>2026-04-07T09:18:27Z</time></trkpt><trkpt lat="-18.899888" lon="34.503637"><ele>24.4</ele><time>2026-04-07T09:18:32Z</time></trkpt><trkpt lat="-18.900335" lon="34.504022"><ele>24.5</ele><time>2026-04-07T09:18:38Z</time></trkpt><trkpt lat="-18.901647" lon="34.505092"><ele>23.8</ele><time>2026-04-07T09:18:55Z</time></trkpt><trkpt lat="-18.902535" lon="34.505718"><ele>22.8</ele><time>2026-04-07T09:19:06Z</time></trkpt><trkpt lat="-18.902848" lon="34.505964"><ele>22.8</ele><time>2026-04-07T09:19:10Z</time></trkpt><trkpt lat="-18.903066" lon="34.506167"><ele>22.9</ele><time>2026-04-07T09:19:13Z</time></trkpt><trkpt lat="-18.903735" lon="34.506911"><ele>22.2</ele><time>2026-04-07T09:19:23Z</time></trkpt><trkpt lat="-18.904916" lon="34.508263"><ele>23.5</ele><time>2026-04-07T09:19:41Z</time></trkpt><trkpt lat="-18.905528" lon="34.508937"><ele>23.5</ele><time>2026-04-07T09:19:50Z</time></trkpt><trkpt lat="-18.906098" lon="34.509515"><ele>22.5</ele><time>2026-04-07T09:19:58Z</time></trkpt><trkpt lat="-18.906396" lon="34.509793"><ele>22.4</ele><time>2026-04-07T09:20:02Z</time></trkpt><trkpt lat="-18.906773" lon="34.510126"><ele>22.2</ele><time>2026-04-07T09:20:07Z</time></trkpt><trkpt lat="-18.907135" lon="34.510485"><ele>22.3</ele><time>2026-04-07T09:20:12Z</time></trkpt><trkpt lat="-18.907554" lon="34.510929"><ele>23.1</ele><time>2026-04-07T09:20:18Z</time></trkpt><trkpt lat="-18.908023" lon="34.51146"><ele>22.8</ele><time>2026-04-07T09:20:25Z</time></trkpt><trkpt lat="-18.908741" lon="34.512191"><ele>23.0</ele><time>2026-04-07T09:20:35Z</time></trkpt><trkpt lat="-18.909947" lon="34.513448"><ele>22.1</ele><time>2026-04-07T09:20:52Z</time></trkpt><trkpt lat="-18.911097" lon="34.514605"><ele>22.6</ele><time>2026-04-07T09:21:08Z</time></trkpt><trkpt lat="-18.911374" lon="34.514908"><ele>22.7</ele><time>2026-04-07T09:21:12Z</time></trkpt><trkpt lat="-18.911752" lon="34.51525"><ele>23.1</ele><time>2026-04-07T09:21:17Z</time></trkpt><trkpt lat="-18.911967" lon="34.51546"><ele>22.9</ele><time>2026-04-07T09:21:20Z</time></trkpt><trkpt lat="-18.912773" lon="34.516284"><ele>23.5</ele><time>2026-04-07T09:21:33Z</time></trkpt><trkpt lat="-18.913009" lon="34.516509"><ele>23.4</ele><time>2026-04-07T09:21:38Z</time></trkpt><trkpt lat="-18.913086" lon="34.516596"><ele>23.8</ele><time>2026-04-07T09:21:40Z</time></trkpt><trkpt lat="-18.9132" lon="34.516761"><ele>22.0</ele><time>2026-04-07T09:21:44Z</time></trkpt><trkpt lat="-18.913219" lon="34.51681"><ele>22.0</ele><time>2026-04-07T09:21:46Z</time></trkpt><trkpt lat="-18.913224" lon="34.516915"><ele>23.7</ele><time>2026-04-07T09:21:52Z</time></trkpt><trkpt lat="-18.913241" lon="34.516961"><ele>24.0</ele><time>2026-04-07T09:21:53Z</time></trkpt><trkpt lat="-18.913339" lon="34.517013"><ele>22.0</ele><time>2026-04-07T09:21:59Z</time></trkpt><trkpt lat="-18.913382" lon="34.517056"><ele>20.0</ele><time>2026-04-07T09:22:10Z</time></trkpt><trkpt lat="-18.913343" lon="34.517041"><ele>22.8</ele><time>2026-04-07T09:22:23Z</time></trkpt></trkseg></trk></gpx>