<?xml version="1.0" ?><gpx xmlns="http://www.topografix.com/GPX/1/1" creator="GaiaGPS" version="1.1" xmlns:xsi="http://www.w3.org/2001/XMLSchema-instance" xsi:schemaLocation="http://www.topografix.com/GPX/1/1 http://www.topografix.com/GPX/1/1/gpx.xsd"><wpt lat="-18.86615" lon="34.43131"><time>2026-04-07T11:19:54Z</time><name>Isolated tree in water with baboon Wpt 07/04/2026, 13:19:54</name><sym>red-pin-down.png</sym></wpt><trk><name>Counting part 2; and way back</name><desc></desc><extensions><line xmlns="http://www.topografix.com/GPX/gpx_style/0/2"><color>00DAE1</color></line></extensions><trkseg><trkpt lat="-18.913513" lon="34.51723"><ele>24.7</ele><time>2026-04-07T10:08:44Z</time></trkpt><trkpt lat="-18.913506" lon="34.517242"><ele>24.4</ele><time>2026-04-07T10:08:47Z</time></trkpt><trkpt lat="-18.913518" lon="34.517254"><ele>24.4</ele><time>2026-04-07T10:08:53Z</time></trkpt><trkpt lat="-18.913532" lon="34.517246"><ele>21.0</ele><time>2026-04-07T10:08:56Z</time></trkpt><trkpt lat="-18.913544" lon="34.517217"><ele>20.0</ele><time>2026-04-07T10:09:02Z</time></trkpt><trkpt lat="-18.913539" lon="34.5171"><ele>12.0</ele><time>2026-04-07T10:09:17Z</time></trkpt><trkpt lat="-18.913492" lon="34.517035"><ele>20.0</ele><time>2026-04-07T10:09:25Z</time></trkpt><trkpt lat="-18.913364" lon="34.517053"><ele>22.0</ele><time>2026-04-07T10:09:37Z</time></trkpt><trkpt lat="-18.913319" lon="34.517043"><ele>21.0</ele><time>2026-04-07T10:09:40Z</time></trkpt><trkpt lat="-18.913285" lon="34.516998"><ele>22.2</ele><time>2026-04-07T10:09:42Z</time></trkpt><trkpt lat="-18.913239" lon="34.516878"><ele>22.0</ele><time>2026-04-07T10:09:46Z</time></trkpt><trkpt lat="-18.913249" lon="34.516835"><ele>22.6</ele><time>2026-04-07T10:09:48Z</time></trkpt><trkpt lat="-18.913152" lon="34.516583"><ele>22.6</ele><time>2026-04-07T10:09:57Z</time></trkpt><trkpt lat="-18.913121" lon="34.516529"><ele>22.6</ele><time>2026-04-07T10:09:59Z</time></trkpt><trkpt lat="-18.913008" lon="34.516388"><ele>22.0</ele><time>2026-04-07T10:10:09Z</time></trkpt><trkpt lat="-18.91286" lon="34.516266"><ele>20.0</ele><time>2026-04-07T10:10:31Z</time></trkpt><trkpt lat="-18.912827" lon="34.516259"><ele>18.0</ele><time>2026-04-07T10:10:36Z</time></trkpt><trkpt lat="-18.912692" lon="34.516182"><ele>20.0</ele><time>2026-04-07T10:10:59Z</time></trkpt><trkpt lat="-18.912629" lon="34.516159"><ele>20.0</ele><time>2026-04-07T10:11:11Z</time></trkpt><trkpt lat="-18.912356" lon="34.515975"><ele>20.0</ele><time>2026-04-07T10:11:31Z</time></trkpt><trkpt lat="-18.912188" lon="34.515885"><ele>20.0</ele><time>2026-04-07T10:11:41Z</time></trkpt><trkpt lat="-18.911665" lon="34.515517"><ele>20.8</ele><time>2026-04-07T10:11:57Z</time></trkpt><trkpt lat="-18.911462" lon="34.515357"><ele>21.3</ele><time>2026-04-07T10:12:01Z</time></trkpt><trkpt lat="-18.91107" lon="34.515081"><ele>21.5</ele><time>2026-04-07T10:12:07Z</time></trkpt><trkpt lat="-18.910072" lon="34.514296"><ele>20.9</ele><time>2026-04-07T10:12:20Z</time></trkpt><trkpt lat="-18.909606" lon="34.513896"><ele>20.9</ele><time>2026-04-07T10:12:26Z</time></trkpt><trkpt lat="-18.909152" lon="34.513466"><ele>21.0</ele><time>2026-04-07T10:12:32Z</time></trkpt><trkpt lat="-18.90861" lon="34.512987"><ele>21.3</ele><time>2026-04-07T10:12:39Z</time></trkpt><trkpt lat="-18.907972" lon="34.51232"><ele>22.6</ele><time>2026-04-07T10:12:48Z</time></trkpt><trkpt lat="-18.907603" lon="34.51195"><ele>22.8</ele><time>2026-04-07T10:12:53Z</time></trkpt><trkpt lat="-18.906553" lon="34.510802"><ele>23.0</ele><time>2026-04-07T10:13:08Z</time></trkpt><trkpt lat="-18.905686" lon="34.50992"><ele>22.5</ele><time>2026-04-07T10:13:20Z</time></trkpt><trkpt lat="-18.905394" lon="34.509636"><ele>22.4</ele><time>2026-04-07T10:13:24Z</time></trkpt><trkpt lat="-18.904558" lon="34.508883"><ele>21.0</ele><time>2026-04-07T10:13:35Z</time></trkpt><trkpt lat="-18.904406" lon="34.508733"><ele>21.2</ele><time>2026-04-07T10:13:37Z</time></trkpt><trkpt lat="-18.904322" lon="34.508677"><ele>20.9</ele><time>2026-04-07T10:13:38Z</time></trkpt><trkpt lat="-18.904247" lon="34.508608"><ele>21.0</ele><time>2026-04-07T10:13:39Z</time></trkpt><trkpt lat="-18.903954" lon="34.508314"><ele>21.5</ele><time>2026-04-07T10:13:43Z</time></trkpt><trkpt lat="-18.903725" lon="34.508102"><ele>21.3</ele><time>2026-04-07T10:13:46Z</time></trkpt><trkpt lat="-18.901632" lon="34.505767"><ele>21.4</ele><time>2026-04-07T10:14:16Z</time></trkpt><trkpt lat="-18.901564" lon="34.505749"><ele>21.1</ele><time>2026-04-07T10:14:17Z</time></trkpt><trkpt lat="-18.90138" lon="34.505593"><ele>20.7</ele><time>2026-04-07T10:14:19Z</time></trkpt><trkpt lat="-18.900888" lon="34.505216"><ele>21.4</ele><time>2026-04-07T10:14:25Z</time></trkpt><trkpt lat="-18.900664" lon="34.505006"><ele>21.3</ele><time>2026-04-07T10:14:28Z</time></trkpt><trkpt lat="-18.90046" lon="34.504777"><ele>21.5</ele><time>2026-04-07T10:14:31Z</time></trkpt><trkpt lat="-18.89977" lon="34.503899"><ele>21.5</ele><time>2026-04-07T10:14:42Z</time></trkpt><trkpt lat="-18.899446" lon="34.50343"><ele>21.1</ele><time>2026-04-07T10:14:48Z</time></trkpt><trkpt lat="-18.899253" lon="34.503115"><ele>20.6</ele><time>2026-04-07T10:14:52Z</time></trkpt><trkpt lat="-18.899181" lon="34.502972"><ele>20.9</ele><time>2026-04-07T10:14:54Z</time></trkpt><trkpt lat="-18.899046" lon="34.502647"><ele>20.8</ele><time>2026-04-07T10:14:59Z</time></trkpt><trkpt lat="-18.898941" lon="34.502365"><ele>22.9</ele><time>2026-04-07T10:15:05Z</time></trkpt><trkpt lat="-18.898882" lon="34.502098"><ele>22.8</ele><time>2026-04-07T10:15:14Z</time></trkpt><trkpt lat="-18.89888" lon="34.501974"><ele>22.9</ele><time>2026-04-07T10:15:18Z</time></trkpt><trkpt lat="-18.898987" lon="34.501533"><ele>22.0</ele><time>2026-04-07T10:15:32Z</time></trkpt><trkpt lat="-18.898988" lon="34.501487"><ele>23.2</ele><time>2026-04-07T10:15:34Z</time></trkpt><trkpt lat="-18.89903" lon="34.501402"><ele>23.1</ele><time>2026-04-07T10:15:37Z</time></trkpt><trkpt lat="-18.89906" lon="34.501282"><ele>23.8</ele><time>2026-04-07T10:15:41Z</time></trkpt><trkpt lat="-18.899099" lon="34.501225"><ele>22.2</ele><time>2026-04-07T10:15:43Z</time></trkpt><trkpt lat="-18.899126" lon="34.501108"><ele>22.4</ele><time>2026-04-07T10:15:47Z</time></trkpt><trkpt lat="-18.899272" lon="34.500663"><ele>21.0</ele><time>2026-04-07T10:16:06Z</time></trkpt><trkpt lat="-18.899359" lon="34.500509"><ele>22.0</ele><time>2026-04-07T10:16:14Z</time></trkpt><trkpt lat="-18.899412" lon="34.500365"><ele>24.0</ele><time>2026-04-07T10:16:22Z</time></trkpt><trkpt lat="-18.899583" lon="34.500063"><ele>22.0</ele><time>2026-04-07T10:16:40Z</time></trkpt><trkpt lat="-18.899618" lon="34.499966"><ele>23.0</ele><time>2026-04-07T10:16:49Z</time></trkpt><trkpt lat="-18.899656" lon="34.499806"><ele>19.0</ele><time>2026-04-07T10:17:21Z</time></trkpt><trkpt lat="-18.899489" lon="34.499939"><ele>16.0</ele><time>2026-04-07T10:18:01Z</time></trkpt><trkpt lat="-18.899539" lon="34.499912"><ele>26.0</ele><time>2026-04-07T10:18:13Z</time></trkpt><trkpt lat="-18.899615" lon="34.49993"><ele>24.0</ele><time>2026-04-07T10:18:19Z</time></trkpt><trkpt lat="-18.899726" lon="34.500034"><ele>24.0</ele><time>2026-04-07T10:18:40Z</time></trkpt><trkpt lat="-18.899749" lon="34.500067"><ele>25.1</ele><time>2026-04-07T10:18:52Z</time></trkpt><trkpt lat="-18.899754" lon="34.500134"><ele>24.0</ele><time>2026-04-07T10:19:05Z</time></trkpt><trkpt lat="-18.899791" lon="34.500191"><ele>24.0</ele><time>2026-04-07T10:19:09Z</time></trkpt><trkpt lat="-18.899846" lon="34.50022"><ele>24.0</ele><time>2026-04-07T10:19:15Z</time></trkpt><trkpt lat="-18.899932" lon="34.500226"><ele>24.0</ele><time>2026-04-07T10:19:30Z</time></trkpt><trkpt lat="-18.899977" lon="34.500217"><ele>13.0</ele><time>2026-04-07T10:19:51Z</time></trkpt><trkpt lat="-18.899991" lon="34.500168"><ele>34.0</ele><time>2026-04-07T10:20:17Z</time></trkpt><trkpt lat="-18.899971" lon="34.50014"><ele>33.0</ele><time>2026-04-07T10:20:33Z</time></trkpt><trkpt lat="-18.899896" lon="34.500095"><ele>32.0</ele><time>2026-04-07T10:21:16Z</time></trkpt><trkpt lat="-18.899941" lon="34.500136"><ele>30.0</ele><time>2026-04-07T10:21:37Z</time></trkpt><trkpt lat="-18.90001" lon="34.500163"><ele>30.0</ele><time>2026-04-07T10:21:44Z</time></trkpt><trkpt lat="-18.900072" lon="34.50016"><ele>28.0</ele><time>2026-04-07T10:21:54Z</time></trkpt><trkpt lat="-18.900064" lon="34.500196"><ele>30.0</ele><time>2026-04-07T10:22:13Z</time></trkpt><trkpt lat="-18.900001" lon="34.500208"><ele>26.0</ele><time>2026-04-07T10:22:38Z</time></trkpt><trkpt lat="-18.899969" lon="34.500208"><ele>24.0</ele><time>2026-04-07T10:22:48Z</time></trkpt><trkpt lat="-18.899778" lon="34.500159"><ele>30.0</ele><time>2026-04-07T10:23:39Z</time></trkpt><trkpt lat="-18.899745" lon="34.500158"><ele>30.0</ele><time>2026-04-07T10:23:45Z</time></trkpt><trkpt lat="-18.89971" lon="34.500174"><ele>30.0</ele><time>2026-04-07T10:23:50Z</time></trkpt><trkpt lat="-18.899668" lon="34.500224"><ele>24.0</ele><time>2026-04-07T10:24:00Z</time></trkpt><trkpt lat="-18.89962" lon="34.500321"><ele>28.0</ele><time>2026-04-07T10:24:37Z</time></trkpt><trkpt lat="-18.899632" lon="34.500359"><ele>28.0</ele><time>2026-04-07T10:24:39Z</time></trkpt><trkpt lat="-18.899664" lon="34.500383"><ele>28.0</ele><time>2026-04-07T10:24:41Z</time></trkpt><trkpt lat="-18.899705" lon="34.500383"><ele>30.0</ele><time>2026-04-07T10:24:43Z</time></trkpt><trkpt lat="-18.899742" lon="34.500361"><ele>30.0</ele><time>2026-04-07T10:24:45Z</time></trkpt><trkpt lat="-18.899789" lon="34.500269"><ele>30.0</ele><time>2026-04-07T10:24:49Z</time></trkpt><trkpt lat="-18.899807" lon="34.500161"><ele>28.0</ele><time>2026-04-07T10:24:55Z</time></trkpt><trkpt lat="-18.899848" lon="34.500098"><ele>20.0</ele><time>2026-04-07T10:25:01Z</time></trkpt><trkpt lat="-18.899853" lon="34.500051"><ele>20.0</ele><time>2026-04-07T10:25:11Z</time></trkpt><trkpt lat="-18.899831" lon="34.499916"><ele>18.0</ele><time>2026-04-07T10:25:59Z</time></trkpt><trkpt lat="-18.899774" lon="34.499863"><ele>18.0</ele><time>2026-04-07T10:26:29Z</time></trkpt><trkpt lat="-18.899696" lon="34.499831"><ele>18.0</ele><time>2026-04-07T10:27:03Z</time></trkpt><trkpt lat="-18.899587" lon="34.499837"><ele>23.0</ele><time>2026-04-07T10:27:49Z</time></trkpt><trkpt lat="-18.899337" lon="34.499811"><ele>19.0</ele><time>2026-04-07T10:29:15Z</time></trkpt><trkpt lat="-18.899292" lon="34.49985"><ele>24.0</ele><time>2026-04-07T10:29:22Z</time></trkpt><trkpt lat="-18.89929" lon="34.499909"><ele>24.9</ele><time>2026-04-07T10:29:25Z</time></trkpt><trkpt lat="-18.899327" lon="34.499951"><ele>24.0</ele><time>2026-04-07T10:29:27Z</time></trkpt><trkpt lat="-18.899371" lon="34.49998"><ele>26.0</ele><time>2026-04-07T10:29:31Z</time></trkpt><trkpt lat="-18.899471" lon="34.499992"><ele>24.0</ele><time>2026-04-07T10:29:41Z</time></trkpt><trkpt lat="-18.899571" lon="34.499961"><ele>24.0</ele><time>2026-04-07T10:29:51Z</time></trkpt><trkpt lat="-18.899632" lon="34.49996"><ele>24.0</ele><time>2026-04-07T10:29:55Z</time></trkpt><trkpt lat="-18.899696" lon="34.499986"><ele>24.0</ele><time>2026-04-07T10:29:59Z</time></trkpt><trkpt lat="-18.899721" lon="34.500007"><ele>24.0</ele><time>2026-04-07T10:30:01Z</time></trkpt><trkpt lat="-18.899753" lon="34.500067"><ele>24.0</ele><time>2026-04-07T10:30:05Z</time></trkpt><trkpt lat="-18.899748" lon="34.500172"><ele>24.0</ele><time>2026-04-07T10:30:11Z</time></trkpt><trkpt lat="-18.89968" lon="34.50027"><ele>24.0</ele><time>2026-04-07T10:30:17Z</time></trkpt><trkpt lat="-18.899544" lon="34.500387"><ele>24.0</ele><time>2026-04-07T10:30:25Z</time></trkpt><trkpt lat="-18.899452" lon="34.500496"><ele>24.0</ele><time>2026-04-07T10:30:31Z</time></trkpt><trkpt lat="-18.899404" lon="34.500593"><ele>24.0</ele><time>2026-04-07T10:30:38Z</time></trkpt><trkpt lat="-18.899355" lon="34.500753"><ele>24.0</ele><time>2026-04-07T10:31:07Z</time></trkpt><trkpt lat="-18.899423" lon="34.500653"><ele>21.0</ele><time>2026-04-07T10:31:36Z</time></trkpt><trkpt lat="-18.899388" lon="34.500673"><ele>21.0</ele><time>2026-04-07T10:31:44Z</time></trkpt><trkpt lat="-18.89939" lon="34.500744"><ele>24.0</ele><time>2026-04-07T10:31:50Z</time></trkpt><trkpt lat="-18.899438" lon="34.500817"><ele>24.0</ele><time>2026-04-07T10:31:57Z</time></trkpt><trkpt lat="-18.899513" lon="34.500886"><ele>24.0</ele><time>2026-04-07T10:32:17Z</time></trkpt><trkpt lat="-18.899567" lon="34.500897"><ele>21.0</ele><time>2026-04-07T10:32:50Z</time></trkpt><trkpt lat="-18.899551" lon="34.500868"><ele>22.0</ele><time>2026-04-07T10:33:15Z</time></trkpt><trkpt lat="-18.899483" lon="34.50089"><ele>24.0</ele><time>2026-04-07T10:33:26Z</time></trkpt><trkpt lat="-18.899436" lon="34.500893"><ele>24.0</ele><time>2026-04-07T10:33:39Z</time></trkpt><trkpt lat="-18.899452" lon="34.500941"><ele>-19999.0</ele><time>2026-04-07T10:33:59Z</time></trkpt><trkpt lat="-18.899535" lon="34.500968"><ele>26.0</ele><time>2026-04-07T10:34:31Z</time></trkpt><trkpt lat="-18.899469" lon="34.500947"><ele>24.0</ele><time>2026-04-07T10:34:56Z</time></trkpt><trkpt lat="-18.899425" lon="34.500947"><ele>22.0</ele><time>2026-04-07T10:35:17Z</time></trkpt><trkpt lat="-18.899448" lon="34.500956"><ele>25.0</ele><time>2026-04-07T10:35:27Z</time></trkpt><trkpt lat="-18.899488" lon="34.500924"><ele>26.0</ele><time>2026-04-07T10:35:30Z</time></trkpt><trkpt lat="-18.89949" lon="34.500888"><ele>26.0</ele><time>2026-04-07T10:35:32Z</time></trkpt><trkpt lat="-18.899477" lon="34.500853"><ele>24.0</ele><time>2026-04-07T10:35:34Z</time></trkpt><trkpt lat="-18.899451" lon="34.500837"><ele>24.0</ele><time>2026-04-07T10:35:36Z</time></trkpt><trkpt lat="-18.899412" lon="34.500829"><ele>24.0</ele><time>2026-04-07T10:35:38Z</time></trkpt><trkpt lat="-18.899333" lon="34.500857"><ele>23.0</ele><time>2026-04-07T10:35:42Z</time></trkpt><trkpt lat="-18.899264" lon="34.500918"><ele>22.0</ele><time>2026-04-07T10:35:46Z</time></trkpt><trkpt lat="-18.899065" lon="34.501193"><ele>24.0</ele><time>2026-04-07T10:36:07Z</time></trkpt><trkpt lat="-18.899053" lon="34.501266"><ele>24.0</ele><time>2026-04-07T10:36:14Z</time></trkpt><trkpt lat="-18.899079" lon="34.501364"><ele>24.0</ele><time>2026-04-07T10:36:31Z</time></trkpt><trkpt lat="-18.899072" lon="34.501409"><ele>20.0</ele><time>2026-04-07T10:37:03Z</time></trkpt><trkpt lat="-18.899049" lon="34.501446"><ele>21.0</ele><time>2026-04-07T10:37:27Z</time></trkpt><trkpt lat="-18.899071" lon="34.501468"><ele>25.0</ele><time>2026-04-07T10:37:33Z</time></trkpt><trkpt lat="-18.899146" lon="34.501497"><ele>24.0</ele><time>2026-04-07T10:37:49Z</time></trkpt><trkpt lat="-18.8991" lon="34.501484"><ele>24.0</ele><time>2026-04-07T10:38:04Z</time></trkpt><trkpt lat="-18.899075" lon="34.501491"><ele>22.0</ele><time>2026-04-07T10:38:11Z</time></trkpt><trkpt lat="-18.899065" lon="34.501521"><ele>25.0</ele><time>2026-04-07T10:38:22Z</time></trkpt><trkpt lat="-18.89912" lon="34.50161"><ele>25.0</ele><time>2026-04-07T10:38:29Z</time></trkpt><trkpt lat="-18.899148" lon="34.501787"><ele>25.0</ele><time>2026-04-07T10:38:45Z</time></trkpt><trkpt lat="-18.899188" lon="34.501826"><ele>24.0</ele><time>2026-04-07T10:38:54Z</time></trkpt><trkpt lat="-18.899264" lon="34.501815"><ele>22.0</ele><time>2026-04-07T10:39:07Z</time></trkpt><trkpt lat="-18.89919" lon="34.501782"><ele>24.0</ele><time>2026-04-07T10:39:28Z</time></trkpt><trkpt lat="-18.899263" lon="34.501849"><ele>26.0</ele><time>2026-04-07T10:39:44Z</time></trkpt><trkpt lat="-18.899311" lon="34.501874"><ele>24.0</ele><time>2026-04-07T10:39:50Z</time></trkpt><trkpt lat="-18.899347" lon="34.50188"><ele>24.0</ele><time>2026-04-07T10:39:53Z</time></trkpt><trkpt lat="-18.899405" lon="34.50186"><ele>24.0</ele><time>2026-04-07T10:39:59Z</time></trkpt><trkpt lat="-18.899456" lon="34.501824"><ele>24.0</ele><time>2026-04-07T10:40:05Z</time></trkpt><trkpt lat="-18.899522" lon="34.501796"><ele>24.0</ele><time>2026-04-07T10:40:12Z</time></trkpt><trkpt lat="-18.899666" lon="34.501784"><ele>24.0</ele><time>2026-04-07T10:40:34Z</time></trkpt><trkpt lat="-18.899541" lon="34.5018"><ele>22.0</ele><time>2026-04-07T10:41:05Z</time></trkpt><trkpt lat="-18.899516" lon="34.501818"><ele>24.0</ele><time>2026-04-07T10:41:13Z</time></trkpt><trkpt lat="-18.899491" lon="34.501866"><ele>26.0</ele><time>2026-04-07T10:41:24Z</time></trkpt><trkpt lat="-18.899473" lon="34.501974"><ele>24.0</ele><time>2026-04-07T10:41:38Z</time></trkpt><trkpt lat="-18.899455" lon="34.502015"><ele>18.0</ele><time>2026-04-07T10:41:44Z</time></trkpt><trkpt lat="-18.899503" lon="34.501974"><ele>24.0</ele><time>2026-04-07T10:41:52Z</time></trkpt><trkpt lat="-18.899573" lon="34.501934"><ele>24.0</ele><time>2026-04-07T10:41:56Z</time></trkpt><trkpt lat="-18.899837" lon="34.501869"><ele>24.0</ele><time>2026-04-07T10:42:08Z</time></trkpt><trkpt lat="-18.899966" lon="34.501817"><ele>24.0</ele><time>2026-04-07T10:42:14Z</time></trkpt><trkpt lat="-18.900194" lon="34.501658"><ele>24.0</ele><time>2026-04-07T10:42:26Z</time></trkpt><trkpt lat="-18.900341" lon="34.501531"><ele>24.0</ele><time>2026-04-07T10:42:34Z</time></trkpt><trkpt lat="-18.900394" lon="34.50146"><ele>26.0</ele><time>2026-04-07T10:42:38Z</time></trkpt><trkpt lat="-18.900553" lon="34.501195"><ele>24.0</ele><time>2026-04-07T10:43:04Z</time></trkpt><trkpt lat="-18.900611" lon="34.501119"><ele>24.0</ele><time>2026-04-07T10:43:11Z</time></trkpt><trkpt lat="-18.900665" lon="34.501075"><ele>25.0</ele><time>2026-04-07T10:43:15Z</time></trkpt><trkpt lat="-18.90073" lon="34.501059"><ele>24.0</ele><time>2026-04-07T10:43:20Z</time></trkpt><trkpt lat="-18.900763" lon="34.501062"><ele>24.0</ele><time>2026-04-07T10:43:23Z</time></trkpt><trkpt lat="-18.900792" lon="34.501075"><ele>24.0</ele><time>2026-04-07T10:43:26Z</time></trkpt><trkpt lat="-18.900814" lon="34.501099"><ele>24.0</ele><time>2026-04-07T10:43:30Z</time></trkpt><trkpt lat="-18.900822" lon="34.501131"><ele>24.0</ele><time>2026-04-07T10:43:34Z</time></trkpt><trkpt lat="-18.900799" lon="34.50129"><ele>25.0</ele><time>2026-04-07T10:43:54Z</time></trkpt><trkpt lat="-18.900817" lon="34.501382"><ele>24.0</ele><time>2026-04-07T10:44:04Z</time></trkpt><trkpt lat="-18.900828" lon="34.501529"><ele>24.0</ele><time>2026-04-07T10:44:19Z</time></trkpt><trkpt lat="-18.900873" lon="34.501632"><ele>26.0</ele><time>2026-04-07T10:44:44Z</time></trkpt><trkpt lat="-18.900802" lon="34.501601"><ele>21.0</ele><time>2026-04-07T10:44:52Z</time></trkpt><trkpt lat="-18.900836" lon="34.501606"><ele>24.0</ele><time>2026-04-07T10:44:57Z</time></trkpt><trkpt lat="-18.900881" lon="34.501582"><ele>26.0</ele><time>2026-04-07T10:44:59Z</time></trkpt><trkpt lat="-18.900893" lon="34.501539"><ele>26.0</ele><time>2026-04-07T10:45:02Z</time></trkpt><trkpt lat="-18.900846" lon="34.501409"><ele>24.0</ele><time>2026-04-07T10:45:09Z</time></trkpt><trkpt lat="-18.900804" lon="34.501091"><ele>24.0</ele><time>2026-04-07T10:45:47Z</time></trkpt><trkpt lat="-18.90081" lon="34.501022"><ele>24.0</ele><time>2026-04-07T10:45:55Z</time></trkpt><trkpt lat="-18.900873" lon="34.500837"><ele>24.0</ele><time>2026-04-07T10:46:16Z</time></trkpt><trkpt lat="-18.900879" lon="34.500751"><ele>26.0</ele><time>2026-04-07T10:46:24Z</time></trkpt><trkpt lat="-18.900826" lon="34.500431"><ele>24.0</ele><time>2026-04-07T10:46:55Z</time></trkpt><trkpt lat="-18.900833" lon="34.500361"><ele>24.0</ele><time>2026-04-07T10:47:02Z</time></trkpt><trkpt lat="-18.900875" lon="34.500245"><ele>26.0</ele><time>2026-04-07T10:47:14Z</time></trkpt><trkpt lat="-18.900923" lon="34.500051"><ele>24.0</ele><time>2026-04-07T10:47:34Z</time></trkpt><trkpt lat="-18.900965" lon="34.499938"><ele>22.0</ele><time>2026-04-07T10:48:01Z</time></trkpt><trkpt lat="-18.900974" lon="34.499983"><ele>25.0</ele><time>2026-04-07T10:48:22Z</time></trkpt><trkpt lat="-18.90092" lon="34.499999"><ele>23.0</ele><time>2026-04-07T10:48:50Z</time></trkpt><trkpt lat="-18.900961" lon="34.500038"><ele>20.0</ele><time>2026-04-07T10:49:06Z</time></trkpt><trkpt lat="-18.900935" lon="34.499988"><ele>14.0</ele><time>2026-04-07T10:49:24Z</time></trkpt><trkpt lat="-18.900906" lon="34.500106"><ele>28.0</ele><time>2026-04-07T10:49:44Z</time></trkpt><trkpt lat="-18.90092" lon="34.500033"><ele>28.0</ele><time>2026-04-07T10:50:03Z</time></trkpt><trkpt lat="-18.900978" lon="34.49987"><ele>24.0</ele><time>2026-04-07T10:50:19Z</time></trkpt><trkpt lat="-18.900972" lon="34.499829"><ele>24.0</ele><time>2026-04-07T10:50:23Z</time></trkpt><trkpt lat="-18.900826" lon="34.499598"><ele>23.0</ele><time>2026-04-07T10:51:20Z</time></trkpt><trkpt lat="-18.900941" lon="34.499788"><ele>24.0</ele><time>2026-04-07T10:51:58Z</time></trkpt><trkpt lat="-18.900956" lon="34.499851"><ele>25.0</ele><time>2026-04-07T10:52:07Z</time></trkpt><trkpt lat="-18.90094" lon="34.49998"><ele>24.0</ele><time>2026-04-07T10:52:24Z</time></trkpt><trkpt lat="-18.900873" lon="34.500097"><ele>24.0</ele><time>2026-04-07T10:52:43Z</time></trkpt><trkpt lat="-18.900836" lon="34.500132"><ele>14.0</ele><time>2026-04-07T10:52:56Z</time></trkpt><trkpt lat="-18.900798" lon="34.500073"><ele>26.0</ele><time>2026-04-07T10:53:07Z</time></trkpt><trkpt lat="-18.900745" lon="34.500061"><ele>24.0</ele><time>2026-04-07T10:53:14Z</time></trkpt><trkpt lat="-18.900707" lon="34.500085"><ele>24.0</ele><time>2026-04-07T10:53:20Z</time></trkpt><trkpt lat="-18.900689" lon="34.500166"><ele>21.0</ele><time>2026-04-07T10:53:32Z</time></trkpt><trkpt lat="-18.900705" lon="34.5002"><ele>25.0</ele><time>2026-04-07T10:53:38Z</time></trkpt><trkpt lat="-18.900785" lon="34.500248"><ele>24.0</ele><time>2026-04-07T10:53:50Z</time></trkpt><trkpt lat="-18.900824" lon="34.500302"><ele>26.0</ele><time>2026-04-07T10:53:57Z</time></trkpt><trkpt lat="-18.900839" lon="34.500378"><ele>24.0</ele><time>2026-04-07T10:54:06Z</time></trkpt><trkpt lat="-18.900812" lon="34.500514"><ele>24.0</ele><time>2026-04-07T10:54:21Z</time></trkpt><trkpt lat="-18.900845" lon="34.500652"><ele>24.0</ele><time>2026-04-07T10:54:37Z</time></trkpt><trkpt lat="-18.900852" lon="34.500744"><ele>26.0</ele><time>2026-04-07T10:54:47Z</time></trkpt><trkpt lat="-18.900826" lon="34.500874"><ele>24.0</ele><time>2026-04-07T10:54:59Z</time></trkpt><trkpt lat="-18.900788" lon="34.500946"><ele>24.0</ele><time>2026-04-07T10:55:07Z</time></trkpt><trkpt lat="-18.900734" lon="34.501004"><ele>24.0</ele><time>2026-04-07T10:55:15Z</time></trkpt><trkpt lat="-18.900643" lon="34.501046"><ele>27.0</ele><time>2026-04-07T10:55:26Z</time></trkpt><trkpt lat="-18.900613" lon="34.50107"><ele>28.0</ele><time>2026-04-07T10:55:30Z</time></trkpt><trkpt lat="-18.900538" lon="34.501211"><ele>27.0</ele><time>2026-04-07T10:55:48Z</time></trkpt><trkpt lat="-18.900505" lon="34.501254"><ele>-19999.0</ele><time>2026-04-07T10:56:05Z</time></trkpt><trkpt lat="-18.900473" lon="34.501231"><ele>26.0</ele><time>2026-04-07T10:56:27Z</time></trkpt><trkpt lat="-18.900568" lon="34.501166"><ele>27.0</ele><time>2026-04-07T10:56:45Z</time></trkpt><trkpt lat="-18.90053" lon="34.50126"><ele>28.0</ele><time>2026-04-07T10:56:53Z</time></trkpt><trkpt lat="-18.900537" lon="34.501404"><ele>26.0</ele><time>2026-04-07T10:56:59Z</time></trkpt><trkpt lat="-18.900502" lon="34.501521"><ele>28.0</ele><time>2026-04-07T10:57:04Z</time></trkpt><trkpt lat="-18.900417" lon="34.501658"><ele>26.0</ele><time>2026-04-07T10:57:10Z</time></trkpt><trkpt lat="-18.900225" lon="34.501905"><ele>26.4</ele><time>2026-04-07T10:57:22Z</time></trkpt><trkpt lat="-18.900085" lon="34.502196"><ele>26.7</ele><time>2026-04-07T10:57:32Z</time></trkpt><trkpt lat="-18.900031" lon="34.502353"><ele>26.5</ele><time>2026-04-07T10:57:37Z</time></trkpt><trkpt lat="-18.9" lon="34.50249"><ele>26.5</ele><time>2026-04-07T10:57:41Z</time></trkpt><trkpt lat="-18.899986" lon="34.502602"><ele>26.7</ele><time>2026-04-07T10:57:44Z</time></trkpt><trkpt lat="-18.899992" lon="34.502772"><ele>26.0</ele><time>2026-04-07T10:57:49Z</time></trkpt><trkpt lat="-18.899972" lon="34.502948"><ele>27.1</ele><time>2026-04-07T10:57:55Z</time></trkpt><trkpt lat="-18.899914" lon="34.503054"><ele>27.4</ele><time>2026-04-07T10:57:59Z</time></trkpt><trkpt lat="-18.899839" lon="34.50313"><ele>26.0</ele><time>2026-04-07T10:58:02Z</time></trkpt><trkpt lat="-18.899734" lon="34.503176"><ele>26.0</ele><time>2026-04-07T10:58:06Z</time></trkpt><trkpt lat="-18.899629" lon="34.503191"><ele>27.8</ele><time>2026-04-07T10:58:10Z</time></trkpt><trkpt lat="-18.899475" lon="34.503155"><ele>27.4</ele><time>2026-04-07T10:58:15Z</time></trkpt><trkpt lat="-18.899239" lon="34.503031"><ele>27.4</ele><time>2026-04-07T10:58:21Z</time></trkpt><trkpt lat="-18.899107" lon="34.502942"><ele>27.2</ele><time>2026-04-07T10:58:24Z</time></trkpt><trkpt lat="-18.898972" lon="34.502827"><ele>27.3</ele><time>2026-04-07T10:58:27Z</time></trkpt><trkpt lat="-18.898775" lon="34.502605"><ele>27.4</ele><time>2026-04-07T10:58:32Z</time></trkpt><trkpt lat="-18.898579" lon="34.502282"><ele>27.3</ele><time>2026-04-07T10:58:39Z</time></trkpt><trkpt lat="-18.8983" lon="34.501772"><ele>27.5</ele><time>2026-04-07T10:58:50Z</time></trkpt><trkpt lat="-18.898122" lon="34.501397"><ele>27.5</ele><time>2026-04-07T10:58:56Z</time></trkpt><trkpt lat="-18.897924" lon="34.501024"><ele>27.5</ele><time>2026-04-07T10:59:02Z</time></trkpt><trkpt lat="-18.897574" lon="34.500419"><ele>28.0</ele><time>2026-04-07T10:59:11Z</time></trkpt><trkpt lat="-18.896651" lon="34.498964"><ele>27.3</ele><time>2026-04-07T10:59:29Z</time></trkpt><trkpt lat="-18.896408" lon="34.498541"><ele>27.6</ele><time>2026-04-07T10:59:34Z</time></trkpt><trkpt lat="-18.895793" lon="34.497551"><ele>27.2</ele><time>2026-04-07T10:59:46Z</time></trkpt><trkpt lat="-18.895181" lon="34.496671"><ele>26.8</ele><time>2026-04-07T10:59:58Z</time></trkpt><trkpt lat="-18.894726" lon="34.49607"><ele>26.1</ele><time>2026-04-07T11:00:08Z</time></trkpt><trkpt lat="-18.894529" lon="34.495792"><ele>26.1</ele><time>2026-04-07T11:00:12Z</time></trkpt><trkpt lat="-18.894197" lon="34.495275"><ele>26.5</ele><time>2026-04-07T11:00:19Z</time></trkpt><trkpt lat="-18.893582" lon="34.494401"><ele>26.7</ele><time>2026-04-07T11:00:31Z</time></trkpt><trkpt lat="-18.893322" lon="34.49394"><ele>26.9</ele><time>2026-04-07T11:00:37Z</time></trkpt><trkpt lat="-18.893209" lon="34.493699"><ele>27.3</ele><time>2026-04-07T11:00:40Z</time></trkpt><trkpt lat="-18.893041" lon="34.493385"><ele>27.2</ele><time>2026-04-07T11:00:44Z</time></trkpt><trkpt lat="-18.892858" lon="34.493082"><ele>27.1</ele><time>2026-04-07T11:00:48Z</time></trkpt><trkpt lat="-18.892505" lon="34.492568"><ele>26.5</ele><time>2026-04-07T11:00:55Z</time></trkpt><trkpt lat="-18.891797" lon="34.491671"><ele>25.9</ele><time>2026-04-07T11:01:08Z</time></trkpt><trkpt lat="-18.891511" lon="34.491334"><ele>25.9</ele><time>2026-04-07T11:01:13Z</time></trkpt><trkpt lat="-18.891263" lon="34.491022"><ele>25.6</ele><time>2026-04-07T11:01:18Z</time></trkpt><trkpt lat="-18.891116" lon="34.49083"><ele>25.4</ele><time>2026-04-07T11:01:22Z</time></trkpt><trkpt lat="-18.890933" lon="34.490558"><ele>25.7</ele><time>2026-04-07T11:01:29Z</time></trkpt><trkpt lat="-18.890873" lon="34.490491"><ele>25.5</ele><time>2026-04-07T11:01:31Z</time></trkpt><trkpt lat="-18.890782" lon="34.490333"><ele>25.4</ele><time>2026-04-07T11:01:35Z</time></trkpt><trkpt lat="-18.890677" lon="34.49009"><ele>25.2</ele><time>2026-04-07T11:01:41Z</time></trkpt><trkpt lat="-18.89045" lon="34.489664"><ele>25.6</ele><time>2026-04-07T11:01:52Z</time></trkpt><trkpt lat="-18.889954" lon="34.48887"><ele>26.2</ele><time>2026-04-07T11:02:13Z</time></trkpt><trkpt lat="-18.889806" lon="34.488592"><ele>26.1</ele><time>2026-04-07T11:02:20Z</time></trkpt><trkpt lat="-18.889592" lon="34.488283"><ele>26.1</ele><time>2026-04-07T11:02:28Z</time></trkpt><trkpt lat="-18.889489" lon="34.488087"><ele>26.2</ele><time>2026-04-07T11:02:33Z</time></trkpt><trkpt lat="-18.889103" lon="34.487496"><ele>26.3</ele><time>2026-04-07T11:02:48Z</time></trkpt><trkpt lat="-18.889003" lon="34.487323"><ele>26.1</ele><time>2026-04-07T11:02:52Z</time></trkpt><trkpt lat="-18.88879" lon="34.48684"><ele>26.3</ele><time>2026-04-07T11:03:04Z</time></trkpt><trkpt lat="-18.8887" lon="34.486599"><ele>26.2</ele><time>2026-04-07T11:03:10Z</time></trkpt><trkpt lat="-18.888577" lon="34.486372"><ele>26.5</ele><time>2026-04-07T11:03:15Z</time></trkpt><trkpt lat="-18.888407" lon="34.486009"><ele>26.8</ele><time>2026-04-07T11:03:23Z</time></trkpt><trkpt lat="-18.888058" lon="34.485492"><ele>26.0</ele><time>2026-04-07T11:03:35Z</time></trkpt><trkpt lat="-18.887661" lon="34.484807"><ele>24.6</ele><time>2026-04-07T11:03:50Z</time></trkpt><trkpt lat="-18.887561" lon="34.484593"><ele>24.4</ele><time>2026-04-07T11:03:55Z</time></trkpt><trkpt lat="-18.887083" lon="34.483737"><ele>24.7</ele><time>2026-04-07T11:04:10Z</time></trkpt><trkpt lat="-18.886924" lon="34.483406"><ele>25.0</ele><time>2026-04-07T11:04:16Z</time></trkpt><trkpt lat="-18.886445" lon="34.482465"><ele>24.7</ele><time>2026-04-07T11:04:31Z</time></trkpt><trkpt lat="-18.886225" lon="34.48214"><ele>24.7</ele><time>2026-04-07T11:04:36Z</time></trkpt><trkpt lat="-18.886147" lon="34.482002"><ele>24.8</ele><time>2026-04-07T11:04:38Z</time></trkpt><trkpt lat="-18.88608" lon="34.481865"><ele>24.4</ele><time>2026-04-07T11:04:40Z</time></trkpt><trkpt lat="-18.885989" lon="34.481605"><ele>24.4</ele><time>2026-04-07T11:04:44Z</time></trkpt><trkpt lat="-18.885909" lon="34.481418"><ele>25.2</ele><time>2026-04-07T11:04:47Z</time></trkpt><trkpt lat="-18.885352" lon="34.480346"><ele>25.3</ele><time>2026-04-07T11:05:03Z</time></trkpt><trkpt lat="-18.885224" lon="34.480138"><ele>25.7</ele><time>2026-04-07T11:05:06Z</time></trkpt><trkpt lat="-18.884912" lon="34.479446"><ele>25.0</ele><time>2026-04-07T11:05:17Z</time></trkpt><trkpt lat="-18.884808" lon="34.479172"><ele>24.3</ele><time>2026-04-07T11:05:22Z</time></trkpt><trkpt lat="-18.884728" lon="34.479003"><ele>23.9</ele><time>2026-04-07T11:05:25Z</time></trkpt><trkpt lat="-18.884384" lon="34.478451"><ele>24.4</ele><time>2026-04-07T11:05:35Z</time></trkpt><trkpt lat="-18.883972" lon="34.477902"><ele>25.0</ele><time>2026-04-07T11:05:46Z</time></trkpt><trkpt lat="-18.88387" lon="34.477738"><ele>25.1</ele><time>2026-04-07T11:05:49Z</time></trkpt><trkpt lat="-18.883712" lon="34.477408"><ele>24.7</ele><time>2026-04-07T11:05:55Z</time></trkpt><trkpt lat="-18.883586" lon="34.477061"><ele>24.6</ele><time>2026-04-07T11:06:01Z</time></trkpt><trkpt lat="-18.883514" lon="34.476819"><ele>24.4</ele><time>2026-04-07T11:06:05Z</time></trkpt><trkpt lat="-18.883441" lon="34.476508"><ele>24.2</ele><time>2026-04-07T11:06:10Z</time></trkpt><trkpt lat="-18.8834" lon="34.476263"><ele>24.1</ele><time>2026-04-07T11:06:14Z</time></trkpt><trkpt lat="-18.883262" lon="34.475764"><ele>24.3</ele><time>2026-04-07T11:06:22Z</time></trkpt><trkpt lat="-18.883188" lon="34.475572"><ele>23.9</ele><time>2026-04-07T11:06:25Z</time></trkpt><trkpt lat="-18.883099" lon="34.475261"><ele>23.5</ele><time>2026-04-07T11:06:30Z</time></trkpt><trkpt lat="-18.88287" lon="34.474692"><ele>23.2</ele><time>2026-04-07T11:06:39Z</time></trkpt><trkpt lat="-18.882789" lon="34.474392"><ele>23.3</ele><time>2026-04-07T11:06:44Z</time></trkpt><trkpt lat="-18.882753" lon="34.474222"><ele>22.9</ele><time>2026-04-07T11:06:47Z</time></trkpt><trkpt lat="-18.882664" lon="34.474001"><ele>23.2</ele><time>2026-04-07T11:06:51Z</time></trkpt><trkpt lat="-18.882564" lon="34.473839"><ele>23.0</ele><time>2026-04-07T11:06:54Z</time></trkpt><trkpt lat="-18.882455" lon="34.47361"><ele>23.3</ele><time>2026-04-07T11:06:58Z</time></trkpt><trkpt lat="-18.882267" lon="34.473268"><ele>23.6</ele><time>2026-04-07T11:07:04Z</time></trkpt><trkpt lat="-18.881944" lon="34.472586"><ele>23.4</ele><time>2026-04-07T11:07:16Z</time></trkpt><trkpt lat="-18.881794" lon="34.472222"><ele>23.6</ele><time>2026-04-07T11:07:23Z</time></trkpt><trkpt lat="-18.881733" lon="34.472127"><ele>24.2</ele><time>2026-04-07T11:07:25Z</time></trkpt><trkpt lat="-18.881726" lon="34.47208"><ele>24.1</ele><time>2026-04-07T11:07:26Z</time></trkpt><trkpt lat="-18.881666" lon="34.471928"><ele>24.2</ele><time>2026-04-07T11:07:29Z</time></trkpt><trkpt lat="-18.881617" lon="34.471828"><ele>24.1</ele><time>2026-04-07T11:07:31Z</time></trkpt><trkpt lat="-18.881485" lon="34.471622"><ele>24.3</ele><time>2026-04-07T11:07:35Z</time></trkpt><trkpt lat="-18.881252" lon="34.471137"><ele>23.6</ele><time>2026-04-07T11:07:44Z</time></trkpt><trkpt lat="-18.881165" lon="34.470895"><ele>23.6</ele><time>2026-04-07T11:07:49Z</time></trkpt><trkpt lat="-18.880974" lon="34.47062"><ele>23.8</ele><time>2026-04-07T11:07:55Z</time></trkpt><trkpt lat="-18.880915" lon="34.470511"><ele>23.8</ele><time>2026-04-07T11:07:57Z</time></trkpt><trkpt lat="-18.880858" lon="34.4703"><ele>24.1</ele><time>2026-04-07T11:08:01Z</time></trkpt><trkpt lat="-18.880707" lon="34.469954"><ele>23.7</ele><time>2026-04-07T11:08:07Z</time></trkpt><trkpt lat="-18.880579" lon="34.469618"><ele>23.6</ele><time>2026-04-07T11:08:13Z</time></trkpt><trkpt lat="-18.880432" lon="34.469342"><ele>23.6</ele><time>2026-04-07T11:08:18Z</time></trkpt><trkpt lat="-18.88023" lon="34.468857"><ele>24.0</ele><time>2026-04-07T11:08:27Z</time></trkpt><trkpt lat="-18.880126" lon="34.468638"><ele>24.0</ele><time>2026-04-07T11:08:31Z</time></trkpt><trkpt lat="-18.879886" lon="34.467971"><ele>23.4</ele><time>2026-04-07T11:08:43Z</time></trkpt><trkpt lat="-18.879699" lon="34.46753"><ele>23.0</ele><time>2026-04-07T11:08:51Z</time></trkpt><trkpt lat="-18.879572" lon="34.467299"><ele>22.8</ele><time>2026-04-07T11:08:55Z</time></trkpt><trkpt lat="-18.879496" lon="34.467083"><ele>22.8</ele><time>2026-04-07T11:08:59Z</time></trkpt><trkpt lat="-18.879116" lon="34.466304"><ele>23.1</ele><time>2026-04-07T11:09:13Z</time></trkpt><trkpt lat="-18.879043" lon="34.466087"><ele>23.2</ele><time>2026-04-07T11:09:17Z</time></trkpt><trkpt lat="-18.879" lon="34.465992"><ele>23.2</ele><time>2026-04-07T11:09:19Z</time></trkpt><trkpt lat="-18.878885" lon="34.465816"><ele>23.2</ele><time>2026-04-07T11:09:23Z</time></trkpt><trkpt lat="-18.878791" lon="34.465619"><ele>23.3</ele><time>2026-04-07T11:09:27Z</time></trkpt><trkpt lat="-18.878639" lon="34.465349"><ele>23.3</ele><time>2026-04-07T11:09:32Z</time></trkpt><trkpt lat="-18.878389" lon="34.464804"><ele>23.5</ele><time>2026-04-07T11:09:42Z</time></trkpt><trkpt lat="-18.87827" lon="34.464529"><ele>23.5</ele><time>2026-04-07T11:09:47Z</time></trkpt><trkpt lat="-18.878144" lon="34.464194"><ele>23.2</ele><time>2026-04-07T11:09:53Z</time></trkpt><trkpt lat="-18.878055" lon="34.463867"><ele>23.5</ele><time>2026-04-07T11:09:59Z</time></trkpt><trkpt lat="-18.877898" lon="34.463502"><ele>24.0</ele><time>2026-04-07T11:10:06Z</time></trkpt><trkpt lat="-18.877737" lon="34.463195"><ele>24.2</ele><time>2026-04-07T11:10:12Z</time></trkpt><trkpt lat="-18.877645" lon="34.462983"><ele>24.3</ele><time>2026-04-07T11:10:16Z</time></trkpt><trkpt lat="-18.877589" lon="34.462821"><ele>23.7</ele><time>2026-04-07T11:10:19Z</time></trkpt><trkpt lat="-18.877508" lon="34.462662"><ele>23.6</ele><time>2026-04-07T11:10:22Z</time></trkpt><trkpt lat="-18.877488" lon="34.462611"><ele>23.7</ele><time>2026-04-07T11:10:23Z</time></trkpt><trkpt lat="-18.877441" lon="34.462414"><ele>23.8</ele><time>2026-04-07T11:10:27Z</time></trkpt><trkpt lat="-18.877387" lon="34.462259"><ele>23.8</ele><time>2026-04-07T11:10:30Z</time></trkpt><trkpt lat="-18.877227" lon="34.461919"><ele>23.7</ele><time>2026-04-07T11:10:37Z</time></trkpt><trkpt lat="-18.877114" lon="34.461713"><ele>23.5</ele><time>2026-04-07T11:10:41Z</time></trkpt><trkpt lat="-18.877007" lon="34.461454"><ele>23.5</ele><time>2026-04-07T11:10:46Z</time></trkpt><trkpt lat="-18.876819" lon="34.460853"><ele>23.1</ele><time>2026-04-07T11:10:57Z</time></trkpt><trkpt lat="-18.876681" lon="34.460529"><ele>23.3</ele><time>2026-04-07T11:11:03Z</time></trkpt><trkpt lat="-18.876531" lon="34.460264"><ele>22.7</ele><time>2026-04-07T11:11:08Z</time></trkpt><trkpt lat="-18.876395" lon="34.45992"><ele>22.9</ele><time>2026-04-07T11:11:14Z</time></trkpt><trkpt lat="-18.876313" lon="34.459657"><ele>22.9</ele><time>2026-04-07T11:11:19Z</time></trkpt><trkpt lat="-18.876204" lon="34.459398"><ele>22.9</ele><time>2026-04-07T11:11:24Z</time></trkpt><trkpt lat="-18.876121" lon="34.459171"><ele>23.0</ele><time>2026-04-07T11:11:29Z</time></trkpt><trkpt lat="-18.876005" lon="34.458943"><ele>22.5</ele><time>2026-04-07T11:11:35Z</time></trkpt><trkpt lat="-18.875964" lon="34.458825"><ele>22.9</ele><time>2026-04-07T11:11:38Z</time></trkpt><trkpt lat="-18.875899" lon="34.458693"><ele>23.0</ele><time>2026-04-07T11:11:41Z</time></trkpt><trkpt lat="-18.875538" lon="34.458087"><ele>23.4</ele><time>2026-04-07T11:11:53Z</time></trkpt><trkpt lat="-18.875441" lon="34.457757"><ele>23.4</ele><time>2026-04-07T11:12:00Z</time></trkpt><trkpt lat="-18.875162" lon="34.457134"><ele>23.5</ele><time>2026-04-07T11:12:11Z</time></trkpt><trkpt lat="-18.874952" lon="34.456701"><ele>23.2</ele><time>2026-04-07T11:12:18Z</time></trkpt><trkpt lat="-18.874899" lon="34.4565"><ele>23.4</ele><time>2026-04-07T11:12:22Z</time></trkpt><trkpt lat="-18.874824" lon="34.456297"><ele>23.6</ele><time>2026-04-07T11:12:26Z</time></trkpt><trkpt lat="-18.874682" lon="34.456044"><ele>23.1</ele><time>2026-04-07T11:12:31Z</time></trkpt><trkpt lat="-18.874345" lon="34.455263"><ele>23.3</ele><time>2026-04-07T11:12:46Z</time></trkpt><trkpt lat="-18.874281" lon="34.455155"><ele>22.9</ele><time>2026-04-07T11:12:48Z</time></trkpt><trkpt lat="-18.874252" lon="34.455053"><ele>23.0</ele><time>2026-04-07T11:12:50Z</time></trkpt><trkpt lat="-18.874151" lon="34.454843"><ele>23.1</ele><time>2026-04-07T11:12:54Z</time></trkpt><trkpt lat="-18.874112" lon="34.454724"><ele>23.3</ele><time>2026-04-07T11:12:56Z</time></trkpt><trkpt lat="-18.874068" lon="34.454541"><ele>23.0</ele><time>2026-04-07T11:12:59Z</time></trkpt><trkpt lat="-18.87391" lon="34.454065"><ele>23.9</ele><time>2026-04-07T11:13:06Z</time></trkpt><trkpt lat="-18.873854" lon="34.453849"><ele>24.2</ele><time>2026-04-07T11:13:09Z</time></trkpt><trkpt lat="-18.873859" lon="34.4538"><ele>23.4</ele><time>2026-04-07T11:13:10Z</time></trkpt><trkpt lat="-18.873825" lon="34.45373"><ele>23.5</ele><time>2026-04-07T11:13:11Z</time></trkpt><trkpt lat="-18.873751" lon="34.453471"><ele>21.0</ele><time>2026-04-07T11:13:16Z</time></trkpt><trkpt lat="-18.873696" lon="34.453381"><ele>21.8</ele><time>2026-04-07T11:13:19Z</time></trkpt><trkpt lat="-18.87369" lon="34.453333"><ele>21.6</ele><time>2026-04-07T11:13:20Z</time></trkpt><trkpt lat="-18.873593" lon="34.453144"><ele>20.9</ele><time>2026-04-07T11:13:24Z</time></trkpt><trkpt lat="-18.873487" lon="34.452892"><ele>20.8</ele><time>2026-04-07T11:13:29Z</time></trkpt><trkpt lat="-18.873444" lon="34.452731"><ele>20.5</ele><time>2026-04-07T11:13:32Z</time></trkpt><trkpt lat="-18.873349" lon="34.452456"><ele>20.5</ele><time>2026-04-07T11:13:37Z</time></trkpt><trkpt lat="-18.872968" lon="34.451586"><ele>21.2</ele><time>2026-04-07T11:13:51Z</time></trkpt><trkpt lat="-18.872827" lon="34.451185"><ele>21.7</ele><time>2026-04-07T11:13:58Z</time></trkpt><trkpt lat="-18.872624" lon="34.45073"><ele>21.4</ele><time>2026-04-07T11:14:06Z</time></trkpt><trkpt lat="-18.872276" lon="34.449999"><ele>21.9</ele><time>2026-04-07T11:14:19Z</time></trkpt><trkpt lat="-18.872183" lon="34.449697"><ele>22.5</ele><time>2026-04-07T11:14:24Z</time></trkpt><trkpt lat="-18.872109" lon="34.449341"><ele>21.7</ele><time>2026-04-07T11:14:30Z</time></trkpt><trkpt lat="-18.872042" lon="34.44888"><ele>21.3</ele><time>2026-04-07T11:14:38Z</time></trkpt><trkpt lat="-18.872014" lon="34.44828"><ele>21.7</ele><time>2026-04-07T11:14:47Z</time></trkpt><trkpt lat="-18.871999" lon="34.448084"><ele>21.8</ele><time>2026-04-07T11:14:50Z</time></trkpt><trkpt lat="-18.871973" lon="34.447914"><ele>21.7</ele><time>2026-04-07T11:14:53Z</time></trkpt><trkpt lat="-18.871972" lon="34.447753"><ele>21.6</ele><time>2026-04-07T11:14:56Z</time></trkpt><trkpt lat="-18.871939" lon="34.447527"><ele>21.3</ele><time>2026-04-07T11:15:00Z</time></trkpt><trkpt lat="-18.871913" lon="34.447418"><ele>21.5</ele><time>2026-04-07T11:15:02Z</time></trkpt><trkpt lat="-18.871855" lon="34.44726"><ele>21.3</ele><time>2026-04-07T11:15:05Z</time></trkpt><trkpt lat="-18.871492" lon="34.446448"><ele>21.8</ele><time>2026-04-07T11:15:20Z</time></trkpt><trkpt lat="-18.8711" lon="34.445729"><ele>21.3</ele><time>2026-04-07T11:15:33Z</time></trkpt><trkpt lat="-18.871026" lon="34.445548"><ele>21.1</ele><time>2026-04-07T11:15:36Z</time></trkpt><trkpt lat="-18.870965" lon="34.445331"><ele>21.2</ele><time>2026-04-07T11:15:40Z</time></trkpt><trkpt lat="-18.870647" lon="34.444477"><ele>21.3</ele><time>2026-04-07T11:15:55Z</time></trkpt><trkpt lat="-18.870585" lon="34.444245"><ele>21.4</ele><time>2026-04-07T11:15:59Z</time></trkpt><trkpt lat="-18.870479" lon="34.443947"><ele>21.1</ele><time>2026-04-07T11:16:04Z</time></trkpt><trkpt lat="-18.87032" lon="34.443404"><ele>21.6</ele><time>2026-04-07T11:16:13Z</time></trkpt><trkpt lat="-18.870147" lon="34.442879"><ele>21.1</ele><time>2026-04-07T11:16:22Z</time></trkpt><trkpt lat="-18.869943" lon="34.442371"><ele>21.4</ele><time>2026-04-07T11:16:31Z</time></trkpt><trkpt lat="-18.869792" lon="34.442068"><ele>21.2</ele><time>2026-04-07T11:16:36Z</time></trkpt><trkpt lat="-18.869687" lon="34.441818"><ele>21.8</ele><time>2026-04-07T11:16:40Z</time></trkpt><trkpt lat="-18.869387" lon="34.440837"><ele>21.6</ele><time>2026-04-07T11:16:55Z</time></trkpt><trkpt lat="-18.869203" lon="34.440338"><ele>21.0</ele><time>2026-04-07T11:17:03Z</time></trkpt><trkpt lat="-18.869106" lon="34.440008"><ele>21.1</ele><time>2026-04-07T11:17:08Z</time></trkpt><trkpt lat="-18.86887" lon="34.438876"><ele>21.7</ele><time>2026-04-07T11:17:26Z</time></trkpt><trkpt lat="-18.868819" lon="34.438714"><ele>20.2</ele><time>2026-04-07T11:17:29Z</time></trkpt><trkpt lat="-18.868725" lon="34.438312"><ele>21.2</ele><time>2026-04-07T11:17:35Z</time></trkpt><trkpt lat="-18.868714" lon="34.438184"><ele>21.3</ele><time>2026-04-07T11:17:37Z</time></trkpt><trkpt lat="-18.868581" lon="34.43767"><ele>22.2</ele><time>2026-04-07T11:17:45Z</time></trkpt><trkpt lat="-18.868553" lon="34.437618"><ele>22.3</ele><time>2026-04-07T11:17:46Z</time></trkpt><trkpt lat="-18.868513" lon="34.437497"><ele>22.6</ele><time>2026-04-07T11:17:48Z</time></trkpt><trkpt lat="-18.868429" lon="34.437114"><ele>22.0</ele><time>2026-04-07T11:17:54Z</time></trkpt><trkpt lat="-18.868418" lon="34.436997"><ele>21.9</ele><time>2026-04-07T11:17:56Z</time></trkpt><trkpt lat="-18.868376" lon="34.436769"><ele>22.4</ele><time>2026-04-07T11:18:00Z</time></trkpt><trkpt lat="-18.868188" lon="34.436144"><ele>22.1</ele><time>2026-04-07T11:18:10Z</time></trkpt><trkpt lat="-18.86813" lon="34.435791"><ele>22.2</ele><time>2026-04-07T11:18:16Z</time></trkpt><trkpt lat="-18.86809" lon="34.435617"><ele>21.3</ele><time>2026-04-07T11:18:19Z</time></trkpt><trkpt lat="-18.868026" lon="34.435438"><ele>21.5</ele><time>2026-04-07T11:18:22Z</time></trkpt><trkpt lat="-18.867968" lon="34.435316"><ele>21.6</ele><time>2026-04-07T11:18:24Z</time></trkpt><trkpt lat="-18.867849" lon="34.435164"><ele>21.4</ele><time>2026-04-07T11:18:27Z</time></trkpt><trkpt lat="-18.867751" lon="34.435078"><ele>21.5</ele><time>2026-04-07T11:18:29Z</time></trkpt><trkpt lat="-18.867533" lon="34.434929"><ele>21.8</ele><time>2026-04-07T11:18:33Z</time></trkpt><trkpt lat="-18.867111" lon="34.43469"><ele>22.2</ele><time>2026-04-07T11:18:41Z</time></trkpt><trkpt lat="-18.866577" lon="34.434519"><ele>22.1</ele><time>2026-04-07T11:18:50Z</time></trkpt><trkpt lat="-18.866404" lon="34.43444"><ele>21.9</ele><time>2026-04-07T11:18:53Z</time></trkpt><trkpt lat="-18.866291" lon="34.434372"><ele>21.9</ele><time>2026-04-07T11:18:55Z</time></trkpt><trkpt lat="-18.866181" lon="34.43429"><ele>21.6</ele><time>2026-04-07T11:18:57Z</time></trkpt><trkpt lat="-18.865991" lon="34.434095"><ele>21.5</ele><time>2026-04-07T11:19:01Z</time></trkpt><trkpt lat="-18.865747" lon="34.43376"><ele>21.7</ele><time>2026-04-07T11:19:07Z</time></trkpt><trkpt lat="-18.865577" lon="34.433475"><ele>22.0</ele><time>2026-04-07T11:19:12Z</time></trkpt><trkpt lat="-18.865446" lon="34.433177"><ele>21.4</ele><time>2026-04-07T11:19:17Z</time></trkpt><trkpt lat="-18.8654" lon="34.432995"><ele>21.8</ele><time>2026-04-07T11:19:20Z</time></trkpt><trkpt lat="-18.865325" lon="34.432594"><ele>21.8</ele><time>2026-04-07T11:19:26Z</time></trkpt><trkpt lat="-18.865299" lon="34.432396"><ele>21.1</ele><time>2026-04-07T11:19:29Z</time></trkpt><trkpt lat="-18.865302" lon="34.432207"><ele>21.0</ele><time>2026-04-07T11:19:32Z</time></trkpt><trkpt lat="-18.865252" lon="34.431775"><ele>20.6</ele><time>2026-04-07T11:19:39Z</time></trkpt><trkpt lat="-18.865237" lon="34.43114"><ele>22.9</ele><time>2026-04-07T11:19:50Z</time></trkpt><trkpt lat="-18.865203" lon="34.430713"><ele>22.9</ele><time>2026-04-07T11:19:57Z</time></trkpt><trkpt lat="-18.865238" lon="34.430274"><ele>22.7</ele><time>2026-04-07T11:20:04Z</time></trkpt><trkpt lat="-18.865233" lon="34.43001"><ele>23.1</ele><time>2026-04-07T11:20:08Z</time></trkpt><trkpt lat="-18.865207" lon="34.429798"><ele>24.2</ele><time>2026-04-07T11:20:11Z</time></trkpt><trkpt lat="-18.865142" lon="34.429455"><ele>23.3</ele><time>2026-04-07T11:20:16Z</time></trkpt><trkpt lat="-18.865031" lon="34.428669"><ele>23.1</ele><time>2026-04-07T11:20:28Z</time></trkpt><trkpt lat="-18.864848" lon="34.427941"><ele>22.3</ele><time>2026-04-07T11:20:39Z</time></trkpt><trkpt lat="-18.864716" lon="34.4273"><ele>21.4</ele><time>2026-04-07T11:20:49Z</time></trkpt><trkpt lat="-18.864609" lon="34.426859"><ele>21.8</ele><time>2026-04-07T11:20:56Z</time></trkpt><trkpt lat="-18.864436" lon="34.426012"><ele>22.4</ele><time>2026-04-07T11:21:09Z</time></trkpt><trkpt lat="-18.864384" lon="34.425661"><ele>22.0</ele><time>2026-04-07T11:21:14Z</time></trkpt><trkpt lat="-18.864341" lon="34.425186"><ele>21.7</ele><time>2026-04-07T11:21:21Z</time></trkpt><trkpt lat="-18.864316" lon="34.425044"><ele>22.1</ele><time>2026-04-07T11:21:23Z</time></trkpt><trkpt lat="-18.864001" lon="34.424074"><ele>22.4</ele><time>2026-04-07T11:21:37Z</time></trkpt><trkpt lat="-18.863877" lon="34.423801"><ele>22.1</ele><time>2026-04-07T11:21:41Z</time></trkpt><trkpt lat="-18.863576" lon="34.423302"><ele>22.5</ele><time>2026-04-07T11:21:49Z</time></trkpt><trkpt lat="-18.863429" lon="34.423121"><ele>20.3</ele><time>2026-04-07T11:21:52Z</time></trkpt><trkpt lat="-18.863272" lon="34.422896"><ele>21.0</ele><time>2026-04-07T11:21:56Z</time></trkpt><trkpt lat="-18.863026" lon="34.42249"><ele>20.9</ele><time>2026-04-07T11:22:03Z</time></trkpt><trkpt lat="-18.862905" lon="34.422242"><ele>21.1</ele><time>2026-04-07T11:22:07Z</time></trkpt><trkpt lat="-18.862797" lon="34.421991"><ele>20.8</ele><time>2026-04-07T11:22:11Z</time></trkpt><trkpt lat="-18.862694" lon="34.421668"><ele>21.2</ele><time>2026-04-07T11:22:16Z</time></trkpt><trkpt lat="-18.862593" lon="34.421431"><ele>20.5</ele><time>2026-04-07T11:22:20Z</time></trkpt><trkpt lat="-18.862562" lon="34.421378"><ele>21.6</ele><time>2026-04-07T11:22:21Z</time></trkpt><trkpt lat="-18.862484" lon="34.421172"><ele>21.5</ele><time>2026-04-07T11:22:24Z</time></trkpt><trkpt lat="-18.862466" lon="34.421093"><ele>20.6</ele><time>2026-04-07T11:22:25Z</time></trkpt><trkpt lat="-18.86243" lon="34.421046"><ele>21.7</ele><time>2026-04-07T11:22:26Z</time></trkpt><trkpt lat="-18.862342" lon="34.420726"><ele>22.1</ele><time>2026-04-07T11:22:31Z</time></trkpt><trkpt lat="-18.862288" lon="34.420454"><ele>21.8</ele><time>2026-04-07T11:22:35Z</time></trkpt><trkpt lat="-18.862218" lon="34.419808"><ele>22.0</ele><time>2026-04-07T11:22:45Z</time></trkpt><trkpt lat="-18.862198" lon="34.419342"><ele>20.4</ele><time>2026-04-07T11:22:52Z</time></trkpt><trkpt lat="-18.862199" lon="34.419002"><ele>20.4</ele><time>2026-04-07T11:22:57Z</time></trkpt><trkpt lat="-18.86223" lon="34.418594"><ele>20.5</ele><time>2026-04-07T11:23:03Z</time></trkpt><trkpt lat="-18.862223" lon="34.418455"><ele>20.1</ele><time>2026-04-07T11:23:05Z</time></trkpt><trkpt lat="-18.862257" lon="34.41811"><ele>20.1</ele><time>2026-04-07T11:23:10Z</time></trkpt><trkpt lat="-18.862296" lon="34.417903"><ele>20.5</ele><time>2026-04-07T11:23:13Z</time></trkpt><trkpt lat="-18.862328" lon="34.41748"><ele>20.0</ele><time>2026-04-07T11:23:19Z</time></trkpt><trkpt lat="-18.862353" lon="34.417347"><ele>20.2</ele><time>2026-04-07T11:23:21Z</time></trkpt><trkpt lat="-18.862392" lon="34.417222"><ele>20.9</ele><time>2026-04-07T11:23:23Z</time></trkpt><trkpt lat="-18.862508" lon="34.416748"><ele>20.4</ele><time>2026-04-07T11:23:30Z</time></trkpt><trkpt lat="-18.862536" lon="34.416675"><ele>20.3</ele><time>2026-04-07T11:23:31Z</time></trkpt><trkpt lat="-18.862566" lon="34.416465"><ele>20.6</ele><time>2026-04-07T11:23:34Z</time></trkpt><trkpt lat="-18.862648" lon="34.416116"><ele>20.3</ele><time>2026-04-07T11:23:39Z</time></trkpt><trkpt lat="-18.862855" lon="34.415446"><ele>20.0</ele><time>2026-04-07T11:23:49Z</time></trkpt><trkpt lat="-18.863077" lon="34.414562"><ele>20.4</ele><time>2026-04-07T11:24:02Z</time></trkpt><trkpt lat="-18.863138" lon="34.414439"><ele>20.1</ele><time>2026-04-07T11:24:04Z</time></trkpt><trkpt lat="-18.863173" lon="34.414301"><ele>20.4</ele><time>2026-04-07T11:24:05Z</time></trkpt><trkpt lat="-18.863265" lon="34.414121"><ele>20.6</ele><time>2026-04-07T11:24:08Z</time></trkpt><trkpt lat="-18.863413" lon="34.413876"><ele>20.6</ele><time>2026-04-07T11:24:12Z</time></trkpt><trkpt lat="-18.863569" lon="34.413589"><ele>20.7</ele><time>2026-04-07T11:24:16Z</time></trkpt><trkpt lat="-18.86371" lon="34.413275"><ele>19.8</ele><time>2026-04-07T11:24:20Z</time></trkpt><trkpt lat="-18.863994" lon="34.412463"><ele>20.9</ele><time>2026-04-07T11:24:29Z</time></trkpt><trkpt lat="-18.864066" lon="34.412189"><ele>20.3</ele><time>2026-04-07T11:24:32Z</time></trkpt><trkpt lat="-18.864203" lon="34.411574"><ele>20.1</ele><time>2026-04-07T11:24:39Z</time></trkpt><trkpt lat="-18.864272" lon="34.41114"><ele>19.9</ele><time>2026-04-07T11:24:44Z</time></trkpt><trkpt lat="-18.864384" lon="34.410255"><ele>19.9</ele><time>2026-04-07T11:24:54Z</time></trkpt><trkpt lat="-18.864469" lon="34.409878"><ele>20.2</ele><time>2026-04-07T11:24:59Z</time></trkpt><trkpt lat="-18.86459" lon="34.409497"><ele>19.8</ele><time>2026-04-07T11:25:03Z</time></trkpt><trkpt lat="-18.864692" lon="34.409218"><ele>19.7</ele><time>2026-04-07T11:25:06Z</time></trkpt><trkpt lat="-18.865089" lon="34.408293"><ele>19.5</ele><time>2026-04-07T11:25:16Z</time></trkpt><trkpt lat="-18.865183" lon="34.408004"><ele>19.9</ele><time>2026-04-07T11:25:19Z</time></trkpt><trkpt lat="-18.86529" lon="34.407611"><ele>20.0</ele><time>2026-04-07T11:25:23Z</time></trkpt><trkpt lat="-18.86533" lon="34.407408"><ele>19.9</ele><time>2026-04-07T11:25:25Z</time></trkpt><trkpt lat="-18.865368" lon="34.407095"><ele>20.4</ele><time>2026-04-07T11:25:28Z</time></trkpt><trkpt lat="-18.865413" lon="34.406408"><ele>20.6</ele><time>2026-04-07T11:25:35Z</time></trkpt><trkpt lat="-18.865498" lon="34.40581"><ele>20.6</ele><time>2026-04-07T11:25:41Z</time></trkpt><trkpt lat="-18.865605" lon="34.403642"><ele>20.7</ele><time>2026-04-07T11:26:01Z</time></trkpt><trkpt lat="-18.865658" lon="34.402995"><ele>20.3</ele><time>2026-04-07T11:26:07Z</time></trkpt><trkpt lat="-18.865794" lon="34.401905"><ele>20.7</ele><time>2026-04-07T11:26:16Z</time></trkpt><trkpt lat="-18.865895" lon="34.401369"><ele>20.8</ele><time>2026-04-07T11:26:22Z</time></trkpt><trkpt lat="-18.866089" lon="34.400525"><ele>20.4</ele><time>2026-04-07T11:26:30Z</time></trkpt><trkpt lat="-18.866197" lon="34.400106"><ele>20.7</ele><time>2026-04-07T11:26:34Z</time></trkpt><trkpt lat="-18.866413" lon="34.39938"><ele>20.6</ele><time>2026-04-07T11:26:41Z</time></trkpt><trkpt lat="-18.866604" lon="34.398875"><ele>20.8</ele><time>2026-04-07T11:26:46Z</time></trkpt><trkpt lat="-18.866826" lon="34.398392"><ele>20.9</ele><time>2026-04-07T11:26:51Z</time></trkpt><trkpt lat="-18.867149" lon="34.397783"><ele>20.7</ele><time>2026-04-07T11:26:58Z</time></trkpt><trkpt lat="-18.867292" lon="34.397557"><ele>21.0</ele><time>2026-04-07T11:27:01Z</time></trkpt><trkpt lat="-18.867394" lon="34.397416"><ele>21.1</ele><time>2026-04-07T11:27:03Z</time></trkpt><trkpt lat="-18.867607" lon="34.397158"><ele>21.3</ele><time>2026-04-07T11:27:07Z</time></trkpt><trkpt lat="-18.868048" lon="34.396708"><ele>20.9</ele><time>2026-04-07T11:27:15Z</time></trkpt><trkpt lat="-18.868344" lon="34.396467"><ele>20.9</ele><time>2026-04-07T11:27:20Z</time></trkpt><trkpt lat="-18.868467" lon="34.396382"><ele>21.0</ele><time>2026-04-07T11:27:22Z</time></trkpt><trkpt lat="-18.868654" lon="34.396274"><ele>21.0</ele><time>2026-04-07T11:27:25Z</time></trkpt><trkpt lat="-18.868844" lon="34.396192"><ele>20.7</ele><time>2026-04-07T11:27:28Z</time></trkpt><trkpt lat="-18.869034" lon="34.396133"><ele>20.8</ele><time>2026-04-07T11:27:31Z</time></trkpt><trkpt lat="-18.869583" lon="34.396017"><ele>21.3</ele><time>2026-04-07T11:27:39Z</time></trkpt><trkpt lat="-18.870061" lon="34.395877"><ele>21.2</ele><time>2026-04-07T11:27:45Z</time></trkpt><trkpt lat="-18.870579" lon="34.395742"><ele>21.3</ele><time>2026-04-07T11:27:51Z</time></trkpt><trkpt lat="-18.871924" lon="34.395445"><ele>21.8</ele><time>2026-04-07T11:28:06Z</time></trkpt><trkpt lat="-18.872298" lon="34.395402"><ele>21.4</ele><time>2026-04-07T11:28:10Z</time></trkpt><trkpt lat="-18.872854" lon="34.395377"><ele>21.5</ele><time>2026-04-07T11:28:16Z</time></trkpt><trkpt lat="-18.874144" lon="34.395372"><ele>20.8</ele><time>2026-04-07T11:28:30Z</time></trkpt><trkpt lat="-18.874504" lon="34.395383"><ele>21.0</ele><time>2026-04-07T11:28:34Z</time></trkpt><trkpt lat="-18.874843" lon="34.395376"><ele>21.1</ele><time>2026-04-07T11:28:38Z</time></trkpt><trkpt lat="-18.875011" lon="34.395357"><ele>21.5</ele><time>2026-04-07T11:28:40Z</time></trkpt><trkpt lat="-18.875221" lon="34.395313"><ele>21.4</ele><time>2026-04-07T11:28:43Z</time></trkpt><trkpt lat="-18.876485" lon="34.394954"><ele>21.4</ele><time>2026-04-07T11:29:00Z</time></trkpt><trkpt lat="-18.877396" lon="34.394667"><ele>22.2</ele><time>2026-04-07T11:29:11Z</time></trkpt><trkpt lat="-18.877972" lon="34.394457"><ele>21.6</ele><time>2026-04-07T11:29:18Z</time></trkpt><trkpt lat="-18.878222" lon="34.394381"><ele>21.2</ele><time>2026-04-07T11:29:21Z</time></trkpt><trkpt lat="-18.878483" lon="34.39433"><ele>21.4</ele><time>2026-04-07T11:29:24Z</time></trkpt><trkpt lat="-18.879542" lon="34.394203"><ele>21.2</ele><time>2026-04-07T11:29:36Z</time></trkpt><trkpt lat="-18.881007" lon="34.39391"><ele>22.1</ele><time>2026-04-07T11:29:53Z</time></trkpt><trkpt lat="-18.882072" lon="34.393731"><ele>21.7</ele><time>2026-04-07T11:30:05Z</time></trkpt><trkpt lat="-18.882776" lon="34.393586"><ele>22.0</ele><time>2026-04-07T11:30:13Z</time></trkpt><trkpt lat="-18.883673" lon="34.393342"><ele>22.7</ele><time>2026-04-07T11:30:23Z</time></trkpt><trkpt lat="-18.884751" lon="34.393028"><ele>21.7</ele><time>2026-04-07T11:30:35Z</time></trkpt><trkpt lat="-18.885019" lon="34.392941"><ele>21.8</ele><time>2026-04-07T11:30:38Z</time></trkpt><trkpt lat="-18.885467" lon="34.392821"><ele>21.5</ele><time>2026-04-07T11:30:43Z</time></trkpt><trkpt lat="-18.887102" lon="34.392452"><ele>21.9</ele><time>2026-04-07T11:31:01Z</time></trkpt><trkpt lat="-18.888376" lon="34.392137"><ele>21.3</ele><time>2026-04-07T11:31:15Z</time></trkpt><trkpt lat="-18.888824" lon="34.391988"><ele>21.4</ele><time>2026-04-07T11:31:20Z</time></trkpt><trkpt lat="-18.889248" lon="34.391791"><ele>21.4</ele><time>2026-04-07T11:31:25Z</time></trkpt><trkpt lat="-18.889996" lon="34.391406"><ele>21.7</ele><time>2026-04-07T11:31:34Z</time></trkpt><trkpt lat="-18.890674" lon="34.391122"><ele>21.6</ele><time>2026-04-07T11:31:42Z</time></trkpt><trkpt lat="-18.890848" lon="34.391059"><ele>21.1</ele><time>2026-04-07T11:31:44Z</time></trkpt><trkpt lat="-18.89129" lon="34.390926"><ele>21.1</ele><time>2026-04-07T11:31:49Z</time></trkpt><trkpt lat="-18.892065" lon="34.390624"><ele>21.8</ele><time>2026-04-07T11:31:58Z</time></trkpt><trkpt lat="-18.892594" lon="34.39043"><ele>21.6</ele><time>2026-04-07T11:32:04Z</time></trkpt><trkpt lat="-18.893931" lon="34.389967"><ele>21.5</ele><time>2026-04-07T11:32:19Z</time></trkpt><trkpt lat="-18.894209" lon="34.389883"><ele>21.1</ele><time>2026-04-07T11:32:22Z</time></trkpt><trkpt lat="-18.895505" lon="34.389367"><ele>21.5</ele><time>2026-04-07T11:32:37Z</time></trkpt><trkpt lat="-18.896262" lon="34.389032"><ele>22.1</ele><time>2026-04-07T11:32:46Z</time></trkpt><trkpt lat="-18.897189" lon="34.388589"><ele>22.3</ele><time>2026-04-07T11:32:57Z</time></trkpt><trkpt lat="-18.897689" lon="34.388315"><ele>21.7</ele><time>2026-04-07T11:33:03Z</time></trkpt><trkpt lat="-18.89786" lon="34.388234"><ele>21.6</ele><time>2026-04-07T11:33:05Z</time></trkpt><trkpt lat="-18.899104" lon="34.387779"><ele>21.0</ele><time>2026-04-07T11:33:19Z</time></trkpt><trkpt lat="-18.900897" lon="34.387291"><ele>20.6</ele><time>2026-04-07T11:33:40Z</time></trkpt><trkpt lat="-18.901095" lon="34.387208"><ele>20.7</ele><time>2026-04-07T11:33:43Z</time></trkpt><trkpt lat="-18.90128" lon="34.387079"><ele>20.8</ele><time>2026-04-07T11:33:46Z</time></trkpt><trkpt lat="-18.901334" lon="34.387026"><ele>21.2</ele><time>2026-04-07T11:33:47Z</time></trkpt><trkpt lat="-18.901486" lon="34.386838"><ele>20.9</ele><time>2026-04-07T11:33:50Z</time></trkpt><trkpt lat="-18.901572" lon="34.386698"><ele>21.4</ele><time>2026-04-07T11:33:52Z</time></trkpt><trkpt lat="-18.901635" lon="34.386565"><ele>21.1</ele><time>2026-04-07T11:33:54Z</time></trkpt><trkpt lat="-18.901679" lon="34.386437"><ele>20.4</ele><time>2026-04-07T11:33:56Z</time></trkpt><trkpt lat="-18.901825" lon="34.385859"><ele>20.8</ele><time>2026-04-07T11:34:05Z</time></trkpt><trkpt lat="-18.901994" lon="34.38511"><ele>21.3</ele><time>2026-04-07T11:34:14Z</time></trkpt><trkpt lat="-18.902165" lon="34.38448"><ele>21.0</ele><time>2026-04-07T11:34:21Z</time></trkpt><trkpt lat="-18.902441" lon="34.38335"><ele>21.1</ele><time>2026-04-07T11:34:33Z</time></trkpt><trkpt lat="-18.902715" lon="34.38212"><ele>20.8</ele><time>2026-04-07T11:34:47Z</time></trkpt><trkpt lat="-18.902796" lon="34.381656"><ele>21.2</ele><time>2026-04-07T11:34:55Z</time></trkpt><trkpt lat="-18.902816" lon="34.381432"><ele>21.3</ele><time>2026-04-07T11:35:00Z</time></trkpt><trkpt lat="-18.902802" lon="34.381388"><ele>20.1</ele><time>2026-04-07T11:35:01Z</time></trkpt><trkpt lat="-18.902825" lon="34.381308"><ele>21.6</ele><time>2026-04-07T11:35:03Z</time></trkpt><trkpt lat="-18.902854" lon="34.381057"><ele>21.7</ele><time>2026-04-07T11:35:09Z</time></trkpt><trkpt lat="-18.902964" lon="34.380535"><ele>21.5</ele><time>2026-04-07T11:35:21Z</time></trkpt><trkpt lat="-18.903024" lon="34.380105"><ele>22.1</ele><time>2026-04-07T11:35:30Z</time></trkpt><trkpt lat="-18.903088" lon="34.379818"><ele>21.6</ele><time>2026-04-07T11:35:36Z</time></trkpt><trkpt lat="-18.903137" lon="34.379674"><ele>21.2</ele><time>2026-04-07T11:35:39Z</time></trkpt><trkpt lat="-18.903267" lon="34.379168"><ele>20.9</ele><time>2026-04-07T11:35:49Z</time></trkpt><trkpt lat="-18.903352" lon="34.378951"><ele>21.5</ele><time>2026-04-07T11:35:54Z</time></trkpt><trkpt lat="-18.903353" lon="34.378907"><ele>21.3</ele><time>2026-04-07T11:35:55Z</time></trkpt><trkpt lat="-18.903388" lon="34.378797"><ele>21.0</ele><time>2026-04-07T11:36:00Z</time></trkpt><trkpt lat="-18.903422" lon="34.378633"><ele>22.8</ele><time>2026-04-07T11:36:06Z</time></trkpt><trkpt lat="-18.90343" lon="34.378504"><ele>22.0</ele><time>2026-04-07T11:36:10Z</time></trkpt><trkpt lat="-18.903486" lon="34.378231"><ele>22.0</ele><time>2026-04-07T11:36:20Z</time></trkpt><trkpt lat="-18.90358" lon="34.377897"><ele>22.0</ele><time>2026-04-07T11:36:34Z</time></trkpt><trkpt lat="-18.903709" lon="34.377505"><ele>21.0</ele><time>2026-04-07T11:36:55Z</time></trkpt><trkpt lat="-18.903707" lon="34.377328"><ele>21.0</ele><time>2026-04-07T11:37:10Z</time></trkpt><trkpt lat="-18.903775" lon="34.376988"><ele>20.0</ele><time>2026-04-07T11:37:41Z</time></trkpt><trkpt lat="-18.903803" lon="34.376926"><ele>20.0</ele><time>2026-04-07T11:37:49Z</time></trkpt><trkpt lat="-18.90385" lon="34.376884"><ele>20.0</ele><time>2026-04-07T11:37:57Z</time></trkpt><trkpt lat="-18.903967" lon="34.376825"><ele>20.0</ele><time>2026-04-07T11:38:16Z</time></trkpt><trkpt lat="-18.904006" lon="34.376747"><ele>20.0</ele><time>2026-04-07T11:38:57Z</time></trkpt><trkpt lat="-18.903967" lon="34.376816"><ele>22.0</ele><time>2026-04-07T11:39:15Z</time></trkpt><trkpt lat="-18.903968" lon="34.376889"><ele>22.0</ele><time>2026-04-07T11:39:20Z</time></trkpt><trkpt lat="-18.904365" lon="34.378041"><ele>20.0</ele><time>2026-04-07T11:40:29Z</time></trkpt><trkpt lat="-18.904436" lon="34.3782"><ele>20.0</ele><time>2026-04-07T11:40:37Z</time></trkpt><trkpt lat="-18.90453" lon="34.378466"><ele>20.0</ele><time>2026-04-07T11:40:49Z</time></trkpt><trkpt lat="-18.904628" lon="34.378789"><ele>20.0</ele><time>2026-04-07T11:41:03Z</time></trkpt><trkpt lat="-18.904828" lon="34.379201"><ele>20.0</ele><time>2026-04-07T11:41:23Z</time></trkpt><trkpt lat="-18.904937" lon="34.379372"><ele>20.0</ele><time>2026-04-07T11:41:31Z</time></trkpt><trkpt lat="-18.90519" lon="34.37964"><ele>20.0</ele><time>2026-04-07T11:41:51Z</time></trkpt><trkpt lat="-18.905376" lon="34.379932"><ele>20.0</ele><time>2026-04-07T11:42:13Z</time></trkpt><trkpt lat="-18.905671" lon="34.380151"><ele>20.0</ele><time>2026-04-07T11:42:29Z</time></trkpt><trkpt lat="-18.90593" lon="34.380364"><ele>20.0</ele><time>2026-04-07T11:42:41Z</time></trkpt><trkpt lat="-18.906418" lon="34.380662"><ele>21.8</ele><time>2026-04-07T11:42:56Z</time></trkpt><trkpt lat="-18.906765" lon="34.380891"><ele>21.4</ele><time>2026-04-07T11:43:04Z</time></trkpt><trkpt lat="-18.907202" lon="34.381206"><ele>21.5</ele><time>2026-04-07T11:43:14Z</time></trkpt><trkpt lat="-18.907468" lon="34.381383"><ele>21.6</ele><time>2026-04-07T11:43:20Z</time></trkpt><trkpt lat="-18.907696" lon="34.381523"><ele>21.2</ele><time>2026-04-07T11:43:25Z</time></trkpt><trkpt lat="-18.907998" lon="34.381674"><ele>21.6</ele><time>2026-04-07T11:43:31Z</time></trkpt><trkpt lat="-18.908289" lon="34.381806"><ele>21.4</ele><time>2026-04-07T11:43:37Z</time></trkpt><trkpt lat="-18.908914" lon="34.382136"><ele>21.2</ele><time>2026-04-07T11:43:50Z</time></trkpt><trkpt lat="-18.909335" lon="34.382282"><ele>21.6</ele><time>2026-04-07T11:43:58Z</time></trkpt><trkpt lat="-18.910008" lon="34.382461"><ele>21.7</ele><time>2026-04-07T11:44:10Z</time></trkpt><trkpt lat="-18.91057" lon="34.382649"><ele>21.9</ele><time>2026-04-07T11:44:20Z</time></trkpt><trkpt lat="-18.910799" lon="34.382716"><ele>21.8</ele><time>2026-04-07T11:44:24Z</time></trkpt><trkpt lat="-18.911261" lon="34.382813"><ele>21.7</ele><time>2026-04-07T11:44:32Z</time></trkpt><trkpt lat="-18.911605" lon="34.38287"><ele>21.9</ele><time>2026-04-07T11:44:38Z</time></trkpt><trkpt lat="-18.911834" lon="34.38293"><ele>21.3</ele><time>2026-04-07T11:44:42Z</time></trkpt><trkpt lat="-18.91299" lon="34.383349"><ele>22.1</ele><time>2026-04-07T11:45:03Z</time></trkpt><trkpt lat="-18.91322" lon="34.383409"><ele>21.7</ele><time>2026-04-07T11:45:07Z</time></trkpt><trkpt lat="-18.913562" lon="34.383529"><ele>22.0</ele><time>2026-04-07T11:45:13Z</time></trkpt><trkpt lat="-18.913746" lon="34.383569"><ele>22.0</ele><time>2026-04-07T11:45:16Z</time></trkpt><trkpt lat="-18.913986" lon="34.383604"><ele>21.7</ele><time>2026-04-07T11:45:20Z</time></trkpt><trkpt lat="-18.914914" lon="34.383691"><ele>21.6</ele><time>2026-04-07T11:45:35Z</time></trkpt><trkpt lat="-18.915037" lon="34.38369"><ele>22.1</ele><time>2026-04-07T11:45:37Z</time></trkpt><trkpt lat="-18.915099" lon="34.3837"><ele>21.6</ele><time>2026-04-07T11:45:38Z</time></trkpt><trkpt lat="-18.915648" lon="34.383685"><ele>22.0</ele><time>2026-04-07T11:45:47Z</time></trkpt><trkpt lat="-18.91573" lon="34.383695"><ele>20.7</ele><time>2026-04-07T11:45:48Z</time></trkpt><trkpt lat="-18.915817" lon="34.38368"><ele>20.6</ele><time>2026-04-07T11:45:50Z</time></trkpt><trkpt lat="-18.91623" lon="34.383663"><ele>21.1</ele><time>2026-04-07T11:45:58Z</time></trkpt><trkpt lat="-18.916397" lon="34.383642"><ele>21.8</ele><time>2026-04-07T11:46:02Z</time></trkpt><trkpt lat="-18.916825" lon="34.383557"><ele>21.5</ele><time>2026-04-07T11:46:12Z</time></trkpt><trkpt lat="-18.917015" lon="34.383539"><ele>21.5</ele><time>2026-04-07T11:46:17Z</time></trkpt><trkpt lat="-18.917448" lon="34.383558"><ele>20.0</ele><time>2026-04-07T11:46:31Z</time></trkpt><trkpt lat="-18.917678" lon="34.383556"><ele>22.0</ele><time>2026-04-07T11:46:40Z</time></trkpt><trkpt lat="-18.917783" lon="34.383571"><ele>21.0</ele><time>2026-04-07T11:46:47Z</time></trkpt><trkpt lat="-18.917896" lon="34.38356"><ele>20.0</ele><time>2026-04-07T11:46:52Z</time></trkpt><trkpt lat="-18.918217" lon="34.383468"><ele>22.0</ele><time>2026-04-07T11:47:06Z</time></trkpt><trkpt lat="-18.918333" lon="34.383379"><ele>21.0</ele><time>2026-04-07T11:47:12Z</time></trkpt><trkpt lat="-18.918384" lon="34.383303"><ele>20.0</ele><time>2026-04-07T11:47:16Z</time></trkpt><trkpt lat="-18.918515" lon="34.383251"><ele>22.0</ele><time>2026-04-07T11:47:24Z</time></trkpt><trkpt lat="-18.91872" lon="34.383296"><ele>20.0</ele><time>2026-04-07T11:47:43Z</time></trkpt><trkpt lat="-18.918816" lon="34.383331"><ele>20.0</ele><time>2026-04-07T11:48:03Z</time></trkpt><trkpt lat="-18.918777" lon="34.383441"><ele>21.2</ele><time>2026-04-07T11:48:30Z</time></trkpt><trkpt lat="-18.918822" lon="34.383339"><ele>25.1</ele><time>2026-04-07T11:48:33Z</time></trkpt><trkpt lat="-18.918834" lon="34.38327"><ele>20.0</ele><time>2026-04-07T11:48:36Z</time></trkpt><trkpt lat="-18.918857" lon="34.383227"><ele>20.0</ele><time>2026-04-07T11:48:39Z</time></trkpt><trkpt lat="-18.918886" lon="34.383215"><ele>21.0</ele><time>2026-04-07T11:48:42Z</time></trkpt><trkpt lat="-18.918918" lon="34.383217"><ele>21.0</ele><time>2026-04-07T11:48:45Z</time></trkpt><trkpt lat="-18.919088" lon="34.383244"><ele>18.0</ele><time>2026-04-07T11:49:31Z</time></trkpt><trkpt lat="-18.919068" lon="34.383243"><ele>23.7</ele><time>2026-04-07T11:50:03Z</time></trkpt></trkseg></trk></gpx>