<?xml version="1.0" ?><gpx xmlns="http://www.topografix.com/GPX/1/1" creator="GaiaGPS" version="1.1" xmlns:xsi="http://www.w3.org/2001/XMLSchema-instance" xsi:schemaLocation="http://www.topografix.com/GPX/1/1 http://www.topografix.com/GPX/1/1/gpx.xsd"><trk><name>Checking full extent and finding out end of it</name><desc></desc><extensions><line xmlns="http://www.topografix.com/GPX/gpx_style/0/2"><color>0479FF</color></line></extensions><trkseg><trkpt lat="-18.899552" lon="34.499592"><ele>22.1</ele><time>2026-04-07T05:37:17Z</time></trkpt><trkpt lat="-18.899549" lon="34.499699"><ele>20.0</ele><time>2026-04-07T05:37:23Z</time></trkpt><trkpt lat="-18.899587" lon="34.499869"><ele>20.0</ele><time>2026-04-07T05:37:31Z</time></trkpt><trkpt lat="-18.899588" lon="34.499911"><ele>20.0</ele><time>2026-04-07T05:37:33Z</time></trkpt><trkpt lat="-18.899566" lon="34.499993"><ele>20.0</ele><time>2026-04-07T05:37:37Z</time></trkpt><trkpt lat="-18.899519" lon="34.50011"><ele>22.0</ele><time>2026-04-07T05:37:43Z</time></trkpt><trkpt lat="-18.899485" lon="34.500132"><ele>21.8</ele><time>2026-04-07T05:37:45Z</time></trkpt><trkpt lat="-18.899479" lon="34.500169"><ele>22.0</ele><time>2026-04-07T05:37:46Z</time></trkpt><trkpt lat="-18.8994" lon="34.500325"><ele>20.0</ele><time>2026-04-07T05:37:54Z</time></trkpt><trkpt lat="-18.899318" lon="34.500428"><ele>22.0</ele><time>2026-04-07T05:38:00Z</time></trkpt><trkpt lat="-18.899153" lon="34.500535"><ele>22.8</ele><time>2026-04-07T05:38:10Z</time></trkpt><trkpt lat="-18.899074" lon="34.500616"><ele>22.0</ele><time>2026-04-07T05:38:15Z</time></trkpt><trkpt lat="-18.899026" lon="34.500733"><ele>22.0</ele><time>2026-04-07T05:38:21Z</time></trkpt><trkpt lat="-18.899014" lon="34.500812"><ele>21.7</ele><time>2026-04-07T05:38:25Z</time></trkpt><trkpt lat="-18.899015" lon="34.500888"><ele>20.0</ele><time>2026-04-07T05:38:28Z</time></trkpt><trkpt lat="-18.899001" lon="34.500931"><ele>20.0</ele><time>2026-04-07T05:38:30Z</time></trkpt><trkpt lat="-18.899024" lon="34.50116"><ele>22.0</ele><time>2026-04-07T05:38:40Z</time></trkpt><trkpt lat="-18.899084" lon="34.501407"><ele>22.0</ele><time>2026-04-07T05:38:54Z</time></trkpt><trkpt lat="-18.899133" lon="34.501498"><ele>21.0</ele><time>2026-04-07T05:39:03Z</time></trkpt><trkpt lat="-18.899236" lon="34.501617"><ele>23.5</ele><time>2026-04-07T05:39:16Z</time></trkpt><trkpt lat="-18.899291" lon="34.501909"><ele>21.0</ele><time>2026-04-07T05:39:38Z</time></trkpt><trkpt lat="-18.899317" lon="34.501927"><ele>20.0</ele><time>2026-04-07T05:39:40Z</time></trkpt><trkpt lat="-18.899351" lon="34.50204"><ele>19.0</ele><time>2026-04-07T05:39:46Z</time></trkpt><trkpt lat="-18.89955" lon="34.502345"><ele>20.0</ele><time>2026-04-07T05:40:06Z</time></trkpt><trkpt lat="-18.899705" lon="34.5025"><ele>18.0</ele><time>2026-04-07T05:40:17Z</time></trkpt><trkpt lat="-18.899796" lon="34.502622"><ele>19.0</ele><time>2026-04-07T05:40:25Z</time></trkpt><trkpt lat="-18.899881" lon="34.502758"><ele>19.0</ele><time>2026-04-07T05:40:33Z</time></trkpt><trkpt lat="-18.899912" lon="34.502781"><ele>20.0</ele><time>2026-04-07T05:40:35Z</time></trkpt><trkpt lat="-18.900002" lon="34.502926"><ele>20.3</ele><time>2026-04-07T05:40:45Z</time></trkpt><trkpt lat="-18.900173" lon="34.503109"><ele>18.0</ele><time>2026-04-07T05:40:58Z</time></trkpt><trkpt lat="-18.90023" lon="34.503222"><ele>19.0</ele><time>2026-04-07T05:41:03Z</time></trkpt><trkpt lat="-18.900456" lon="34.503507"><ele>20.0</ele><time>2026-04-07T05:41:17Z</time></trkpt><trkpt lat="-18.900675" lon="34.5037"><ele>20.0</ele><time>2026-04-07T05:41:29Z</time></trkpt><trkpt lat="-18.90074" lon="34.503771"><ele>20.0</ele><time>2026-04-07T05:41:33Z</time></trkpt><trkpt lat="-18.901302" lon="34.5042"><ele>21.0</ele><time>2026-04-07T05:42:02Z</time></trkpt><trkpt lat="-18.901473" lon="34.504299"><ele>21.0</ele><time>2026-04-07T05:42:10Z</time></trkpt><trkpt lat="-18.901761" lon="34.504421"><ele>20.0</ele><time>2026-04-07T05:42:23Z</time></trkpt><trkpt lat="-18.9018" lon="34.504446"><ele>22.1</ele><time>2026-04-07T05:42:25Z</time></trkpt><trkpt lat="-18.901974" lon="34.504494"><ele>20.0</ele><time>2026-04-07T05:42:32Z</time></trkpt><trkpt lat="-18.902575" lon="34.504713"><ele>20.4</ele><time>2026-04-07T05:42:58Z</time></trkpt><trkpt lat="-18.902741" lon="34.50479"><ele>20.0</ele><time>2026-04-07T05:43:05Z</time></trkpt><trkpt lat="-18.902795" lon="34.504798"><ele>19.9</ele><time>2026-04-07T05:43:07Z</time></trkpt><trkpt lat="-18.903537" lon="34.50513"><ele>20.0</ele><time>2026-04-07T05:43:40Z</time></trkpt><trkpt lat="-18.903678" lon="34.505176"><ele>20.0</ele><time>2026-04-07T05:43:46Z</time></trkpt><trkpt lat="-18.904015" lon="34.505243"><ele>20.8</ele><time>2026-04-07T05:44:01Z</time></trkpt><trkpt lat="-18.904245" lon="34.505251"><ele>20.0</ele><time>2026-04-07T05:44:10Z</time></trkpt><trkpt lat="-18.90468" lon="34.505223"><ele>20.0</ele><time>2026-04-07T05:44:28Z</time></trkpt><trkpt lat="-18.904824" lon="34.505226"><ele>20.0</ele><time>2026-04-07T05:44:34Z</time></trkpt><trkpt lat="-18.905274" lon="34.505304"><ele>20.0</ele><time>2026-04-07T05:44:52Z</time></trkpt><trkpt lat="-18.905888" lon="34.505476"><ele>20.0</ele><time>2026-04-07T05:45:18Z</time></trkpt><trkpt lat="-18.906247" lon="34.505708"><ele>20.8</ele><time>2026-04-07T05:45:38Z</time></trkpt><trkpt lat="-18.906405" lon="34.505832"><ele>20.0</ele><time>2026-04-07T05:45:49Z</time></trkpt><trkpt lat="-18.906717" lon="34.506004"><ele>20.0</ele><time>2026-04-07T05:46:18Z</time></trkpt><trkpt lat="-18.906741" lon="34.506044"><ele>22.0</ele><time>2026-04-07T05:46:21Z</time></trkpt><trkpt lat="-18.906769" lon="34.50603"><ele>20.0</ele><time>2026-04-07T05:46:24Z</time></trkpt><trkpt lat="-18.906917" lon="34.506055"><ele>20.0</ele><time>2026-04-07T05:46:39Z</time></trkpt><trkpt lat="-18.906977" lon="34.50605"><ele>22.0</ele><time>2026-04-07T05:46:44Z</time></trkpt><trkpt lat="-18.907052" lon="34.505997"><ele>-4985.0</ele><time>2026-04-07T05:47:30Z</time></trkpt><trkpt lat="-18.90709" lon="34.505992"><ele>22.8</ele><time>2026-04-07T05:47:44Z</time></trkpt></trkseg></trk></gpx>